LoanNr_ChkDgt,Name,City,State,Zip,Bank,BankState,NAICS,ApprovalDate,ApprovalFY,Term,NoEmp,NewExist,CreateJob,RetainedJob,FranchiseCode,UrbanRural,RevLineCr,LowDoc,ChgOffDate,DisbursementDate,DisbursementGross,BalanceGross,MIS_Status,ChgOffPrinGr,GrAppv,SBA_Appv,IndustryCode,Risk,Industry
9209213005,"EXPEDITED TRUCKING, INC.",PERU,IL,61350,CENTRUE BANK,IL,0,19-Apr-96,1996,84,3,2,0,0,1,0,FALSE,TRUE,,30-Sep-96,20000,0,P I F,0,20000,16000,0,low,
9209334002,CALL ME MOBILE,BOWLING GREEN,OH,43402,STAR FINANCIAL BANK,IN,443112,28-Oct-05,2006,40,2,2,1,2,1,1,TRUE,FALSE,,30-Nov-05,20000,0,P I F,0,20000,10000,44,low,Retail trade
9209373007,CRAFTERS WALL TO WALL,ROANOKE,VA,24012,BRANCH BK. & TR CO,VA,451120,19-Apr-96,1996,73,10,1,0,0,1,0,FALSE,TRUE,,3-May-96,20000,0,P I F,0,20000,16000,45,low,Retail trade
9209803005,FRONT ROW VIDEO,SPRINGFIELD,MO,65803,BANK OF AMERICA NATL ASSOC,NC,532230,19-Apr-96,1996,84,2,1,0,0,1,0,FALSE,TRUE,,30-Apr-96,20000,0,P I F,0,20000,16000,53,low,Real estate and rental and leasing
9212013005,DIECUTTING TOOLING SERVICES,HOLYOKE,MA,1040,BANK OF AMERICA NATL ASSOC,NC,333291,22-Apr-96,1996,60,4,1,0,0,1,0,FALSE,TRUE,,31-Jul-99,20000,0,P I F,0,20000,16000,33,low,Manufacturing
9212444001,RICHARD L & KIMBERLY S CLARK,READING,PA,19606,VIST BANK,PA,812112,28-Oct-05,2006,18,1,2,1,2,1,2,FALSE,FALSE,9-Jun-11,30-Nov-05,20000,0,CHGOFF,12229,20000,10000,81,high,Other services (except public administration)
9212823001,MASS INTERNET PROVIDER SERVICE,NORTH ATTLEBORO,MA,2760,ROCKLAND TRUST COMPANY,MA,541511,22-Apr-96,1996,60,1,2,0,0,1,0,FALSE,TRUE,,30-Sep-96,20000,0,P I F,0,20000,16000,54,low,"Professional, scientific, and technical services"
9213163006,"PROGRESSIVE HEALTH SYSTEMS,INC",COLUMBIA,SC,29201,WELLS FARGO BANK NATL ASSOC,NC,0,22-Apr-96,1996,48,3,1,0,0,1,0,FALSE,TRUE,,31-Jul-96,20000,0,P I F,0,20000,16000,0,low,
9214733002,WEBBER ENTERPRISES OF SARASOTA,SARASOTA,FL,34233,WELLS FARGO BANK NATL ASSOC,SD,0,22-Apr-96,1996,60,2,1,0,0,1,0,FALSE,FALSE,,30-Apr-96,20000,0,P I F,0,20000,10000,0,low,
9215073007,H & H CONTRACTING CORP.,LOAS VEGAS,NV,89103,WELLS FARGO BANK NATL ASSOC,SD,235410,22-Apr-96,1996,60,50,1,0,0,1,0,FALSE,FALSE,,30-Apr-96,20000,0,P I F,0,20000,10000,23,low,Construction
9216133003,"TOTAL RECAL COMPANY, INC. (L)",BEAUMONT,TX,77726,CAPITAL ONE NATL ASSOC,VA,0,23-Apr-96,1996,60,3,2,0,0,1,0,FALSE,TRUE,,31-Jul-96,20000,0,P I F,0,26000,20800,0,low,
9218853000,TIN TIN,LOS ANGELES,CA,90006,WILSHIRE BANK,CA,0,23-Apr-96,1996,120,9,2,0,0,1,0,FALSE,FALSE,,30-Apr-96,20000,0,P I F,0,20000,16000,0,low,
9219183002,DAN'S PHOTO SUPPLY,NUTTER FORT,WV,26301,BRANCH BK. & TR CO,WV,443130,24-Apr-96,1996,60,2,1,0,0,1,0,FALSE,TRUE,,30-Apr-96,20000,0,P I F,0,20000,16000,44,low,Retail trade
9219794004,BOMBAY EXPRESS 1 LLC,SALT LAKE CITY,UT,84121,AMERICA FIRST FCU,UT,722110,31-Oct-05,2006,45,2,2,0,2,1,1,TRUE,FALSE,9-Jul-10,30-Nov-05,20000,0,CHGOFF,18915,20000,10000,72,high,Accommodation and food services 
9219833007,NORTH RUN ENTERPRISES,GLEN ALLEN,VA,23060,SUNTRUST BANK,GA,454210,24-Apr-96,1996,60,2,2,0,0,1,0,FALSE,TRUE,,20-May-96,20000,0,P I F,0,20000,16000,45,low,Retail trade
9219983006,ARAPAHOE ENVIRONMENTAL FUELS,ENGLEWOOD,CO,80112,JPMORGAN CHASE BANK NATL ASSOC,IL,811118,24-Apr-96,1996,18,1,1,0,0,1,0,FALSE,TRUE,,30-Sep-96,20000,0,P I F,0,20000,16000,81,low,Other services (except public administration)
9220063009,FORESTER VISION SOURCE AND CON,OKLAHOMA CITY,OK,73111,BANK OF AMERICA NATL ASSOC,NC,621320,24-Apr-96,1996,60,4,1,0,0,1,0,FALSE,TRUE,,28-Feb-97,20000,0,P I F,0,20000,16000,62,low,Health care and social assistance
9221954003,STRIDE RIGHT STABLES,BEVERLY,WV,26253,BBCN BANK,CA,812990,1-Nov-05,2006,44,1,1,0,1,1,2,FALSE,FALSE,22-May-09,30-Nov-05,20000,0,CHGOFF,15057,20000,17000,81,high,Other services (except public administration)
9223544002,AMERICAN MEDICAL SUPPLY,EL PASO,TX,79935,WELLS FARGO BANK NATL ASSOC,CA,423450,1-Nov-05,2006,60,2,1,4,6,1,1,TRUE,FALSE,,31-Dec-06,20000,0,P I F,0,20000,10000,42,low,Wholesale trade
9223853005,MLW GRAPHICS COMPANY,SYLVANIA,OH,43560,KEYBANK NATIONAL ASSOCIATION,OH,541511,25-Apr-96,1996,84,1,1,0,0,1,0,FALSE,TRUE,,31-Dec-96,20000,0,P I F,0,20000,16000,54,low,"Professional, scientific, and technical services"
9224993003,RICHARDSON EXCAVATING & TRENCH,TESUQUE,NM,87574,WELLS FARGO BANK NATL ASSOC,SD,235930,25-Apr-96,1996,60,1,1,0,0,1,0,FALSE,FALSE,,31-Jul-96,20000,0,P I F,0,20000,10000,23,low,Construction
9225083003,NIS PETER ROSSEN TRUCKING,ROSEVILLE,CA,75678,WELLS FARGO BANK NATL ASSOC,SD,0,25-Apr-96,1996,60,2,1,0,0,1,0,FALSE,FALSE,,31-Jul-96,20000,0,P I F,0,20000,10000,0,low,
9225874000,KJB EMBROIDERY  SCREENPRINT,GROVER CITY (GROVER),CA,93433,HERITAGE OAKS BANK,CA,323113,2-Nov-05,2006,96,4,1,0,4,1,2,FALSE,FALSE,,30-Nov-05,20000,0,P I F,0,20000,17000,32,low,Manufacturing
9225923006,A. J. PICKERMAN'S,CEDAR FALLS,IA,50613,WELLS FARGO BANK NATL ASSOC,IA,0,25-Apr-96,1996,60,3,2,0,0,1,0,FALSE,TRUE,,30-Sep-96,20000,0,P I F,0,20000,16000,0,low,
9226183000,MAVROMMATIS,ASTORIA,NY,11102,INVESTORS BANK,NY,0,25-Apr-96,1996,61,2,2,0,0,1,0,FALSE,TRUE,,13-May-96,20000,0,P I F,0,20000,16000,0,low,
9230063002,"B.R.A.V.E., INC.",DES MOINES,IA,50311,WEST BANK,IA,0,26-Apr-96,1996,60,3,1,0,0,1,0,FALSE,TRUE,,26-Oct-96,20000,0,P I F,0,20000,16000,0,low,
9230204003,THUNDER MESA BUILDERS INC,ALBUQUERQUE,NM,87110,U.S. BANK NATIONAL ASSOCIATION,NM,236116,3-Nov-05,2006,24,3,2,0,3,1,1,TRUE,FALSE,,31-Dec-05,20000,0,P I F,0,20000,10000,23,low,Construction
9230343003,"JACOBSON & DELOREM, INC",PEWAUKEE,WI,53072,WAUKESHA STATE BANK,WI,561440,26-Apr-96,1996,60,2,2,0,0,1,0,FALSE,TRUE,,30-Apr-97,20000,0,P I F,0,20000,16000,56,low,Administrative/support & waste management/remediation Service
9231984005,AFFORDABLE CLOSETS,DES MOINES,IA,50311,IOWA STATE BANK,IA,238390,3-Nov-05,2006,84,1,2,1,1,1,1,FALSE,FALSE,,31-Dec-05,20000,0,P I F,0,20000,10000,23,low,Construction
9232004006,ERA CROWN REALTY,ANTIOCH,TN,37013,BBCN BANK,CA,812990,3-Nov-05,2006,84,2,1,0,2,1,1,FALSE,FALSE,,30-Nov-05,20000,0,P I F,0,20000,17000,81,low,Other services (except public administration)
9233513001,A TASTE OF BLISS BAKE SHOP,GUSTON,KY,40108,MEADE COUNTY BANK,KY,0,29-Apr-96,1996,84,2,2,0,0,1,0,FALSE,TRUE,,30-Apr-96,20000,0,P I F,0,20000,16000,0,low,
9233633002,PAUL'S CUISINE & CATERING,SEATTLE,WA,98133,BANK OF AMERICA NATL ASSOC,NC,0,29-Apr-96,1996,60,1,1,0,0,1,0,FALSE,TRUE,,31-Dec-97,20000,0,P I F,0,20000,16000,0,low,
9234494006,THE DONUT SHOP LLC,CROSSVILLE,TN,38555,BBCN BANK,CA,722213,4-Nov-05,2006,59,7,1,4,7,1,2,FALSE,FALSE,9-Mar-08,30-Nov-05,20000,0,CHGOFF,16982,20000,17000,72,high,Accommodation and food services 
9234734006,FRESH KUTTS ON THE BLVD INC,CHARLOTTE,NC,28203,BBCN BANK,CA,812112,4-Nov-05,2006,84,1,2,2,1,1,1,FALSE,FALSE,,30-Nov-05,20000,0,P I F,0,20000,17000,81,low,Other services (except public administration)
9235714002,DEBORAH J HART MD,MOBILE,AL,36608,BBCN BANK,CA,621999,4-Nov-05,2006,44,5,1,3,5,1,1,FALSE,FALSE,19-Oct-10,30-Nov-05,20000,0,CHGOFF,14341,20000,17000,62,high,Health care and social assistance
9235734008,EXPRESS BILLIARDS.COM,CHATTANOOGA,TN,37405,BBCN BANK,CA,451110,4-Nov-05,2006,84,1,2,1,1,1,1,FALSE,FALSE,,30-Nov-05,20000,0,P I F,0,20000,17000,45,low,Retail trade
9235793008,"SDR, INC.",SPENCER,MA,1526,BAY STATE SAVINGS BANK,MA,713910,30-Apr-96,1996,60,2,1,0,0,1,0,FALSE,TRUE,,31-Jul-96,20000,0,P I F,0,20000,16000,71,low,"Arts, entertainment, and recreation"
9235923010,TOM'S MOTOR SERVICE,RED WING,MN,55066,WELLS FARGO BANK NATL ASSOC,SD,0,30-Apr-96,1996,116,1,2,0,0,1,0,FALSE,TRUE,,30-Oct-96,20000,0,P I F,0,20000,16000,0,low,
9236813003,TEACHERS STUFF,RICHLAND CENTER,WI,53581,BMO HARRIS BK NATL ASSOC,IL,451211,30-Apr-96,1996,48,3,1,0,0,1,0,FALSE,TRUE,,31-Jul-96,20000,0,P I F,0,20000,16000,45,low,Retail trade
9238214000,QUIZNOS SUB,KEOKUK,IA,52632,INDEPENDENCE BANK,RI,722211,4-Nov-05,2006,111,2,2,10,2,68020,1,FALSE,FALSE,29-Oct-07,28-Feb-06,20000,0,CHGOFF,19168,20000,10000,72,high,Accommodation and food services 
9238243002,ARMSTRONG CENTER FOOD COURT,CEDAR RAPIDS,IA,52401,U.S. BANK NATIONAL ASSOCIATION,OH,0,30-Apr-96,1996,60,9,1,0,0,1,0,FALSE,TRUE,,30-Apr-96,20000,0,P I F,0,20000,16000,0,low,
9239763007,"WEST GLEN COMMUNICATIONS, INC.",NEW YORK,NY,10018,WELLS FARGO BANK NATL ASSOC,SD,512110,30-Apr-96,1996,60,30,1,0,0,1,0,FALSE,FALSE,,31-Jul-96,20000,0,P I F,0,20000,10000,51,low,Information
9240493006,"TRIFENT, INC.",BANGOR,ME,4401,BANK OF AMERICA NATL ASSOC,NC,0,1-May-96,1996,60,20,1,0,0,78760,0,FALSE,TRUE,,31-Jul-97,20000,0,P I F,0,20000,16000,0,low,
9243313004,"PHILLIPS INSURANCE AGENCY, INC",KENNER,LA,70062,JPMORGAN CHASE BANK NATL ASSOC,IL,0,1-May-96,1996,60,2,1,0,0,1,0,FALSE,TRUE,,31-Jul-96,20000,0,P I F,0,20000,16000,0,low,
9244944003,DESALES PHARMACY,CINCINNATI,OH,45206,"PNC BANK, NATIONAL ASSOCIATION",DE,446110,7-Nov-05,2006,24,2,2,0,0,1,1,TRUE,FALSE,,30-Nov-05,20000,0,P I F,0,20000,10000,44,low,Retail trade
9245413003,THE SURF CLUB,ARNOLDS PARK,IA,51360,"LIBERTY BANK, FSB",IA,0,2-May-96,1996,84,3,1,0,0,1,0,FALSE,TRUE,,31-Jul-96,20000,0,P I F,0,20000,16000,0,low,
9245994009,HCS TECHNOLOGIES INC,REEDSVILLE,WV,26547,BBCN BANK,CA,235310,7-Nov-05,2006,4,8,1,2,8,1,2,FALSE,FALSE,30-Aug-12,30-Nov-05,20000,0,P I F,3153,20000,17000,23,low,Construction
9247773010,HALF MOON MUSIC,VIRGINIA BEACH,VA,23451,WELLS FARGO BANK NATL ASSOC,SD,451220,2-May-96,1996,60,3,1,0,0,1,0,FALSE,FALSE,,31-Jul-96,20000,0,P I F,0,20000,10000,45,low,Retail trade
9247994002,PRECISION FIRE & APPARATUS REP,ALLEGAN,MI,49010,CHEMICAL BANK,MI,423690,8-Nov-05,2006,60,4,1,0,4,1,1,FALSE,FALSE,,31-Jan-06,20000,0,P I F,0,20000,10000,42,low,Wholesale trade
9249903005,ANIMALIA,SAN FRANCISCO,CA,94108,WELLS FARGO BANK NATL ASSOC,SD,0,3-May-96,1996,60,6,1,0,0,1,0,TRUE,FALSE,,30-Apr-01,20000,0,P I F,0,20000,10000,0,low,
9251253010,MCKINLEY PLUMBING,SEASIDE,CA,93955,COMMUNITY BK OF CENT. CALIFORN,CA,235110,3-May-96,1996,84,2,1,0,0,1,0,FALSE,TRUE,,31-Dec-96,20000,0,P I F,0,20000,16000,23,low,Construction
9252644007,AK TRUCKING,RICHMOND HEIGHTS,OH,44143,U.S. BANK NATIONAL ASSOCIATION,OH,484122,9-Nov-05,2006,48,1,1,0,1,1,1,TRUE,FALSE,5-Jan-09,30-Nov-05,20000,0,CHGOFF,15669,20000,17000,48,high,Transportation and warehousing
9252863007,D'AMBROSIO & GRIBIK,FALL RIVER,MA,2720,BANKFIVE,MA,0,6-May-96,1996,84,2,2,0,0,1,0,FALSE,TRUE,,31-Jul-96,20000,0,P I F,0,20000,16000,0,low,
9254204008,NEIGHBORHOOD DAYCARE CENTER,BATON ROUGE,LA,70814,BBCN BANK,CA,624410,9-Nov-05,2006,22,32,1,2,32,1,1,FALSE,FALSE,15-Feb-11,30-Nov-05,20000,0,CHGOFF,9766,20000,17000,62,high,Health care and social assistance
9255094003,INTERNATIONAL FOODS,BERRIEN SPRINGS,MI,49103,WELLS FARGO BANK NATL ASSOC,SD,445110,9-Nov-05,2006,37,1,1,2,3,1,1,FALSE,FALSE,30-Nov-07,30-Nov-05,20000,0,CHGOFF,13949,20000,10000,44,high,Retail trade
9255643006,"H & M HEATING & COOLING, INC.",CENTERVILLE,OH,45458,"PNC BANK, NATIONAL ASSOCIATION",OH,235110,7-May-96,1996,63,6,1,0,0,1,0,FALSE,TRUE,,31-Jul-96,20000,0,P I F,0,20000,16000,23,low,Construction
9256093009,COOPER-WELLER&MACHINE SHOP INC,EXETER,CA,93221,BANK OF THE SIERRA,CA,0,7-May-96,1996,72,8,1,0,0,1,0,FALSE,TRUE,,30-Apr-96,20000,0,P I F,0,20000,16000,0,low,
9256163006,GENESTRA LEE'S VICTORIAN GIFTS,NEWEBURYPORT,MA,1950,NEWBURYPORT FIVE CENTS SAVINGS,MA,453220,7-May-96,1996,84,2,2,0,0,1,0,FALSE,TRUE,,30-Apr-96,20000,0,P I F,0,20000,16000,45,low,Retail trade
9256384009,KLEE INC,SANTA CLARA,CA,95051,BBCN BANK,CA,421440,10-Nov-05,2006,19,4,1,1,4,1,1,FALSE,FALSE,6-May-11,30-Nov-05,20000,0,CHGOFF,7531,20000,17000,42,high,Wholesale trade
9256453010,NORTHAIRE MARKET INC,SHAKOPEE,MN,55379,FIDELITY BANK,MN,0,7-May-96,1996,12,2,1,0,0,1,0,FALSE,TRUE,,7-Feb-96,20000,0,P I F,0,20000,16000,0,low,
9256903003,GERARD CONSTRUCTION CO.,AURORA,CO,80012,WELLS FARGO BANK NATL ASSOC,CO,0,7-May-96,1996,48,1,1,0,0,1,0,FALSE,FALSE,,28-Feb-97,20000,0,P I F,0,20000,16000,0,low,
9256973002,NEW MAY MEAT FARM,BRONX,NY,10460,WELLS FARGO BANK NATL ASSOC,SD,0,7-May-96,1996,60,6,1,0,0,1,0,FALSE,FALSE,,30-Apr-96,20000,0,P I F,0,20000,10000,0,low,
9257143002,A.J. YOUNG PRINTING SERVICES,HAZELWOOD,MO,63042,U.S. BANK NATIONAL ASSOCIATION,OH,0,7-May-96,1996,84,1,1,0,0,1,0,FALSE,TRUE,,31-Jul-96,20000,0,P I F,0,20000,16000,0,low,
9257194002,ONYX DISTRIBUTION & SERVICES L,CHICAGO,IL,60616,BBCN BANK,CA,561720,10-Nov-05,2006,22,3,1,1,3,1,1,FALSE,FALSE,2-Mar-11,30-Nov-05,20000,0,P I F,12051,20000,17000,56,low,Administrative/support & waste management/remediation Service
9257454008,YARDBIRDS SOUTHERN BBQ & SPORT,SOMERVILLE,OH,45064,"PNC BANK, NATIONAL ASSOCIATION",DE,722211,10-Nov-05,2006,2,1,2,9,10,1,2,TRUE,FALSE,7-Mar-14,30-Apr-08,20000,0,CHGOFF,10000,10000,5000,72,high,Accommodation and food services 
9259123000,MERCHANT DESIGN,GASTONIA,NC,28053,WELLS FARGO BANK NATL ASSOC,SD,0,7-May-96,1996,60,23,1,0,0,1,0,FALSE,FALSE,,31-Jul-96,20000,0,P I F,0,20000,10000,0,low,
9259254000,TEDDY BEAR CHILDCARE,BONNERS FERRY,ID,83805,MOUNTAIN W. BANK A DIVISION OF,ID,624410,10-Nov-05,2006,96,1,1,0,1,1,2,FALSE,FALSE,,30-Nov-05,20000,0,P I F,0,20000,17000,62,low,Health care and social assistance
9259503007,THE TRADITIONAL TOUCH,ALTOONA,PA,16601,FIRST COMMONWEALTH BANK,PA,0,8-May-96,1996,23,2,1,0,0,1,0,FALSE,TRUE,26-Sep-01,31-Jul-96,20000,0,CHGOFF,3633,20000,16000,0,high,
9259593001,"SANDERS, THOMAS G. & HELEN I.",HARTVILLE,MO,65667,SOUTHERN MISSOURI BK OF MARSHF,MO,0,8-May-96,1996,60,2,1,0,0,1,0,FALSE,FALSE,,30-Apr-96,20000,0,P I F,0,20000,15000,0,low,
9259723003,"EDGER ENT. OF ELMIRA, INC.",ELMIRA,NY,14901,MANUFACTURERS & TRADERS TR CO,NY,0,8-May-96,1996,60,10,1,0,0,1,0,FALSE,TRUE,,31-Oct-01,20000,0,P I F,0,20000,16000,0,low,
9259924000,GINNI DESIGNS INC,CORONA,CA,92881,BBCN BANK,CA,711510,10-Nov-05,2006,49,2,1,0,2,1,1,FALSE,FALSE,21-Jan-09,30-Nov-05,20000,0,CHGOFF,15466,20000,17000,71,high,"Arts, entertainment, and recreation"
9260073006,J & S AUTO REPAIR,ABBEVILLE,LA,70510,GULF COAST BANK,LA,811111,8-May-96,1996,184,2,2,0,0,1,0,FALSE,TRUE,,31-Jul-96,20000,0,P I F,0,20000,16000,81,low,Other services (except public administration)
9263643006,SAS ELECTRONICS & COMMUN. CORP,FARMINGDALE,NY,11735,WELLS FARGO BANK NATL ASSOC,SD,235310,9-May-96,1996,60,5,1,0,0,1,0,FALSE,FALSE,,31-Aug-98,20000,0,P I F,0,20000,10000,23,low,Construction
9263693010,THREE KIDS BARBER&BEAUTY SUPPL,STATEN ISLAND,NY,10314,SANTANDER BANK NATL ASSOC,NY,0,9-May-96,1996,85,3,1,0,0,1,0,FALSE,TRUE,,13-Jun-96,20000,0,P I F,0,20000,16000,0,low,
9264353004,THE DENTISTS'S CHOICE,CAMDEN,NY,13316,MANUFACTURERS & TRADERS TR CO,NY,0,9-May-96,1996,36,1,2,0,0,21038,0,FALSE,TRUE,,31-Jul-96,20000,0,P I F,0,20000,16000,0,low,
9264513004,NAUCK'S VINTAGE RECORDS (L),SPRING,TX,77389,AMEGY BK NATL ASSOC,TX,454110,9-May-96,1996,60,2,1,0,0,1,0,FALSE,TRUE,,30-Sep-96,20000,0,P I F,0,20000,16000,45,low,Retail trade
9266403010,LEE'S PROPERTY MAINTENANCE,OAKDALE,MN,55128,WELLS FARGO BANK NATL ASSOC,MN,561730,10-May-96,1996,54,4,1,0,0,1,0,FALSE,TRUE,,10-Nov-96,20000,0,P I F,0,20000,16000,56,low,Administrative/support & waste management/remediation Service
9268543010,"CREATIVE NETWORK, INC.",OVERLAND PARK,KS,66204,METCALF BANK,KS,541430,10-May-96,1996,60,3,1,0,0,1,0,FALSE,TRUE,,31-Jul-96,20000,0,P I F,0,20000,16000,54,low,"Professional, scientific, and technical services"
9268683006,"PROOS SECURITY, INC.",NEWPORT BEACH,CA,92660,WELLS FARGO BANK NATL ASSOC,SD,0,10-May-96,1996,60,50,1,0,0,1,0,FALSE,FALSE,,31-Jul-96,20000,0,P I F,0,20000,10000,0,low,
9269403005,RED CLOVER TRADING CO,BRATTLEBORO,VT,5301,CHITTENDEN TR COMPANY A DIVISI,VT,0,13-May-96,1996,36,4,1,0,0,1,0,FALSE,TRUE,,30-Sep-96,20000,0,P I F,0,20000,16000,0,low,
9269483007,"CLIMB-MAX, INC.",NEW ORLEANS,LA,70124,FIRST BANK AND TRUST,LA,0,13-May-96,1996,60,8,2,0,0,1,0,FALSE,TRUE,,31-Jul-96,20000,0,P I F,0,20000,16000,0,low,
9270793003,"SUN DIAL TANNING SALON, INC.",TALLAHASSEE,FL,32301,HANCOCK BANK,FL,0,13-May-96,1996,60,2,2,0,0,1,0,FALSE,TRUE,,31-Jul-96,20000,0,P I F,0,20000,16000,0,low,
9271224005,THE GENTLEMAN'S QUARTERS SALON,LOGAN,UT,84321,AMERICA FIRST FCU,UT,812112,14-Nov-05,2006,84,8,2,0,8,1,2,TRUE,FALSE,,30-Nov-05,20000,0,P I F,0,20000,10000,81,low,Other services (except public administration)
9273033004,K & W CUSTOM AUTO,SOUTH WINDSOR,CT,6074,FIRST NIAGARA BANK NATL ASSOC,CT,811121,14-May-96,1996,60,2,1,0,0,1,0,FALSE,TRUE,,31-Jul-96,20000,0,P I F,0,20000,16000,81,low,Other services (except public administration)
9273613001,FRYE LANDSCAPING SERVICE,W. NEWBURY,MA,1985,BANK OF AMERICA NATL ASSOC,MA,0,14-May-96,1996,12,6,1,0,0,1,0,TRUE,FALSE,,31-Jul-96,20000,0,P I F,0,20000,10000,0,low,
9273863006,WOLCOTT DELI & CONVENIENCE LLC,WOLCOTT,CT,6716,BANK OF AMERICA NATL ASSOC,RI,0,14-May-96,1996,60,6,2,0,0,1,0,FALSE,TRUE,,31-Jul-96,20000,0,P I F,0,20000,16000,0,low,
9275544004,PLASTICON INC,KANSAS CITY,KS,66115,COMMUNITY FIRST BANK,KS,322221,15-Nov-05,2006,35,3,1,0,3,1,1,FALSE,FALSE,,31-Dec-05,20000,0,P I F,0,20000,10000,32,low,Manufacturing
9275623008,MAKING MEMORIES,ONEIDA,TN,37841,1ST NATL BK OF ONEIDA,TN,332212,14-May-96,1996,84,3,1,0,0,1,0,FALSE,TRUE,,31-Jul-96,20000,0,P I F,0,20000,16000,33,low,Manufacturing
9277213007,"VANGUARD BURGLAR ALARMS, CO.",COLUMBUS,GA,31904,SYNOVUS BANK,GA,561621,15-May-96,1996,60,3,1,0,0,1,0,FALSE,TRUE,,31-Oct-96,20000,0,P I F,0,20000,16000,56,low,Administrative/support & waste management/remediation Service
9277773000,MO BETTER BARBER SHOP,WOODBRIDGE,VA,22191,WELLS FARGO BANK NATL ASSOC,SD,0,15-May-96,1996,84,6,1,0,0,1,0,FALSE,TRUE,,30-Sep-96,20000,0,P I F,0,20000,16000,0,low,
9277963009,THE HIGHER GROUND,LOS ANGELES,CA,90069,ROYAL BUSINESS BANK,CA,0,15-May-96,1996,87,3,2,0,0,1,0,FALSE,TRUE,,30-Apr-97,20000,0,P I F,0,20000,16000,0,low,
9278143001,SHEET METAL PRODUCTS OF SNM,LAS CRUCES,NM,88005,WELLS FARGO BANK NATL ASSOC,NM,235610,15-May-96,1996,84,1,2,0,0,1,0,FALSE,TRUE,,30-Sep-96,20000,0,P I F,0,20000,16000,23,low,Construction
9280293010,BURKLON PRODUCTIONS,ROGERS,AR,72756,1ST NATL BK OF FT SMITH,AR,512110,16-May-96,1996,36,2,1,0,0,1,0,FALSE,TRUE,,31-Jul-96,20000,0,P I F,0,20000,16000,51,low,Information
9282723001,"PREMIER PATCHING, INC.",NAPOLEON,OH,43545,KEYBANK NATIONAL ASSOCIATION,OH,234110,16-May-96,1996,36,9,1,0,0,1,0,FALSE,FALSE,,30-Jun-98,20000,0,P I F,0,20000,10000,23,low,Construction
9283333004,ROGER D. & TAMMY NEWKIRK,ROCK RIVER,WY,82083,CAPITAL WEST BANK,WY,112111,16-May-96,1996,84,2,2,0,0,1,0,FALSE,TRUE,,30-Jun-97,20000,0,P I F,0,20000,16000,11,low,"Agriculture, forestry, fishing and hunting"
9283623008,MERLE NORMAN COSMETICS SUTDIO,DAYTONA BEACH,FL,32114,WELLS FARGO BANK NATL ASSOC,SD,0,16-May-96,1996,60,2,1,0,0,59450,0,FALSE,FALSE,,31-Jul-96,20000,0,P I F,0,20000,10000,0,low,
9284994001,PEN-TEX INC,MEDIA,PA,19063,"PNC BANK, NATIONAL ASSOCIATION",DE,492110,17-Nov-05,2006,83,5,2,2,7,81612,1,TRUE,FALSE,,31-Dec-05,20000,0,P I F,0,20000,10000,49,low,Transportation and warehousing
9285563007,"BREWER & ASSOCIATES, CPAS, PC",BRYANS RD.,MD,20616,WELLS FARGO BANK NATL ASSOC,SD,0,17-May-96,1996,60,4,1,0,0,1,0,FALSE,FALSE,,31-Jul-96,20000,0,P I F,0,20000,10000,0,low,
9285724003,SERVICE MASTER,POMPANO BEACH,FL,33069,"CITIBANK, N.A.",SD,561720,17-Nov-05,2006,55,10,1,4,10,1,1,TRUE,FALSE,12-Aug-08,31-Dec-05,20000,0,CHGOFF,4811,20000,10000,56,high,Administrative/support & waste management/remediation Service
9287003007,"BLACKWATERS OF NC, INC.",ELON COLLEGE,NC,27244,WELLS FARGO BANK NATL ASSOC,NC,0,17-May-96,1996,42,1,2,0,0,1,0,FALSE,TRUE,,31-Dec-96,20000,0,P I F,0,20000,16000,0,low,
9287174008,STRYTECH GROUP INC,NORTHBROOK,IL,60062,BBCN BANK,CA,421830,17-Nov-05,2006,84,1,1,2,1,1,1,FALSE,FALSE,,30-Nov-05,20000,0,P I F,0,20000,17000,42,low,Wholesale trade
9287823006,K-3 CENTERLESS GRINDING,MILWAUKEE,WI,53218,U.S. BANK NATIONAL ASSOCIATION,WI,0,18-May-96,1996,60,1,1,0,0,1,0,FALSE,TRUE,,31-Jan-97,20000,0,P I F,0,20000,16000,0,low,
9289953003,NORTHWAY BARBER SHOP,ANCHORAGE,AK,99508,WELLS FARGO BANK NATL ASSOC,AK,0,20-May-96,1996,36,1,2,0,0,1,0,FALSE,FALSE,,31-Jul-96,20000,0,P I F,0,20000,16000,0,low,
9290654000,LOLA'S DELI,OMAHA,NE,68127,BBCN BANK,CA,445210,18-Nov-05,2006,57,4,1,2,4,1,1,FALSE,FALSE,10-Apr-08,30-Nov-05,20000,0,CHGOFF,16332,20000,17000,44,high,Retail trade
9290814000,PULSE ENGINEERING,BILLINGS,MT,59105,STOCKMAN BANK OF MONTANA,MT,336991,18-Nov-05,2006,84,2,1,0,0,1,1,FALSE,FALSE,,30-Nov-05,20000,0,P I F,0,20000,17000,33,low,Manufacturing
9290874007,SIGNS FIRST,GREELEY,CO,80631,WELLS FARGO BANK NATL ASSOC,SD,339950,18-Nov-05,2006,60,6,1,1,7,1,1,FALSE,FALSE,,30-Nov-05,20000,0,P I F,0,20000,10000,33,low,Manufacturing
9292433001,CAMELOT BILLING SERVICE,OAK LAWN,IL,60453,SUBURBAN BANK & TRUST COMPANY,IL,561440,21-May-96,1996,84,1,1,0,0,1,0,FALSE,TRUE,,31-Jul-96,20000,0,P I F,0,20000,16000,56,low,Administrative/support & waste management/remediation Service
9292894006,HAIR HOSPITAL AND BODY CLINIC,BISMARCK,ND,58501,AMERICAN BANK CENTER,ND,812112,18-Nov-05,2006,23,20,1,0,0,1,1,FALSE,FALSE,,31-Jan-06,20000,0,P I F,0,20000,10000,81,low,Other services (except public administration)
9294383003,"ROBROY PACKAGING CO., A KANSAS",LEAWOOD,KS,66206,BANK OF AMERICA NATL ASSOC,NC,488991,21-May-96,1996,76,3,2,0,0,61398,0,FALSE,FALSE,,31-Jan-97,20000,0,P I F,0,20000,10000,48,low,Transportation and warehousing
9295223003,KENTUCKY KUSTOMS,PADUCAH,KY,42001,U.S. BANK NATIONAL ASSOCIATION,OH,233210,22-May-96,1996,13,7,1,0,0,1,0,FALSE,TRUE,20-Aug-03,31-Mar-97,20000,0,CHGOFF,13318,20000,16000,23,high,Construction
9295973005,V. JAIME HAMLIN CATERING,VINEYARD,MA,2568,THE EDGARTOWN NATIONAL BANK,MA,0,22-May-96,1996,48,12,1,0,0,1,0,FALSE,TRUE,,31-Jul-96,20000,0,P I F,0,20000,16000,0,low,
9296863009,"CLASSIC SWEEPER, INC.",SEVERNA PARK,MD,21146,MANUFACTURERS & TRADERS TR CO,MD,0,22-May-96,1996,60,1,1,0,0,1,0,FALSE,TRUE,,30-Sep-96,20000,0,P I F,0,20000,16000,0,low,
9298763007,SHOTOKAN KARATE CLUB,CLARK,NJ,7066,CONNECTONE BANK,NJ,0,23-May-96,1996,60,1,2,0,0,1,0,FALSE,TRUE,,13-Jun-96,20000,0,P I F,0,20000,16000,0,low,
9299103010,"GOUGHNOUR ENGINEERING, PC",HERNDON,VA,22070,MANUFACTURERS & TRADERS TR CO,MD,541330,23-May-96,1996,60,1,2,0,0,1,0,FALSE,TRUE,,31-Oct-96,20000,0,P I F,0,20000,16000,54,low,"Professional, scientific, and technical services"
9299123005,Mel S. Brooks,ROCHESTER,NY,14613,MANUFACTURERS & TRADERS TR CO,NY,235420,23-May-96,1996,36,2,1,0,0,1,0,FALSE,TRUE,,31-Jul-96,20000,0,P I F,0,20000,16000,23,low,Construction
9300113000,"GIBBS & ASSOCITATES, P.C.",PITTSBURGH,PA,15220,WELLS FARGO BANK NATL ASSOC,SD,0,23-May-96,1996,60,1,1,0,0,1,0,FALSE,FALSE,,31-Jul-96,20000,0,P I F,0,20000,10000,0,low,
9300193002,COUNTRY LIVING,WINDHAM,VT,5359,BERKSHIRE BANK,VT,0,23-May-96,1996,84,1,1,0,0,1,0,FALSE,TRUE,,31-Oct-96,20000,0,P I F,0,20000,16000,0,low,
9300423010,PHILLY'S INC.,ROCHELLE,IL,61068,BMO HARRIS BK NATL ASSOC,IL,0,23-May-96,1996,60,6,2,0,0,1,0,FALSE,TRUE,,30-Sep-96,20000,0,P I F,0,20000,16000,0,low,
9300793005,"NEW ENGLAND WINE BROKERAGE,INC",SHREWSBURY,MA,1545,WELLS FARGO BANK NATL ASSOC,SD,445310,23-May-96,1996,60,3,1,0,0,1,0,TRUE,FALSE,,30-Apr-01,20000,0,P I F,0,20000,10000,44,low,Retail trade
9301553005,"BIG BANG PRODUCTION, INC.",HARTFORT,CT,6134,BANK OF AMERICA NATL ASSOC,RI,512110,23-May-96,1996,12,2,1,0,0,1,0,FALSE,FALSE,,31-Jul-96,20000,0,P I F,0,20000,10000,51,low,Information
9301623002,"MID MICHIGAN GARAGE DOOR, INC.",FREELAND,MI,48623,CHEMICAL BANK,MI,235510,24-May-96,1996,48,1,1,0,0,1,0,FALSE,TRUE,,31-Jul-96,20000,0,P I F,0,20000,16000,23,low,Construction
9301633005,MELENDEZ IMPORTS,OSCEOLA,IN,46561,BANK - AMERICA NATL ASSOC,MI,0,28-May-96,1996,60,1,1,0,0,1,0,FALSE,TRUE,,31-Jul-96,20000,0,P I F,0,20000,16000,0,low,
9301723008,THE GENERAL STORE,GREEN BAY,WI,54311,WELLS FARGO BANK NATL ASSOC,WI,0,24-May-96,1996,60,1,1,0,0,1,0,FALSE,TRUE,,31-Jul-96,20000,0,P I F,0,20000,16000,0,low,
9303043009,THE PLANT & FLOWER COMPANY,WARREN,OH,44483,FARMERS NATL BK OF CANFIELD,OH,453110,24-May-96,1996,84,3,2,0,0,1,0,FALSE,TRUE,,31-Jul-96,20000,0,P I F,0,20000,16000,45,low,Retail trade
9305113010,CLEANING BUSINESS MAGAZINE,SEATTLE,WA,98111,WELLS FARGO BANK NATL ASSOC,SD,511120,28-May-96,1996,60,4,1,0,0,1,0,FALSE,FALSE,,31-Jul-96,20000,0,P I F,0,20000,10000,51,low,Information
9305423009,1-2-3- MARKET,SALINAS,CA,95899,"RABOBANK, NATIONAL ASSOCIATION",CA,0,28-May-96,1996,84,3,2,0,0,1,0,FALSE,TRUE,,31-Jan-97,20000,0,P I F,0,20000,16000,0,low,
9305663000,"MAIL BOXES, ETC.",GREEN RIVER,WY,82935,WELLS FARGO BANK NATL ASSOC,SD,0,28-May-96,1996,66,3,2,0,0,50564,0,FALSE,TRUE,,31-Jul-96,20000,0,P I F,0,20000,16000,0,low,
9305933009,"ROY-L-T, INC.",JUPITER,FL,33477,SUNTRUST BANK,GA,422320,28-May-96,1996,60,1,2,0,0,1,0,FALSE,TRUE,,30-Sep-96,20000,0,P I F,0,20000,16000,42,low,Wholesale trade
9306013006,THE VINEYARD WINE SHOPPE,CLEVELAND,OH,44111,U.S. BANK NATIONAL ASSOCIATION,OH,445310,28-May-96,1996,60,4,1,0,0,1,0,FALSE,TRUE,,31-Jul-96,20000,0,P I F,0,20000,16000,44,low,Retail trade
9306023009,"NF ENTERPRISES, INC.",LITTLE FERRY,NJ,7643,BANCO POPULAR NORTH AMERICA,NJ,0,28-May-96,1996,48,1,2,0,0,1,0,FALSE,TRUE,,29-Jul-96,20000,0,P I F,0,20000,16000,0,low,
9306543001,LATIN SALES & SERVICE INC,FRANKLIN,WI,53132,U.S. BANK NATIONAL ASSOCIATION,OH,0,28-May-96,1996,4,5,1,0,0,1,0,FALSE,FALSE,,30-Sep-96,20000,0,P I F,0,20000,16000,0,low,
9306793006,THE WINE GALLERY,BOZEMAN,MT,59715,FIRST SECURITY BANK,MT,445310,28-May-96,1996,84,1,2,0,0,1,0,FALSE,TRUE,,31-Jan-97,20000,0,P I F,0,20000,16000,44,low,Retail trade
9308474004,EF INC,ALEXANDRIA,VA,22314,"PNC BANK, NATIONAL ASSOCIATION",DE,541618,22-Nov-05,2006,15,1,1,5,1,1,1,TRUE,FALSE,2-Sep-11,30-Nov-05,20000,0,CHGOFF,5200,20000,10000,54,high,"Professional, scientific, and technical services"
9308784003,ASSET PRESERVATION SPECIALIST,COLUMBIA,SC,29212,BBCN BANK,CA,514199,22-Nov-05,2006,84,1,2,2,1,1,1,FALSE,FALSE,,30-Nov-05,20000,0,P I F,0,20000,17000,51,low,Information
9308964009,R T & ASSOCIATES INC,PINSON (MOUNT PINSON),AL,35126,BBCN BANK,CA,442210,22-Nov-05,2006,84,1,1,0,1,1,2,FALSE,FALSE,,30-Nov-05,20000,0,P I F,0,20000,10000,44,low,Retail trade
9309253003,"UNION DONUTS, INC.",CHEEKTOWAGA,NY,14225,BANK OF AMERICA NATL ASSOC,CT,311812,29-May-96,1996,36,12,2,0,0,25650,0,FALSE,TRUE,,31-Jul-96,20000,0,P I F,0,20000,16000,31,low,Manufacturing
9309254010,GOLF LAND REALTORS,MISSOURI CITY,TX,77489,BBCN BANK,CA,812199,22-Nov-05,2006,84,15,1,4,15,1,1,FALSE,FALSE,,30-Nov-05,20000,0,P I F,0,20000,17000,81,low,Other services (except public administration)
9309304001,FOOTPRINTS HOME CARE,ALBUQUERQUE,NM,87109,U.S. BANK NATIONAL ASSOCIATION,NM,621610,22-Nov-05,2006,36,4,2,4,4,1,1,FALSE,FALSE,,28-Feb-06,20000,0,P I F,0,20000,10000,62,low,Health care and social assistance
9309334010,FOOTPRINTS HOME CARE,ALBUQUERQUE,NM,87109,U.S. BANK NATIONAL ASSOCIATION,NM,621610,22-Nov-05,2006,24,4,2,4,4,1,1,TRUE,FALSE,,28-Feb-06,20000,0,P I F,0,10000,5000,62,low,Health care and social assistance
9309444008,PJ'S AUTOMOTIVE REPAIR,YUBA CITY,CA,95993,MUFG UNION BANK NATL ASSOC,CA,811111,22-Nov-05,2006,36,1,1,0,0,1,1,FALSE,FALSE,,30-Nov-05,20000,0,P I F,0,20000,10000,81,low,Other services (except public administration)
9309453004,SO CLEAN CORPORATION,LAKEWOOD,NJ,8701,SANTANDER BANK NATL ASSOC,NJ,0,29-May-96,1996,60,13,1,0,0,1,0,FALSE,TRUE,,5-Jul-96,20000,0,P I F,0,20000,16000,0,low,
9310693003,"L, H, AND R SIGNS & LIGHTING",EL PASO,TX,79907,COMPASS BANK,TX,235310,29-May-96,1996,60,1,2,0,0,1,0,FALSE,TRUE,,30-Sep-96,20000,0,P I F,0,20000,16000,23,low,Construction
9311693005,EARLY LEARNING CTR. OF MILFORD,MILFORD,NH,3055,"OCEAN BANK, A DIVISION OF",NH,624410,30-May-96,1996,48,2,2,0,0,1,0,FALSE,TRUE,,31-Jul-96,20000,0,P I F,0,20000,16000,62,low,Health care and social assistance
9312154005,SCENIC CITY SUPPLIERS,OOLTEWAH,TN,37363,BBCN BANK,CA,541620,22-Nov-05,2006,84,1,1,3,1,1,1,FALSE,FALSE,,30-Nov-05,20000,0,P I F,0,20000,17000,54,low,"Professional, scientific, and technical services"
9312943010,LONE WOLF CONCRETE CONST CO,ANCHORAGE,AK,99518,NORTHRIM BANK,AK,0,30-May-96,1996,6,10,1,0,0,1,0,FALSE,FALSE,,30-Nov-96,20000,0,P I F,0,20000,16000,0,low,
9312983000,"BANE SPECIALITY SERVICES, INC.",RICHMOND,IN,47374,U.S. BANK NATIONAL ASSOCIATION,IN,0,30-May-96,1996,60,2,1,0,0,1,0,FALSE,TRUE,,31-Jul-96,20000,0,P I F,0,20000,16000,0,low,
9313343009,WALKER PLUMBING,STOCKTON,MO,65785,LIBERTY BANK,MO,235110,30-May-96,1996,120,1,2,0,0,1,0,FALSE,TRUE,,30-Sep-96,20000,0,P I F,0,20000,16000,23,low,Construction
9314243005,"ZEEK'S PIZZA, INC",SEATTLE,WA,98109,BANK OF AMERICA NATL ASSOC,OR,0,30-May-96,1996,36,52,1,0,0,1,0,FALSE,FALSE,,31-Dec-97,20000,0,P I F,0,20000,10000,0,low,
9315013008,KIMBERLING SPIRITS,REEDS SPRING,MO,65737,METROPOLITAN NATIONAL BANK,MO,445310,31-May-96,1996,60,4,2,0,0,1,0,FALSE,TRUE,,31-Jul-96,20000,0,P I F,0,20000,16000,44,low,Retail trade
9318034005,BH WORLDWIDE CONSTRUCTION INC,FLOWER MOUND,TX,75028,JPMORGAN CHASE BANK NATL ASSOC,NV,236115,23-Nov-05,2006,84,7,1,2,7,1,2,TRUE,FALSE,,30-Nov-05,20000,0,P I F,0,10000,5000,23,low,Construction
9318413005,"DAY BY DAY STAFF RELIEF, INC.",NORMAN,OK,73071,REPUBLIC BANK & TRUST,OK,621610,3-Jun-96,1996,48,3,2,0,0,1,0,FALSE,TRUE,,30-Nov-96,20000,0,P I F,0,20000,16000,62,low,Health care and social assistance
9319154008,VILLARREAL DUMP'S BACKHOE SERV,LAREDO,TX,78045,WELLS FARGO BANK NATL ASSOC,SD,238910,23-Nov-05,2006,60,2,1,10,12,1,1,FALSE,FALSE,,30-Apr-06,20000,0,P I F,0,60000,30000,23,low,Construction
9320613005,SNO BIZ,MONTGOMERY,AL,36124,FIRST TUSKEGEE BANK,AL,0,4-Jun-96,1996,72,4,2,0,0,1,0,FALSE,TRUE,,31-Jul-96,20000,0,P I F,0,20000,16000,0,low,
9320663009,NAUTILUS DEVELOPMENT CORPORATI,WARWICK,RI,2889,BANK OF AMERICA NATL ASSOC,NC,0,4-Jun-96,1996,12,1,1,0,0,1,0,TRUE,FALSE,,31-Jul-96,20000,0,P I F,0,20000,10000,0,low,
9321593003,I AM WELDING SERVICES,PITTSBURGH,PA,15236,FIRST NATL BK OF PENNSYLVANIA,PA,0,4-Jun-96,1996,78,5,1,0,0,1,0,FALSE,TRUE,,31-Jul-96,20000,0,P I F,0,20000,16000,0,low,
9323164003,RENTAL READY LTD,CINCINNATI,OH,45227,NORTH SIDE BANK & TRUST CO.,OH,561790,25-Nov-05,2006,120,2,1,0,0,1,1,FALSE,FALSE,,31-Oct-06,20000,0,P I F,0,20000,17000,56,low,Administrative/support & waste management/remediation Service
9323513005,"PERFORMANCE SERVICES, INC.",HUMMELSTOWN,PA,17036,WELLS FARGO BANK NATL ASSOC,SD,0,5-Jun-96,1996,60,8,1,0,0,1,0,FALSE,FALSE,,31-Jul-96,20000,0,P I F,0,20000,10000,0,low,
9323583004,LEBLANC CENTER FOR LEARNING,ABBEVILLE,LA,70510,GULF COAST BANK,LA,624410,5-Jun-96,1996,60,2,2,0,0,1,0,FALSE,TRUE,,31-Jul-96,20000,0,P I F,0,20000,16000,62,low,Health care and social assistance
9323713006,THE BACHELOR PAD,COLUMBUS,OH,43201,JPMORGAN CHASE BANK NATL ASSOC,IL,0,5-Jun-96,1996,60,2,2,0,0,1,0,FALSE,FALSE,,31-Jul-96,20000,0,P I F,0,20000,10000,0,low,
9324193007,"ELI LOCKSMITH, INC.",SPRING VALLEY,NY,10977,FIRST NIAGARA BANK NATL ASSOC,NY,0,5-Jun-96,1996,73,2,1,0,0,1,0,FALSE,FALSE,,2-Aug-96,20000,0,P I F,0,20000,16000,0,low,
9324664002,ATLANTAHOMEVIEW.COM INC,ATLANTA,GA,30305,BBCN BANK,CA,531210,25-Nov-05,2006,28,2,1,1,2,1,1,FALSE,FALSE,9-Aug-10,30-Nov-05,20000,0,CHGOFF,13606,20000,17000,53,high,Real estate and rental and leasing
9324763001,UNION STATION CAFE,COLUMBUS,OH,43215,JPMORGAN CHASE BANK NATL ASSOC,IL,0,5-Jun-96,1996,60,8,2,0,0,1,0,FALSE,FALSE,,31-Jul-96,20000,0,P I F,0,20000,10000,0,low,
9326223007,COZY IN THE WOODS,JACKSON,MN,56143,UNITED PRAIRIE BANK,MN,453220,6-Jun-96,1996,60,1,2,0,0,1,0,FALSE,TRUE,,31-Jul-97,20000,0,P I F,0,20000,16000,45,low,Retail trade
9327313001,THE ANTIQUE VASE,BOSTON,MA,2113,BANK OF AMERICA NATL ASSOC,MA,453110,6-Jun-96,1996,60,1,2,0,0,1,0,FALSE,FALSE,,31-Jul-96,20000,0,P I F,0,20000,10000,45,low,Retail trade
9327863002,LAURA'S CABINET GALLERY,AMES,IA,50010,WELLS FARGO BANK NATL ASSOC,IA,0,6-Jun-96,1996,84,1,2,0,0,1,0,FALSE,TRUE,,30-Sep-96,20000,0,P I F,0,20000,16000,0,low,
9329673008,A AND H FOOD MART,MADISON,AL,35758,WELLS FARGO BANK NATL ASSOC,SD,0,7-Jun-96,1996,60,4,1,0,0,1,0,FALSE,FALSE,,31-Aug-98,20000,0,P I F,0,20000,10000,0,low,
9329743005,"WORLD CLASS JANITORIAL, INC.",FOREST PARK,GA,30050,"BANK OF COWETA, A DIVISION OF",GA,0,7-Jun-96,1996,48,2,2,0,0,1,0,FALSE,TRUE,,31-Oct-96,20000,0,P I F,0,20000,16000,0,low,
9330123004,PHANTAZMIC COMICS,SAUGERTIES,NY,12477,MANUFACTURERS & TRADERS TR CO,NY,451120,7-Jun-96,1996,13,2,1,0,0,1,0,FALSE,TRUE,6-Sep-02,10-Jul-96,20000,0,CHGOFF,1078,20000,16000,45,high,Retail trade
9330563007,MAIN ST. DONUT & DELI,BURLINGTON,CO,80807,COLORADO EAST BANK & TRUST,CO,0,7-Jun-96,1996,72,6,2,0,0,1,0,FALSE,TRUE,,31-Jan-97,20000,0,P I F,0,20000,16000,0,low,
9331333010,DEE'S PROUD PETS,COFFEYVILLE,KS,67337,COMMUNITY STATE BANK,KS,0,10-Jun-96,1996,120,4,1,0,0,1,0,FALSE,TRUE,,31-Jul-96,20000,0,P I F,0,20000,16000,0,low,
9333883004,PIZZAS BY MARCHELLONI,MENASHA,WI,54952,BMO HARRIS BK NATL ASSOC,IL,0,11-Jun-96,1996,84,2,2,0,0,64955,0,FALSE,TRUE,,31-Oct-96,20000,0,P I F,0,20000,16000,0,low,
9335683007,HI-ENERGY WEIGHT CONTROL CENTE,NACOGDOCHES,TX,75961,TEXAS STATE BANK,TX,713940,11-Jun-96,1996,60,3,2,0,0,1,0,FALSE,TRUE,,31-Jul-96,20000,0,P I F,0,20000,16000,71,low,"Arts, entertainment, and recreation"
9335833004,CHEVALIER INSURANCE AGENCY,SWANTON,VT,5488,WELLS FARGO BANK NATL ASSOC,SD,0,11-Jun-96,1996,60,3,1,0,0,1,0,FALSE,FALSE,,31-Jul-96,20000,0,P I F,0,20000,10000,0,low,
9335893000,"LARIMER, INC.",SIMI VALLEY,CA,93065,WELLS FARGO BANK NATL ASSOC,SD,235510,11-Jun-96,1996,60,5,1,0,0,1,0,FALSE,FALSE,,31-Jul-96,20000,0,P I F,0,20000,10000,23,low,Construction
9337073005,JACKIE YATES SALON,DULUTH,GA,30136,BANK OF AMERICA NATL ASSOC,GA,0,12-Jun-96,1996,60,10,1,0,0,1,0,FALSE,FALSE,,31-May-00,20000,0,P I F,0,20000,10000,0,low,
9338383006,POWERLINE ENGINE EXCHANGE,WILLOUGHBY,OH,44094,FIFTH THIRD BANK,OH,811118,12-Jun-96,1996,48,2,1,0,0,1,0,FALSE,TRUE,,31-Jul-96,20000,0,P I F,0,20000,16000,81,low,Other services (except public administration)
9339383008,INDIAN COUNTRY SUPPLY,LAME DEER,MT,59043,WELLS FARGO BANK NATL ASSOC,MT,443111,12-Jun-96,1996,60,2,2,0,0,1,0,FALSE,TRUE,,30-Sep-96,20000,0,P I F,0,20000,16000,44,low,Retail trade
9341493005,DREAM STEAM CARPET CLEANING,VIENNA,IL,62995,BANTERRA BANK,KY,0,13-Jun-96,1996,84,1,2,0,0,1,0,FALSE,TRUE,,30-Sep-96,20000,0,P I F,0,20000,16000,0,low,
9341513009,FURNITURE PLUS,WILLMAR,MN,56201,HERITAGE BANK NATL ASSOC,MN,0,13-Jun-96,1996,81,4,1,0,0,1,0,FALSE,TRUE,,31-Oct-96,20000,0,P I F,0,20000,16000,0,low,
9341653005,HOLLYWOOD CORNER,BROWNWOOD,TX,76801,MILLS COUNTY STATE BANK,TX,0,13-Jun-96,1996,5,3,2,0,0,1,0,FALSE,TRUE,28-Aug-08,30-Sep-96,20000,0,CHGOFF,13012,20000,16000,0,high,
9342073010,PARKER CITY LAUNDRY,MUNCIE,IN,47304,KEYBANK NATIONAL ASSOCIATION,OH,812310,13-Jun-96,1996,84,2,2,0,0,1,0,FALSE,FALSE,,31-Jul-96,20000,0,P I F,0,20000,10000,81,low,Other services (except public administration)
9342443003,"PHYSICAL STRUCTURE, INC.",NEW YORK,NY,10017,JPMORGAN CHASE BANK NATL ASSOC,IL,713940,13-Jun-96,1996,36,5,2,0,0,1,0,FALSE,FALSE,,30-Jun-97,20000,0,P I F,0,20000,10000,71,low,"Arts, entertainment, and recreation"
9344763009,COOPER ENTERPRISES,NASHVILLE,TN,37217,BANK OF AMERICA NATL ASSOC,TN,235510,14-Jun-96,1996,84,2,2,0,0,1,0,FALSE,TRUE,,30-Jun-97,20000,0,P I F,0,20000,16000,23,low,Construction
9345833008,STERLING INSTALLATION,DUBUQUE,IA,52003,U.S. BANK NATIONAL ASSOCIATION,OH,235950,17-Jun-96,1996,60,2,2,0,0,1,0,FALSE,TRUE,,31-Jul-96,20000,0,P I F,0,20000,16000,23,low,Construction
9347843004,"DENT-A-PLUS, INC.",BRONX,NY,10461,JPMORGAN CHASE BANK NATL ASSOC,IL,339116,17-Jun-96,1996,60,7,1,0,0,1,0,FALSE,FALSE,,30-Jun-97,20000,0,P I F,0,20000,10000,33,low,Manufacturing
9347863010,"TROPICAL RENDEZVOUS, LTD.",FLUSHING,NY,11358,JPMORGAN CHASE BANK NATL ASSOC,IL,0,17-Jun-96,1996,60,4,2,0,0,1,0,FALSE,FALSE,,30-Jun-97,20000,0,P I F,0,20000,10000,0,low,
9348143008,EILEEN'S NEW ENGLD.CATER.&FOOD,BLOOMINGTON,IN,47401,JPMORGAN CHASE BANK NATL ASSOC,IL,0,18-Jun-96,1996,84,3,2,0,0,1,0,FALSE,TRUE,,30-Sep-96,20000,0,P I F,0,20000,16000,0,low,
9349973001,"MARSH, ROBERT G. II & MELISSA",FORDLAND,MO,65652,LEGACY BANK & TRUST COMPANY,MO,0,18-Jun-96,1996,42,1,2,0,0,1,0,FALSE,TRUE,,18-Aug-96,20000,0,P I F,0,20000,16000,0,low,
9350304003,BREAKFAST AT ORLY'S,LOS ANGELES,CA,90036,BBCN BANK,CA,722310,30-Nov-05,2006,45,4,1,2,4,1,1,FALSE,FALSE,4-Jun-09,31-Dec-05,20000,0,CHGOFF,16811,20000,17000,72,high,Accommodation and food services 
9351413007,IRONWOOD GOLF COURSE,YUMA,AZ,85364,GE CAP. SMALL BUS. FINAN CORP,TX,713910,18-Jun-96,1996,60,2,1,0,0,1,0,FALSE,FALSE,,30-Sep-96,20000,0,P I F,0,20000,15000,71,low,"Arts, entertainment, and recreation"
9351963008,EAGLE JANITORIAL SERVICE,EL PASO,TX,79930,JPMORGAN CHASE BANK NATL ASSOC,IL,0,19-Jun-96,1996,48,22,2,0,0,1,0,FALSE,TRUE,,31-Jul-96,20000,0,P I F,0,20000,16000,0,low,
9353613001,AXLE SHOP OF COLUMBIA,COLUMBIA,MO,65203,BANK OF AMERICA NATL ASSOC,NC,0,19-Jun-96,1996,78,1,2,0,0,1,0,FALSE,TRUE,,31-Jul-96,20000,0,P I F,0,20000,16000,0,low,
9353773003,HEALTHY IMAGE,WESTERVILLE,OH,43081,THE HUNTINGTON NATIONAL BANK,OH,0,19-Jun-96,1996,63,3,2,0,0,1,0,FALSE,TRUE,,30-Apr-97,20000,0,P I F,0,20000,16000,0,low,
9354353008,AUTO TRIM DESIGN OF CENTRAL MN,WAITE PARK,MN,56387,WELLS FARGO BANK NATL ASSOC,MN,0,19-Jun-96,1996,60,4,1,0,0,1,0,FALSE,TRUE,,31-Jul-96,20000,0,P I F,0,20000,16000,0,low,
9355023005,SUBURBAN FEED AND SUPPLY,HOPKINS,MN,55343,WELLS FARGO BANK NATL ASSOC,SD,0,19-Jun-96,1996,60,5,1,0,0,1,0,FALSE,FALSE,,31-Jul-96,20000,0,P I F,0,20000,10000,0,low,
9355553000,"DOUGLAS J WEGNER, P.C.",FORT WORTH,TX,76133,LIBERTY BANK,TX,0,20-Jun-96,1996,84,3,1,0,0,1,0,FALSE,TRUE,,30-Sep-96,20000,0,P I F,0,20000,16000,0,low,
9357483007,HUNG FEI CHINESE RESTAURANT,COLUMBUS,OH,43220,JPMORGAN CHASE BANK NATL ASSOC,IL,0,20-Jun-96,1996,16,2,2,0,0,1,0,FALSE,FALSE,,31-Jul-96,20000,0,P I F,0,20000,10000,0,low,
9357553004,"WHISTLESOCKS, INC.",OKLAHOMA CITY,OK,73162,BANK OF AMERICA NATL ASSOC,NC,314912,20-Jun-96,1996,60,2,1,0,0,1,0,FALSE,TRUE,,31-Mar-99,20000,0,P I F,0,20000,16000,31,low,Manufacturing
9357924004,ANCHOR FISH BAIT CO,ENOREE,SC,29335,BBCN BANK,CA,451110,1-Dec-05,2006,63,2,1,2,2,1,1,FALSE,FALSE,14-Jan-08,31-Dec-05,20000,0,CHGOFF,17813,20000,10000,45,high,Retail trade
9358003005,CONSOLIDATED INSURANCE SERVICE,NEWCASTE,ME,4553,WELLS FARGO BANK NATL ASSOC,SD,0,20-Jun-96,1996,60,4,1,0,0,1,0,FALSE,FALSE,,31-Jul-96,20000,0,P I F,0,20000,10000,0,low,
9359744002,SIGN-A-RAMA,VIRGINIA BEACH,VA,23462,BBCN BANK,CA,421990,2-Dec-05,2006,65,5,1,1,5,1,1,FALSE,FALSE,24-Feb-08,31-Dec-05,20000,0,CHGOFF,18646,20000,17000,42,high,Wholesale trade
9360414005,STADIUM PIZZA,SAN JACINTO,CA,92583,MUFG UNION BANK NATL ASSOC,CA,722110,2-Dec-05,2006,84,12,1,0,0,1,1,TRUE,FALSE,,28-Feb-06,20000,0,P I F,0,20000,10000,72,low,Accommodation and food services 
9360523007,SPROUT'S,WHITEFISH,MT,59917,WELLS FARGO BANK NATL ASSOC,SD,448130,21-Jun-96,1996,84,2,2,0,0,1,0,FALSE,TRUE,,31-Jul-96,20000,0,P I F,0,20000,16000,44,low,Retail trade
9361063002,AUTO MAGIC AND ACCESSORIES,FORREST CITY,AR,72335,FIRST NATL BK OF EASTERN ARKAN,AR,0,24-Jun-96,1996,84,3,2,0,0,1,0,FALSE,TRUE,,31-Mar-97,20000,0,P I F,0,20000,16000,0,low,
9361094007,ROOMS FOR LESS,ARLINGTON,TX,76001,COMPASS BANK,AL,442110,2-Dec-05,2006,84,3,1,0,3,1,1,TRUE,FALSE,,31-Mar-08,20000,0,P I F,0,20000,10000,44,low,Retail trade
9362543006,"BYRON & JAMES, INC.",JACKSONVILLE,FL,32259,WELLS FARGO BANK NATL ASSOC,SD,233320,24-Jun-96,1996,60,6,1,0,0,1,0,FALSE,FALSE,,31-Jul-96,20000,0,P I F,0,20000,10000,23,low,Construction
9362583007,"92 FULTON ST. QUALITY FOODS,IN",NEW YORK,NY,10038,WELLS FARGO BANK NATL ASSOC,SD,0,24-Jun-96,1996,60,3,1,0,0,1,0,FALSE,FALSE,,31-Jul-96,20000,0,P I F,0,20000,10000,0,low,
9363353010,BAYSIDE ELECTRICAL SERVICES,BOSTON,MA,2125,BANK OF AMERICA NATL ASSOC,MA,235310,24-Jun-96,1996,12,2,1,0,0,1,0,FALSE,FALSE,,31-Jul-96,20000,0,P I F,0,20000,10000,23,low,Construction
9363453005,OLYMPIC REALTY ADVISORS,SEATTLE,WA,98110,BANK OF AMERICA NATL ASSOC,WA,0,24-Jun-96,1996,12,1,2,0,0,1,0,FALSE,FALSE,,28-Feb-99,20000,0,P I F,0,20000,10000,0,low,
9363883005,RWS TRANSPORT,CEDAR RAPIDS,IA,0,WELLS FARGO BANK NATL ASSOC,SD,0,24-Jun-96,1996,6,12,1,0,0,1,0,FALSE,FALSE,4-Sep-02,30-Sep-96,20000,0,CHGOFF,18959,20000,10000,0,high,
9364613007,"ESCO OF CANANDAIGUA, INC.",CANANDAIGUA,NY,14424,CANANDAIGUA NATL BK & TR CO,NY,235110,25-Jun-96,1996,36,9,1,0,0,1,0,FALSE,TRUE,,30-Apr-97,20000,0,P I F,0,20000,16000,23,low,Construction
9365914001,NEPTUNE'S SEASTORE,GRANDY,NC,27939,BANCO POPULAR NORTH AMERICA,NY,447110,2-Dec-05,2006,6,7,1,0,7,1,2,TRUE,FALSE,22-Jan-09,31-May-06,20000,0,CHGOFF,19891,20000,10000,44,high,Retail trade
9367343004,ASPHALT GUARD,SALT LAKE CITY,UT,84119,ZIONS FIRST NATIONAL BANK,UT,324122,26-Jun-96,1996,60,6,2,0,0,1,0,FALSE,TRUE,,3-Jul-96,20000,0,P I F,0,20000,16000,32,low,Manufacturing
9368993002,"PETER J. HALPERIN, M.D.",FALMOUTH,MA,2540,THE EDGARTOWN NATIONAL BANK,MA,0,26-Jun-96,1996,12,2,1,0,0,1,0,FALSE,TRUE,,31-Jul-96,20000,0,P I F,0,20000,16000,0,low,
9369053004,LARGE CONSTRUCTION,FAIRPORT,NY,14450,JPMORGAN CHASE BANK NATL ASSOC,IL,233320,26-Jun-96,1996,60,1,2,0,0,1,0,FALSE,FALSE,,30-Jun-97,20000,0,P I F,0,20000,10000,23,low,Construction
9369453006,"CASEY'S FINE FOOD & DRINK,INC.",MARLBORO,NY,12542,BANK OF AMERICA NATL ASSOC,CT,0,26-Jun-96,1996,61,8,1,0,0,1,0,FALSE,TRUE,,26-Jul-96,20000,0,P I F,0,20000,16000,0,low,
9370193008,TETREAULT JEWELERS OF NEWBURYP,NEWBURYPORT,MA,1950,WELLS FARGO BANK NATL ASSOC,SD,448310,26-Jun-96,1996,60,1,1,0,0,1,0,FALSE,FALSE,,31-Jul-96,20000,0,P I F,0,20000,10000,44,low,Retail trade
9371413004,CINDY A. MASSENGALE,FLOWER MOUND,TX,75028,PROSPERITY BANK,TX,0,27-Jun-96,1996,60,1,2,0,0,1,0,FALSE,FALSE,,30-Sep-96,20000,0,P I F,0,20000,15000,0,low,
9375403009,EDWARDS GROCERY,BAYTOWN,TX,77520,WELLS FARGO BANK NATL ASSOC,SD,0,28-Jun-96,1996,60,19,1,0,0,1,0,TRUE,FALSE,,31-Dec-99,20000,0,P I F,0,20000,10000,0,low,
9375903006,"MARTIN & RONE ENTERPRISES, INC",LIMA,OH,45801,JPMORGAN CHASE BANK NATL ASSOC,IL,488490,28-Jun-96,1996,84,10,1,0,0,1,0,FALSE,TRUE,,31-Oct-96,20000,0,P I F,0,20000,16000,48,low,Transportation and warehousing
9376493005,LEACH CONSULTING SERVICES,INDIANA,PA,15701,"BSI FINANCIAL SERVICES, INC",PA,0,28-Jun-96,1996,87,1,2,0,0,1,0,FALSE,TRUE,,30-Nov-96,20000,0,P I F,0,20000,16000,0,low,
9378583001,"T & P GOURMET COFFEES, INC.",FORT LAUDERDALE,FL,33304,BANK OF AMERICA NATL ASSOC,GA,0,1-Jul-96,1996,12,5,1,0,0,1,0,FALSE,FALSE,,31-Jan-97,20000,0,P I F,0,20000,10000,0,low,
9378903001,SCHOCKS FURNITURE CRAFTERS,SANTA MARIA,CA,93454,WELLS FARGO BANK NATL ASSOC,SD,0,1-Jul-96,1996,60,3,1,0,0,1,0,FALSE,FALSE,,31-Jul-96,20000,0,P I F,0,20000,10000,0,low,
9379593006,THE BREND MARKET OF FIFTH AVEN,NEW YORK,NY,10017,JPMORGAN CHASE BANK NATL ASSOC,IL,0,1-Jul-96,1996,36,15,1,0,0,1,0,TRUE,FALSE,,29-Feb-00,20000,0,P I F,0,20000,10000,0,low,
9379643008,BRANT ISLAND SEAFOOD,BELLINGHAM,WA,98227,WELLS FARGO BANK NATL ASSOC,SD,422460,1-Jul-96,1996,60,1,1,0,0,1,0,TRUE,FALSE,,31-Aug-99,20000,0,P I F,0,20000,10000,42,low,Wholesale trade
9379954003,SEND YOURSELF HOME,SAN ANTONIO,TX,78207,BBCN BANK,CA,453220,5-Dec-05,2006,47,1,1,2,1,1,1,FALSE,FALSE,25-Feb-09,31-Dec-05,20000,0,CHGOFF,14762,20000,17000,45,high,Retail trade
9380633002,NORTHLAND TEMPRATURE CONTROL,EVELETH,MN,55734,WELLS FARGO BANK NATL ASSOC,SD,0,2-Jul-96,1996,60,2,1,0,0,1,0,FALSE,FALSE,,31-Jul-96,20000,0,P I F,0,20000,10000,0,low,
9381011003,DAVID & MARGARET ROSENBLUM,SEMINOLE,FL,34647,WELLS FARGO BANK NATL ASSOC,FL,0,12-Jul-78,1978,84,4,2,0,0,0,0,FALSE,FALSE,15-Apr-91,8-Aug-78,20000,0,CHGOFF,7298,20000,18000,0,high,
9382653001,CCS - CONTRACTOR CONCRETE SERV,SPOKANE,WA,99212,WELLS FARGO BANK NATL ASSOC,SD,0,2-Jul-96,1996,4,3,1,0,0,1,0,FALSE,FALSE,1-Jan-02,31-Jul-96,20000,0,CHGOFF,19728,20000,10000,0,high,
9383133000,WOTTON'S REDEMPTION CENTER,NEW HARBOR,ME,4554,DAMARISCOTTA BK & TR CO,ME,0,3-Jul-96,1996,96,2,2,0,0,1,0,FALSE,TRUE,,31-Jul-96,20000,0,P I F,0,20000,16000,0,low,
9384353009,ARCHITECTURAL METAL SYSTEMS,CONCORD,NH,3301,"TD BANK, NATIONAL ASSOCIATION",NH,421330,3-Jul-96,1996,36,4,1,0,0,1,0,FALSE,TRUE,,28-Feb-97,20000,0,P I F,0,20000,16000,42,low,Wholesale trade
9385333005,"MAINELLI'S SPA, INC.",CRANSTON,RI,2920,CITIZENS BANK NATL ASSOC,RI,0,3-Jul-96,1996,60,1,1,0,0,1,0,FALSE,FALSE,,31-Jul-96,20000,0,P I F,0,20000,10000,0,low,
9387023010,"DESIGN GRAPHICS, INC.",MONETT,MO,65708,FIRST INDEPENDENT BANK,MO,541810,5-Jul-96,1996,60,6,1,0,0,1,0,FALSE,TRUE,,31-Jul-96,20000,0,P I F,0,20000,16000,54,low,"Professional, scientific, and technical services"
9389083010,HUDSON'S OPEN PIT BAR-B-Q,FLORISSANT,MO,63033,BANK OF AMERICA NATL ASSOC,NC,0,9-Jul-96,1996,60,2,1,0,0,1,0,FALSE,TRUE,,30-Sep-97,20000,0,P I F,0,20000,16000,0,low,
9389114002,PINCH,NORTHAMPTON,MA,1060,PEOPLE'S UNITED BANK,CT,453998,6-Dec-05,2006,84,3,2,0,3,1,1,FALSE,FALSE,,28-Feb-06,20000,0,P I F,0,20000,10000,45,low,Retail trade
9389473009,A CUT ABOVE,GRIFFIN,GA,30292,UNITED BANK,GA,0,9-Jul-96,1996,120,7,2,0,0,1,0,FALSE,TRUE,,30-Sep-96,20000,0,P I F,0,20000,16000,0,low,
9389783008,"BEST HOBBY SHOP, INC.",SAVANNAH,GA,31406,BRANCH BK. & TR CO,GA,451120,9-Jul-96,1996,36,3,1,0,0,1,0,FALSE,TRUE,,30-Nov-96,20000,0,P I F,0,20000,16000,45,low,Retail trade
9392813005,PAULA DRAKE'S BOWLING PLUS,TULSA,OK,74137,1ST NATL BK & TR CO OF BROKEN,OK,451110,10-Jul-96,1996,60,4,1,0,0,1,0,FALSE,FALSE,,30-Sep-96,20000,0,P I F,0,20000,16000,45,low,Retail trade
9393063007,W.O.W. POLLUTION CONTROL SYST.,OTIS ORCHARDS,WA,99027,KEYBANK NATIONAL ASSOCIATION,WA,421830,10-Jul-96,1996,12,1,1,0,0,1,0,FALSE,FALSE,,30-Sep-96,20000,0,P I F,0,20000,10000,42,low,Wholesale trade
9394003002,MURPHY ENTERPRISES,BALTIMORE,MD,21201,MANUFACTURERS & TRADERS TR CO,MD,234120,10-Jul-96,1996,12,6,1,0,0,1,0,TRUE,FALSE,,31-Dec-96,20000,0,P I F,0,20000,15000,23,low,Construction
9394273002,VISUAL IMPACT,WATERTOWN,SD,57201,FIRST PREMIER BANK,SD,541921,11-Jul-96,1996,60,2,1,0,0,1,0,FALSE,TRUE,,31-Jul-96,20000,0,P I F,0,20000,16000,54,low,"Professional, scientific, and technical services"
9394503010,"ANITA WEEKES HIBLER, MD.",LOS ANGELES,CA,90006,WILSHIRE BANK,CA,0,11-Jul-96,1996,84,2,1,0,0,1,0,FALSE,FALSE,,30-Sep-96,20000,0,P I F,0,20000,16000,0,low,
9394733009,"DEBORAH A. GRAHAM, P.A.",GULFPORT,MS,39507,BANCORPSOUTH BANK,MS,541110,11-Jul-96,1996,84,4,2,0,0,1,0,FALSE,TRUE,,30-Nov-96,20000,0,P I F,0,20000,16000,54,low,"Professional, scientific, and technical services"
9394834000,KADALIST,HAMILTON,NY,13346,"NBT BANK, NATIONAL ASSOCIATION",NY,332721,7-Dec-05,2006,60,1,2,1,1,1,2,FALSE,FALSE,,31-Dec-05,20000,0,P I F,0,20000,10000,33,low,Manufacturing
9395083006,NANCY'S BAKERY & MEAT MARKET,PASO ROBLES,CA,93446,HERITAGE OAKS BANK,CA,0,11-Jul-96,1996,17,2,1,0,0,1,0,FALSE,TRUE,9-Jul-01,30-Nov-97,20000,0,CHGOFF,3354,20000,16000,0,high,
9395813000,ANGIE'S ABSOLUTE SCENT-SATIONS,GARDNER,MA,1440,"TD BANK, NATIONAL ASSOCIATION",DE,0,11-Jul-96,1996,7,3,1,0,0,1,0,FALSE,TRUE,19-Apr-99,30-Sep-96,20000,0,P I F,5196,20000,16000,0,low,
9395853001,"WALSH AND COMPANY, INC.",LITTLE ROCK,AR,72205,REGIONS BANK,AR,0,11-Jul-96,1996,60,3,2,0,0,1,0,FALSE,TRUE,,30-Sep-96,20000,0,P I F,0,20000,16000,0,low,
9396404004,EVANS DAY & NIGHT CARE INC,YAZOO CITY,MS,39194,BBCN BANK,CA,624410,8-Dec-05,2006,84,17,1,1,17,1,2,FALSE,FALSE,,31-Dec-05,20000,0,P I F,0,20000,17000,62,low,Health care and social assistance
9398343007,"Wolff Tan of Tallahassee, Inc.",TALLAHASSEE,FL,32304,"READYCAP LENDING, LLC",CA,0,12-Jul-96,1996,84,5,1,0,0,1,0,FALSE,TRUE,,31-Jul-96,20000,0,P I F,0,20000,16000,0,low,
9400014009,WOUDSMA CHIROPRACTIC ASSOCIATE,GLENSIDE,PA,19038,"PNC BANK, NATIONAL ASSOCIATION",DE,621310,8-Dec-05,2006,24,5,1,0,5,1,1,TRUE,FALSE,,31-Dec-06,20000,0,P I F,0,20000,10000,62,low,Health care and social assistance
9401223008,"GOOTER'S DRIVE THRU, L.L.C.",ACKLEY,IA,50601,ACKLEY STATE BANK,IA,0,15-Jul-96,1996,42,10,2,0,0,1,0,FALSE,TRUE,,28-Feb-97,20000,0,P I F,0,20000,16000,0,low,
9402974008,FANTASTIC SAMS,PULASKI,NY,13142,"NBT BANK, NATIONAL ASSOCIATION",NY,812112,9-Dec-05,2006,84,12,2,0,12,1,2,TRUE,FALSE,,31-Dec-05,20000,0,P I F,0,20000,10000,81,low,Other services (except public administration)
9403893003,DOYLE'S WELDING & REPAIR,GARNER,IA,50438,"LIBERTY BANK, FSB",IA,811310,16-Jul-96,1996,120,4,1,0,0,1,0,FALSE,TRUE,,30-Nov-96,20000,0,P I F,0,20000,16000,81,low,Other services (except public administration)
9404473008,MIKHAILS' SHOE AND LUGGAGE REP,URBANA,IL,61801,CENTRAL ILLINOIS BANK A BRANCH,IL,0,17-Jul-96,1996,108,1,2,0,0,1,0,FALSE,FALSE,,31-Dec-96,20000,0,P I F,0,20000,16000,0,low,
9404683001,JUPITER'S CARD & GIFT,BRONX,NY,10467,BNB HANA BANK NATL ASSOC,NJ,453220,17-Jul-96,1996,85,2,1,0,0,1,0,FALSE,TRUE,,22-Aug-96,20000,0,P I F,0,20000,16000,45,low,Retail trade
9404723000,"DONNA REGII,DBA SLANG BETTY",BROOKLYN,NY,11217,HSBC BK USA NATL ASSOC,NY,448120,17-Jul-96,1996,61,1,2,0,0,1,0,FALSE,TRUE,,16-Aug-96,20000,0,P I F,0,20000,16000,44,low,Retail trade
9405743008,"LONG, LARRY G. AND SUE A.",LAMAR,MO,64759,METROPOLITAN NATIONAL BANK,MO,514210,17-Jul-96,1996,84,1,2,0,0,1,0,FALSE,TRUE,,31-Jul-96,20000,0,P I F,0,20000,16000,51,low,Information
9407004009,EMPIRE MARKETING LLC,PROVO,UT,84606,U.S. BANK NATIONAL ASSOCIATION,OH,541613,9-Dec-05,2006,84,2,1,1,3,1,1,TRUE,FALSE,,31-Jan-07,20000,0,P I F,0,20000,17000,54,low,"Professional, scientific, and technical services"
9407163004,PURPLE PRIDE CAFE,BATTLE CREEK,NE,68715,WELLS FARGO BANK NATL ASSOC,NE,0,18-Jul-96,1996,60,2,2,0,0,1,0,FALSE,TRUE,,30-Sep-96,20000,0,P I F,0,20000,16000,0,low,
9408173009,CONSIGNING WOMEN,NASHVILLE,TN,37211,WELLS FARGO BANK NATL ASSOC,SD,0,18-Jul-96,1996,60,2,1,0,0,1,0,FALSE,FALSE,,31-Jan-97,20000,0,P I F,0,20000,10000,0,low,
9408313003,"\ROOSTERS \""\""SOMETHING TO CROW AB\""""",DRESDEN,OH,43821,"PNC BANK, NATIONAL ASSOCIATION",OH,0,18-Jul-96,1996,48,3,1,0,0,1,0,FALSE,TRUE,,31-Oct-96,20000,0,P I F,0,20000,16000,0,low,
9408603007,MCALLEN DRIVE AXLE,MCALLEN,TX,78501,FROST BANK,TX,0,18-Jul-96,1996,60,3,2,0,0,1,0,FALSE,TRUE,,30-Sep-96,20000,0,P I F,0,20000,16000,0,low,
9409673008,RED SKY PUBLISHING,LAS CRUCES,NM,88011,COMPASS BANK,NM,511120,18-Jul-96,1996,60,4,2,0,0,1,0,FALSE,TRUE,,30-Sep-96,20000,0,P I F,0,20000,16000,51,low,Information
9409943006,LEARNING TO LIVE WITH CONFLICT,GENESEO,NY,14454,CANANDAIGUA NATL BK & TR CO,NY,0,19-Jul-96,1996,48,1,1,0,0,1,0,FALSE,TRUE,,30-Apr-97,20000,0,P I F,0,20000,16000,0,low,
9411693002,"MOORE MANUFACTURING CO., INC.",WICHITA,KS,67209,EQUITY BANK,KS,333294,19-Jul-96,1996,84,5,1,0,0,1,0,FALSE,TRUE,,30-Sep-96,20000,0,P I F,0,20000,16000,33,low,Manufacturing
9413863009,BUNNY'S COIN LAUNDRY & DROP,BLAWNOX,PA,15238,ALLEGHENY VALLEY BK OF PITTSBU,PA,812310,22-Jul-96,1996,60,2,2,0,0,1,0,FALSE,TRUE,,30-Sep-96,20000,0,P I F,0,20000,16000,81,low,Other services (except public administration)
9414243002,CLASSIC LANES,DES MOINES,IA,50313,WELLS FARGO BANK NATL ASSOC,SD,713950,22-Jul-96,1996,36,17,1,0,0,1,0,FALSE,TRUE,,31-Oct-96,20000,0,P I F,0,20000,16000,71,low,"Arts, entertainment, and recreation"
9414773008,"DAILY OFFICE SUPPLY, INC.",NEW YORK,NY,10001,BNB HANA BANK NATL ASSOC,NJ,0,23-Jul-96,1996,85,3,2,0,0,1,0,FALSE,TRUE,,23-Jul-96,20000,0,P I F,0,20000,16000,0,low,
9415153001,FACTORY INNOVATIONS,SAN CLEMENTE,CA,92672,WELLS FARGO BANK NATL ASSOC,SD,0,23-Jul-96,1996,60,2,1,0,0,1,0,TRUE,FALSE,,31-May-00,20000,0,P I F,0,20000,10000,0,low,
9415333007,"EASTERN PLAZA, INC.",MIAMI,FL,33162,WELLS FARGO BANK NATL ASSOC,SD,0,23-Jul-96,1996,3,2,1,0,0,1,0,FALSE,FALSE,17-Jan-02,30-Sep-96,20000,0,CHGOFF,19344,20000,10000,0,high,
9418353008,KARRIKER SERVICE COMPANY,HAMPTON,AR,71744,FIRST STATE BANK OF WARREN,AR,235110,24-Jul-96,1996,5,3,1,0,0,1,0,FALSE,TRUE,12-Apr-02,31-Jul-96,20000,0,CHGOFF,5332,20000,16000,23,high,Construction
9420223003,M & J JERKY,ALBURG,VT,5440,PEOPLES TR CO OF ST. ALBANS,VT,0,25-Jul-96,1996,60,2,2,0,0,1,0,FALSE,TRUE,,30-Nov-96,20000,0,P I F,0,20000,16000,0,low,
9420343004,"CD EXPRESS SYSTEMS, INC.",LITTLE ROCK,AR,0,WELLS FARGO BANK NATL ASSOC,SD,0,25-Jul-96,1996,22,6,1,0,0,1,0,FALSE,FALSE,25-Nov-03,31-Dec-96,20000,0,CHGOFF,19751,20000,10000,0,high,
9421193009,"KEVIN KAPIN MANUFACTORY, INC.",SEATTLE,WA,98101,BANK OF AMERICA NATL ASSOC,WA,448310,25-Jul-96,1996,12,4,1,0,0,1,0,FALSE,FALSE,,30-Jun-02,20000,0,P I F,0,20000,10000,44,low,Retail trade
9422493007,PAYETTE LAKE SHEET METAL,MCCALL,ID,83638,BANK OF THE CASCADES,OR,235110,25-Jul-96,1996,84,1,1,0,0,1,0,FALSE,TRUE,,30-Sep-96,20000,0,P I F,0,20000,16000,23,low,Construction
9423214002,CHIANTI'S TUSCAN GRILL,HOUSTON,TX,77042,UNITED CENTRAL BANK,TX,722110,12-Dec-05,2006,71,20,1,0,20,1,0,FALSE,FALSE,11-Sep-08,31-Jan-06,20000,0,CHGOFF,19182,20000,17000,72,high,Accommodation and food services 
9423863002,"EINARSON & GAUSTAD, PLLP",GRAFTON,ND,58237,BREMER BANK NATL ASSOC,ND,541110,26-Jul-96,1996,60,3,1,0,0,1,0,FALSE,TRUE,,31-Dec-96,20000,0,P I F,0,20000,16000,54,low,"Professional, scientific, and technical services"
9425054006,WILLIAM NELSON SERVICES INC,BARRINGTON,IL,60010,BBCN BANK,CA,561720,12-Dec-05,2006,22,3,1,1,3,1,1,FALSE,FALSE,17-Mar-11,31-Dec-05,20000,0,CHGOFF,9665,20000,17000,56,high,Administrative/support & waste management/remediation Service
9426423005,STEVE'S MOBIL WASH,MERKEL,TX,79536,CITIZENS BANK NATL ASSOC,TX,811192,29-Jul-96,1996,60,4,1,0,0,1,0,FALSE,TRUE,,30-Sep-96,20000,0,P I F,0,20000,16000,81,low,Other services (except public administration)
9426793000,JIMMY'S DELI,SO. BOUND BROOK,NJ,8880,BANK OF AMERICA NATL ASSOC,CT,722410,29-Jul-96,1996,36,3,1,0,0,1,0,FALSE,TRUE,,11-Sep-96,20000,0,P I F,0,20000,16000,72,low,Accommodation and food services 
9428664007,NAILS BY JEANINE ZAGERMAN,SCOTTSDALE,AZ,85254,WELLS FARGO BANK NATL ASSOC,CA,812113,13-Dec-05,2006,60,1,1,0,1,1,1,TRUE,FALSE,,31-Dec-05,20000,0,P I F,0,20000,10000,81,low,Other services (except public administration)
9430303007,TYLER WHETSTONE,ATLANTIC,IA,50022,ROLLING HILLS BANK & TRUST,IA,441120,31-Jul-96,1996,179,1,1,0,0,1,0,FALSE,TRUE,,30-Sep-96,20000,0,P I F,0,20000,16000,44,low,Retail trade
9431013005,HAIR ARTIST SALON,ROCHESTER,MN,55902,ASSOCIATED BANK NATL ASSOC,WI,0,31-Jul-96,1996,31,6,1,0,0,1,0,FALSE,TRUE,,31-Jan-97,20000,0,P I F,0,20000,16000,0,low,
9431563006,DELICACY,WEST HARTFORD,CT,6119,BANK OF AMERICA NATL ASSOC,RI,0,31-Jul-96,1996,60,3,1,0,0,1,0,FALSE,TRUE,,31-Jul-96,20000,0,P I F,0,20000,16000,0,low,
9433133010,KAELEE PUBLISHING COMPANY,WARRENTON,VA,22186,MANUFACTURERS & TRADERS TR CO,MD,0,1-Aug-96,1996,84,1,2,0,0,1,0,FALSE,TRUE,,28-Aug-96,20000,0,P I F,0,20000,16000,0,low,
9434343005,SIERRA VISTA LANDSCAPE,LA VERNE,CA,91750,PACIFIC WESTERN BANK,CA,561730,1-Aug-96,1996,120,1,2,0,0,1,0,FALSE,FALSE,,31-Oct-96,20000,0,P I F,0,20000,16000,56,low,Administrative/support & waste management/remediation Service
9435163001,JOHN S./CHRISTINE M. ANDRADE,DRACUT,MA,1826,ENTERPRISE BK & TR CO,MA,0,2-Aug-96,1996,48,5,2,0,0,1,0,FALSE,TRUE,,31-Oct-96,20000,0,P I F,0,20000,16000,0,low,
9436823000,MEDIANA CONSTRUCTION,LAWRENCE,MA,1841,BANK OF AMERICA NATL ASSOC,MA,233210,2-Aug-96,1996,12,12,1,0,0,1,0,TRUE,FALSE,,30-Nov-96,20000,0,P I F,0,20000,10000,23,low,Construction
9436853009,SPECIALTIES PLUS,CHICAGO,IL,60610,WELLS FARGO BANK NATL ASSOC,SD,0,2-Aug-96,1996,60,2,1,0,0,1,0,TRUE,FALSE,,31-Oct-99,20000,0,P I F,0,20000,10000,0,low,
9437664009,APPALACHIAN CONTROL SYSTEMS,MOUNT CARMEL,TN,37645,INNOVATIVE BANK,CA,235310,14-Dec-05,2006,84,2,1,2,2,1,2,FALSE,FALSE,,31-Dec-05,20000,0,P I F,0,20000,17000,23,low,Construction
9443283002,FLEMINGTON CHILDREN'S PLACE,FLEMINGTON,NJ,8822,"TD BANK, NATIONAL ASSOCIATION",DE,624410,7-Aug-96,1996,58,4,1,0,0,1,0,FALSE,FALSE,,30-Nov-96,20000,0,P I F,0,20000,16000,62,low,Health care and social assistance
9445454005,ED VENTRUE BUILDERS LLC,BLOOMSBURG,PA,17815,"PNC BANK, NATIONAL ASSOCIATION",DE,812199,15-Dec-05,2006,24,3,1,2,5,1,1,TRUE,FALSE,,28-Feb-06,20000,0,P I F,0,20000,10000,81,low,Other services (except public administration)
9445473004,MOKO NET INC.,RIVERDALE,NY,10463,JPMORGAN CHASE BANK NATL ASSOC,IL,0,8-Aug-96,1996,60,2,2,0,0,1,0,FALSE,FALSE,,30-Jun-97,20000,0,P I F,0,20000,10000,0,low,
9447114001,CINDY REED CPA,ORANGE,CA,92867,MUFG UNION BANK NATL ASSOC,CA,541211,15-Dec-05,2006,36,1,1,0,0,1,1,FALSE,FALSE,,31-Jan-06,20000,0,P I F,0,20000,10000,54,low,"Professional, scientific, and technical services"
9450323010,BOTTOM LINE BOOKEEPING,WINTER PARK,CO,80482,BANK OF THE WEST,CO,0,12-Aug-96,1996,60,1,1,0,0,1,0,FALSE,FALSE,,31-May-97,20000,0,P I F,0,20000,16000,0,low,
9452364000,PLAZA CAFE,SEATTLE,WA,98101,EAST WEST BANK,WA,722212,16-Dec-05,2006,84,2,1,0,2,1,1,FALSE,FALSE,,31-Jan-06,20000,0,P I F,0,20000,10000,72,low,Accommodation and food services 
9452434008,DALLAS DAY CARE & LEARNING CEN,BATON ROUGE,LA,70806,INNOVATIVE BANK,CA,624410,16-Dec-05,2006,84,8,1,2,8,1,1,FALSE,FALSE,,31-Dec-05,20000,0,P I F,0,20000,17000,62,low,Health care and social assistance
9454283008,TAG'S PROCESSING,WASHINGTON,PA,15301,WASHINGTON FINANCIAL BANK,PA,311611,13-Aug-96,1996,60,3,1,0,0,1,0,FALSE,TRUE,,30-Nov-96,20000,0,P I F,0,20000,16000,31,low,Manufacturing
9454393006,"MY OUTDOOR PLACE, INC.",NEW PHILADELPHIA,OH,44663,THE CITIZENS SAVINGS BANK,OH,451110,13-Aug-96,1996,84,1,2,0,0,1,0,FALSE,TRUE,,31-Jan-97,20000,0,P I F,0,20000,16000,45,low,Retail trade
9454533000,CENTRAL MISSOURI SEPTIC,ROSEBUD,MO,63091,BANK OF SULLIVAN,MO,0,13-Aug-96,1996,84,3,2,0,0,1,0,FALSE,TRUE,,30-Nov-96,20000,0,P I F,0,20000,16000,0,low,
9454823004,TRAFFIC CONTROL&SAFETY DEVICES,LAS VEGAS,NV,89118,WELLS FARGO BANK NATL ASSOC,NV,0,13-Aug-96,1996,60,9,1,0,0,1,0,FALSE,FALSE,,31-Dec-96,20000,0,P I F,0,20000,16000,0,low,
9455703005,LEO GROCERY,DORCHESTER,MA,2120,BANK OF AMERICA NATL ASSOC,CT,0,14-Aug-96,1996,36,2,1,0,0,1,0,FALSE,TRUE,,30-Sep-96,20000,0,P I F,0,20000,16000,0,low,
9455953010,HOWE PAIN RELIEF CENTER,GREENFIELD,MA,1301,WELLS FARGO BANK NATL ASSOC,SD,0,14-Aug-96,1996,60,6,1,0,0,1,0,TRUE,FALSE,,30-Nov-00,20000,0,P I F,0,20000,10000,0,low,
9457814003,THE GROUNDS KEEPER NURSERY NOR,MORGANTOWN,WV,26508,INNOVATIVE BANK,CA,561730,16-Dec-05,2006,84,18,1,0,18,1,2,FALSE,FALSE,,31-Dec-05,20000,0,P I F,0,20000,17000,56,low,Administrative/support & waste management/remediation Service
9458443005,THE SHOE BOX,GUYMON,OK,73942,BANK OF THE PANHANDLE,OK,448210,14-Aug-96,1996,60,3,1,0,0,1,0,FALSE,TRUE,,30-Sep-96,20000,0,P I F,0,20000,16000,44,low,Retail trade
9458623000,PIKE COUNTY OUTFITTERS,MILFORD,PA,18337,"PNC BANK, NATIONAL ASSOCIATION",PA,421910,14-Aug-96,1996,60,1,2,0,0,1,0,FALSE,TRUE,,31-Oct-97,20000,0,P I F,0,20000,16000,42,low,Wholesale trade
9464333003,BATHTUB BILLY'S,ROCHESTER,NY,14615,BANK OF AMERICA NATL ASSOC,NY,0,16-Aug-96,1996,60,35,1,0,0,1,0,FALSE,TRUE,,31-Jul-97,20000,0,P I F,0,20000,16000,0,low,
9465153010,GEOFFREY M. PARILLO,PROVIDENCE,RI,2904,CITIZENS BANK NATL ASSOC,RI,621210,16-Aug-96,1996,8,2,1,0,0,1,0,TRUE,FALSE,,31-Jul-97,20000,0,P I F,0,20000,10000,62,low,Health care and social assistance
9465373006,"HANNAH & HER SCISSORS, INC.",MIAMI BEACH,FL,33139,SUNTRUST BANK,GA,0,16-Aug-96,1996,84,1,1,0,0,1,0,FALSE,TRUE,,31-Oct-96,20000,0,P I F,0,20000,16000,0,low,
9465663010,DESIGN TECH,GARDNER,MA,1440,BANK OF AMERICA NATL ASSOC,MA,0,16-Aug-96,1996,84,3,2,0,0,1,0,FALSE,FALSE,,31-Oct-96,20000,0,P I F,0,20000,10000,0,low,
9467993008,SAMUEL'S HUNTINGTON BEACH,HUNTINGTON BEACH,CA,92646,BANK OF AMERICA CALIFORNIA N.A,CA,0,19-Aug-96,1996,84,9,2,0,0,1,0,FALSE,FALSE,,31-May-97,20000,0,P I F,0,20000,16000,0,low,
9468813002,KEEFE LANDSCAPING,BROOKFIELD,CT,6804,JPMORGAN CHASE BANK NATL ASSOC,IL,0,19-Aug-96,1996,48,3,2,0,0,1,0,FALSE,FALSE,,30-Jun-97,20000,0,P I F,0,20000,10000,0,low,
9470623003,"IN THE HOUSE, INC.",WASHINGTON,DC,20001,INDUSTRIAL BANK,DC,448140,20-Aug-96,1996,60,3,1,0,0,1,0,FALSE,TRUE,,31-Mar-97,20000,0,P I F,0,20000,16000,44,low,Retail trade
9473443003,LANTERN RESTAURANT,NEODESHA,KS,66757,WELLS FARGO BANK NATL ASSOC,SD,0,21-Aug-96,1996,60,5,1,0,0,1,0,TRUE,FALSE,,31-Mar-97,20000,0,P I F,0,20000,10000,0,low,
9475833006,KILABREW'S,ST. LOUIS,MO,63104,BANK OF AMERICA NATL ASSOC,NC,0,21-Aug-96,1996,60,10,1,0,0,1,0,FALSE,TRUE,,30-Sep-97,20000,0,P I F,0,30000,24000,0,low,
9475883010,"HIGHWAY 83, INC.",GARRISON,ND,58540,BREMER BANK NATL ASSOC,ND,0,21-Aug-96,1996,36,5,2,0,0,19550,0,FALSE,TRUE,,31-Oct-96,20000,0,P I F,0,20000,16000,0,low,
9477573004,CUSTOM FABRICATIONS,GORHAM,ME,4038,MAINE BK & TRUST A DIVISION OF,ME,421990,22-Aug-96,1996,60,1,2,0,0,1,0,FALSE,TRUE,,30-Nov-96,20000,0,P I F,0,20000,16000,42,low,Wholesale trade
9478183007,THE PLANT NANNY,KERNERSVILLE,NC,27284,BRANCH BK. & TR CO,NC,0,22-Aug-96,1996,60,1,2,0,0,1,0,FALSE,TRUE,,31-Jan-97,20000,0,P I F,0,20000,16000,0,low,
9478443002,ANDY'S ONLINE CAFE (A PART),LYONS,NY,14489,HSBC BK USA NATL ASSOC,NY,0,22-Aug-96,1996,48,3,2,0,0,1,0,FALSE,TRUE,,28-Feb-97,20000,0,P I F,0,20000,16000,0,low,
9479804001,CLARKSVILLE ELITE GYMNASTICS &,CLARKSVILLE,TN,37040,BBCN BANK,CA,611620,20-Dec-05,2006,84,15,2,0,15,1,1,FALSE,FALSE,,31-Dec-05,20000,0,P I F,0,20000,17000,61,low,Educational services
9480263006,LONE WOLF CONCRETE CONST CO,ANCHORAGE,AK,99518,NORTHRIM BANK,AK,0,22-Aug-96,1996,4,10,1,0,0,1,0,FALSE,FALSE,,31-Jan-97,20000,0,P I F,0,20000,16000,0,low,
9480404007,3PL SOULUTIONS CO INC,RALEIGH,NC,27616,SELF-HELP CU,NC,484121,20-Dec-05,2006,9,1,2,1,0,1,1,FALSE,FALSE,8-Apr-09,31-Dec-05,20000,0,CHGOFF,13584,20000,10000,48,high,Transportation and warehousing
9481523003,SHORELINE CABINETS,TRAVERSE CITY,MI,49696,FIFTH THIRD BANK,OH,337211,23-Aug-96,1996,38,11,1,0,0,1,0,FALSE,FALSE,,30-Apr-97,20000,0,P I F,0,20000,16000,33,low,Manufacturing
9482773010,MADISON MEATS,MADISON,MN,56256,KLEINBANK,MN,0,23-Aug-96,1996,79,2,2,0,0,1,0,FALSE,TRUE,,23-Feb-97,20000,0,P I F,0,20000,16000,0,low,
9485883003,BRIDGES TO GOLF,CORPUS CHRISTI,TX,78410,KLEBERG BANK NATL ASSOC,TX,451110,26-Aug-96,1996,60,1,1,0,0,1,0,FALSE,TRUE,,30-Nov-96,20000,0,P I F,0,20000,16000,45,low,Retail trade
9486483003,FUNCTION BEFORE FASHION,CRESTED BUTTE,CO,81224,BANK OF THE WEST,CO,0,26-Aug-96,1996,84,1,1,0,0,1,0,FALSE,TRUE,,30-Nov-97,20000,0,P I F,0,20000,16000,0,low,
9488404001,B & B MOBILE LUBE,FOUNTAIN VALLEY (TALBERT),CA,92708,JPMORGAN CHASE BANK NATL ASSOC,NV,811191,21-Dec-05,2006,84,2,1,1,2,1,2,TRUE,FALSE,,30-Apr-09,20000,0,P I F,0,20000,10000,81,low,Other services (except public administration)
9488954002,GERALD'S SERVICE,CHICAGO,IL,60643,BBCN BANK,CA,235210,21-Dec-05,2006,19,4,1,2,4,1,1,FALSE,FALSE,31-May-11,31-Dec-05,20000,0,CHGOFF,7630,20000,17000,23,high,Construction
9492733002,"A TASTE OF HEAVEN, INC.",BLADENSBURG,MD,20784,FIRST NATL BK OF PENNSYLVANIA,MD,0,28-Aug-96,1996,84,2,2,0,0,1,0,FALSE,TRUE,,30-Sep-96,20000,0,P I F,0,20000,16000,0,low,
9494423007,"AAAA LEGAL SERVICES, P.C.",HARTFORD,CT,6106,BANK OF AMERICA NATL ASSOC,RI,541110,28-Aug-96,1996,12,8,1,0,0,1,0,TRUE,FALSE,,31-Jan-97,20000,0,P I F,0,20000,10000,54,low,"Professional, scientific, and technical services"
9496863003,UINTAH SPRINGS PRESS,WEST VALLEY CITY,UT,84119,AMERICANWEST BANK,UT,421990,29-Aug-96,1996,84,1,2,0,0,1,0,FALSE,TRUE,,30-Sep-96,20000,0,P I F,0,20000,16000,42,low,Wholesale trade
9498463005,"8231 TRUMAN ROAD, INC.",KANSAS CITY,MO,64126,HILLCREST BANK,KS,0,29-Aug-96,1996,60,8,1,0,0,1,0,FALSE,TRUE,,31-Jan-97,20000,0,P I F,0,20000,16000,0,low,
9504453010,PROMOTE IT,MISSION,KS,66202,ENTERPRISE BANK & TRUST,KS,541810,30-Aug-96,1996,36,1,1,0,0,1,0,FALSE,FALSE,,30-Nov-96,20000,0,P I F,0,20000,16000,54,low,"Professional, scientific, and technical services"
9504634001,IM & M ONE STOP HOME REPAIR,ORONO (TOWN OF),ME,4473,"MERRILL BANK, A DIVISION OF",ME,236118,22-Dec-05,2006,48,13,1,1,12,1,2,FALSE,FALSE,,31-Jan-06,20000,0,P I F,0,20000,10000,23,low,Construction
9506883003,"SUN TECH PLATING, INC.",MARGATE,FL,33063,BANK OF AMERICA NATL ASSOC,GA,332813,3-Sep-96,1996,60,3,1,0,0,1,0,FALSE,TRUE,,28-Feb-97,20000,0,P I F,0,20000,16000,33,low,Manufacturing
9507393000,DND RIBBON & LASER COMPANY,ONTARIO,CA,91762,PACIFIC WESTERN BANK,CA,339944,3-Sep-96,1996,84,4,2,0,0,1,0,FALSE,FALSE,,31-Oct-96,20000,0,P I F,0,20000,16000,33,low,Manufacturing
9508033010,E & J SALES CORP.,FITCHBURG,MA,1420,BANK OF AMERICA NATL ASSOC,MA,445310,3-Sep-96,1996,12,4,1,0,0,1,0,TRUE,FALSE,,31-Oct-96,20000,0,P I F,0,20000,10000,44,low,Retail trade
9509054003,MOKATA NETWORKS LLC,SIGNAL MOUNTAIN,TN,37377,BBCN BANK,CA,511210,23-Dec-05,2006,17,2,1,8,2,1,1,FALSE,FALSE,26-Aug-11,23-Dec-05,20000,0,CHGOFF,7056,20000,17000,51,high,Information
9509123004,ICHIBAN CENTER,HERCULES,CA,94547,EAST WEST BANK,CA,451120,3-Sep-96,1996,84,2,1,0,0,1,0,FALSE,TRUE,,31-Aug-97,20000,0,P I F,0,20000,16000,45,low,Retail trade
9509624008,REYNOLDS HOMES INC,CLEVELAND,OH,44105,U.S. BANK NATIONAL ASSOCIATION,OH,531390,23-Dec-05,2006,84,5,2,0,5,1,1,FALSE,FALSE,,28-Feb-07,20000,0,P I F,0,20000,17000,53,low,Real estate and rental and leasing
9510023006,UNDERWOOD CONSTRUCTION,FOLLANSBEE,WV,26037,JPMORGAN CHASE BANK NATL ASSOC,IL,233210,4-Sep-96,1996,60,1,1,0,0,1,0,FALSE,TRUE,,28-Feb-97,20000,0,P I F,0,20000,16000,23,low,Construction
9510263008,COSMETIC REMODELERS,MEMPHIS,TN,38127,REGIONS BANK,TN,235210,4-Sep-96,1996,60,2,1,0,0,1,0,FALSE,TRUE,,31-Jan-97,20000,0,P I F,0,20000,16000,23,low,Construction
9511873005,"REFINISHING TOUCH, THE",LAWRENCEBURG,KY,40342,PEOPLES EXCHANGE BANK,KY,0,4-Sep-96,1996,84,2,2,0,0,1,0,FALSE,TRUE,,31-Mar-97,20000,0,P I F,0,20000,16000,0,low,
9514113006,GREAT HARVEST BREAD COMPANY,LANCASTER,PA,17601,SUSQUEHANNA BANK,PA,0,5-Sep-96,1996,60,7,1,0,0,1,0,FALSE,TRUE,,31-Dec-96,20000,0,P I F,0,20000,16000,0,low,
9515613005,TAG-M INC,CINNAMINSON,NJ,8077,"PNC BANK, NATIONAL ASSOCIATION",NJ,313222,5-Sep-96,1996,60,2,2,0,0,1,0,FALSE,FALSE,,31-Dec-96,20000,0,P I F,0,20000,10000,31,low,Manufacturing
9516713002,ALEXANDRIA'S COUNTRY GARDEN,CARTHAGE,MO,64836,BANK OF AMERICA NATL ASSOC,NC,0,5-Sep-96,1996,84,1,2,0,0,1,0,FALSE,TRUE,,31-Oct-96,20000,0,P I F,0,20000,16000,0,low,
9518913007,SHOOTERS,GRISWOLD,IA,51535,ROLLING HILLS BANK & TRUST,IA,451110,6-Sep-96,1996,240,2,1,0,0,1,0,FALSE,TRUE,,30-Apr-97,20000,0,P I F,0,20000,16000,45,low,Retail trade
9519363010,"SALON 711, INC.",MANHATTAN,NY,10013,JPMORGAN CHASE BANK NATL ASSOC,IL,0,6-Sep-96,1996,60,4,2,0,0,1,0,FALSE,FALSE,,30-Jun-97,20000,0,P I F,0,20000,10000,0,low,
9519873010,"CONSTRUCTION, CONSULTING&TSTNG",WATERVILLE,OH,43566,THE HUNTINGTON NATIONAL BANK,OH,0,6-Sep-96,1996,84,2,2,0,0,1,0,FALSE,TRUE,,31-Oct-96,20000,0,P I F,0,20000,16000,0,low,
9525084001,FABIOLA TAILORING,LOS ANGELES,CA,90010,BBCN BANK,CA,451130,28-Dec-05,2006,53,1,2,0,1,1,1,FALSE,FALSE,11-Sep-08,31-Dec-05,20000,0,CHGOFF,16044,20000,17000,45,high,Retail trade
9525334004,ANGEL SECURITY,BIRMINGHAM,AL,35209,BBCN BANK,CA,561612,28-Dec-05,2006,34,4,1,4,4,1,1,FALSE,FALSE,11-Mar-10,31-Dec-05,20000,0,CHGOFF,11821,20000,17000,56,high,Administrative/support & waste management/remediation Service
9525923008,"NORTHERN WEATHERWORKS,LLC",MONTPELIER,VT,5602,"TD BANK, NATIONAL ASSOCIATION",VT,0,9-Sep-96,1996,60,2,2,0,0,1,0,FALSE,TRUE,,31-Oct-96,20000,0,P I F,0,20000,16000,0,low,
9530543006,TREASURES BY TRICIA,CANTON,MA,2021,CITIZENS BANK NATL ASSOC,MA,453220,10-Sep-96,1996,36,4,1,0,0,1,0,FALSE,TRUE,,30-Nov-96,20000,0,P I F,0,20000,16000,45,low,Retail trade
9530723001,"ALPHA AGENCY, INC.",NASHVILLE,TN,37211,REGIONS BANK,AL,0,10-Sep-96,1996,60,4,1,0,0,1,0,FALSE,TRUE,,31-Jan-97,20000,0,P I F,0,20000,16000,0,low,
9530753010,"STEPS DANCE CENTER, INC.",ASHBURN,VA,20140,UNITED BANK,VA,0,10-Sep-96,1996,48,2,2,0,0,1,0,FALSE,TRUE,,31-Jan-97,20000,0,P I F,0,20000,16000,0,low,
9530844009,THE BODY-MIND CONNECTION,LINCOLN,IL,62656,STATE BANK OF LINCOLN,IL,812199,28-Dec-05,2006,116,1,2,1,1,1,2,FALSE,FALSE,3-Mar-09,31-Jan-06,20000,0,CHGOFF,18155,20000,17000,81,high,Other services (except public administration)
9531194006,AUTO INSURANCE NETWORK INC,PARLIN,NJ,8859,"PNC BANK, NATIONAL ASSOCIATION",DE,524210,28-Dec-05,2006,48,4,1,10,10,1,1,TRUE,FALSE,,31-Jan-06,20000,0,P I F,0,10000,5000,52,low,Finance and insurance
9532643005,DIAMOND TOUCH MOBILE CAR ETC,LOS ANGELES,CA,90017,BBCN BANK,CA,811192,10-Sep-96,1996,84,5,1,0,0,1,0,FALSE,TRUE,,31-Oct-96,20000,0,P I F,0,20000,16000,81,low,Other services (except public administration)
9534243007,"CELESTIAL HORIZONS, INC.",SPRINGFIELD,MO,65810,GREAT SOUTHERN BANK,MO,453220,11-Sep-96,1996,84,1,1,0,0,1,0,FALSE,FALSE,,30-Nov-96,20000,0,P I F,0,20000,16000,45,low,Retail trade
9534613000,HOMETOWN MORTGAGE,BURLINGTON,WA,98223,SKAGIT BANK,WA,0,11-Sep-96,1996,48,2,2,0,0,1,0,FALSE,FALSE,,31-Jan-97,20000,0,P I F,0,20000,16000,0,low,
9536903008,BEST FRIENDS GOURMET COFFEE &,INGLEWOOD,CA,90303,COMERICA BANK,TX,0,11-Sep-96,1996,110,1,2,0,0,1,0,FALSE,FALSE,24-Mar-98,31-Oct-96,20000,0,CHGOFF,17185,20000,16000,0,high,
9538254003,SMOKEY MOUNTAIN VENDING OF BLO,MARYVILLE,TN,37801,BBCN BANK,CA,454210,29-Dec-05,2006,51,4,1,1,4,1,1,FALSE,FALSE,21-Nov-08,31-Dec-05,20000,0,CHGOFF,15500,20000,17000,45,high,Retail trade
9539434000,NAPOLEON AT HOME,MOUNTAIN VIEW,CA,94041,BBCN BANK,CA,453998,29-Dec-05,2006,68,1,1,1,1,1,1,FALSE,FALSE,7-Jun-07,31-Dec-05,20000,0,CHGOFF,18958,20000,17000,45,high,Retail trade
9540763006,THE CATWALK,ALTUS,OK,73521,1ST NATL BK IN ALTUS,OK,448120,12-Sep-96,1996,91,2,2,0,0,1,0,FALSE,FALSE,,31-Oct-96,20000,0,P I F,0,20000,16000,44,low,Retail trade
9541104005,3D ENTERPRISES LLC,HIXSON (RR NAME HIXSON),TN,37343,BBCN BANK,CA,812320,29-Dec-05,2006,84,9,1,6,9,1,1,FALSE,FALSE,,31-Dec-05,20000,0,P I F,0,20000,17000,81,low,Other services (except public administration)
9547024006,SCHRAEDER ENTERPRISES INC,CHICAGO,IL,60625,BBCN BANK,CA,448120,30-Dec-05,2006,48,3,1,3,3,1,1,FALSE,FALSE,,31-Aug-06,20000,0,P I F,0,20000,10000,44,low,Retail trade
9548244004,GOYAL CONSULTING INC,APPLE VALLEY,MN,55124,WELLS FARGO BANK NATL ASSOC,SD,541611,30-Dec-05,2006,60,1,1,0,1,1,1,TRUE,FALSE,,31-Mar-06,20000,0,P I F,0,20000,10000,54,low,"Professional, scientific, and technical services"
9548374008,12 D INC,SAN RAFAEL,CA,94901,WELLS FARGO BANK NATL ASSOC,SD,541611,30-Dec-05,2006,60,2,1,0,2,1,1,FALSE,FALSE,,31-Jan-06,20000,0,P I F,0,20000,10000,54,low,"Professional, scientific, and technical services"
9548733002,ALL SPORTS,LOWELL,MA,1852,ENTERPRISE BK & TR CO,MA,451110,16-Sep-96,1996,60,6,2,0,0,1,0,FALSE,TRUE,,30-Sep-96,20000,0,P I F,0,20000,16000,45,low,Retail trade
9549433008,LJC MECHANICAL CONTRACTORS INC,FLORA VISTA,NM,87415,WELLS FARGO BANK NATL ASSOC,NM,235110,16-Sep-96,1996,60,10,1,0,0,1,0,FALSE,TRUE,,31-Oct-96,20000,0,P I F,0,20000,16000,23,low,Construction
9550073004,THE AMERICAN AVIATOR,ENID,OK,73703,CENTRAL NATL BK & TR CO OF ENI,OK,453220,17-Sep-96,1996,78,1,2,0,0,1,0,FALSE,FALSE,,31-Jan-97,20000,0,P I F,0,20000,16000,45,low,Retail trade
9550853002,THE COTTAGE COLLECTION,KATONAH,NY,10536,JPMORGAN CHASE BANK NATL ASSOC,IL,0,17-Sep-96,1996,60,1,1,0,0,1,0,FALSE,FALSE,,30-Jun-97,20000,0,P I F,0,20000,10000,0,low,
9550873008,MARLENE J. WUST MD. PC.,NEW YORK,NY,10021,JPMORGAN CHASE BANK NATL ASSOC,IL,0,17-Sep-96,1996,24,3,1,0,0,1,0,FALSE,FALSE,,30-Jun-97,20000,0,P I F,0,20000,10000,0,low,
9553113009,OLD MAIN GALLERY,BOZEMAN,MT,59715,FIRST SECURITY BK OF MISSOULA,MT,0,17-Sep-96,1996,60,13,1,0,0,1,0,FALSE,TRUE,,30-Nov-96,20000,0,P I F,0,20000,16000,0,low,
9554004009,BROWN'S MILL PROPANE SERVICE I,ARTHURDALE,WV,26520,BBCN BANK,CA,454311,30-Dec-05,2006,84,2,1,1,2,1,2,FALSE,FALSE,,31-Jan-06,20000,0,P I F,0,20000,17000,45,low,Retail trade
9555763009,J-H JANITORIAL,DUNCANVILLE,TX,75116,PROSPERITY BANK,TX,0,18-Sep-96,1996,24,12,1,0,0,1,0,FALSE,TRUE,,31-Jan-97,20000,0,P I F,0,20000,16000,0,low,
9558133003,STYLES ON VIDEO,DALEVILLE,AL,36322,COMMUNITY BK & TR OF S.E. ALAB,AL,541921,19-Sep-96,1996,60,1,2,0,0,1,0,FALSE,TRUE,,31-Jan-97,20000,0,P I F,0,20000,16000,54,low,"Professional, scientific, and technical services"
9558363002,GREAT HARVEST BREAD COMPANY,LUBBOCK,TX,79423,PROSPERITY BANK,TX,0,19-Sep-96,1996,60,10,2,0,0,35711,0,FALSE,TRUE,,30-Nov-96,20000,0,P I F,0,20000,16000,0,low,
9558973008,L & A DISTRIBUTORS,EL PASO,TX,79915,JPMORGAN CHASE BANK NATL ASSOC,IL,0,19-Sep-96,1996,36,5,1,0,0,1,0,FALSE,FALSE,,31-Mar-97,20000,0,P I F,0,20000,10000,0,low,
9559113010,SHARPER VISION OPTICA,UNION CITY,NJ,7087,BANCO POPULAR NORTH AMERICA,NJ,0,19-Sep-96,1996,60,1,1,0,0,1,0,FALSE,TRUE,,31-May-97,20000,0,P I F,0,20000,16000,0,low,
9560093003,LUXURY FIRST CLASS LIMO.,ALBUQUERQUE,NM,87121,BANK OF AMERICA NATL ASSOC,NM,0,19-Sep-96,1996,60,1,2,0,0,1,0,FALSE,TRUE,,30-Nov-96,20000,0,P I F,0,20000,16000,0,low,
9561693008,SPRINGFIELD TAEKWONDO ACADEMY,SPRINGFIELD,MO,65810,METROPOLITAN NATIONAL BANK,MO,0,20-Sep-96,1996,60,1,1,0,0,1,0,FALSE,TRUE,,31-Jan-97,20000,0,P I F,0,20000,16000,0,low,
9564543004,PET WORLD,PRESCOTT VALLEY,AZ,86314,JPMORGAN CHASE BANK NATL ASSOC,IL,0,20-Sep-96,1996,71,10,1,0,0,1,0,FALSE,FALSE,,30-Nov-97,20000,0,P I F,0,20000,10000,0,low,
9564764007,TK FAST INC,WICHITA,KS,67211,FIDELITY BANK,KS,541511,3-Jan-06,2006,36,4,2,0,4,1,1,TRUE,FALSE,,31-Aug-06,20000,0,P I F,0,15000,7500,54,low,"Professional, scientific, and technical services"
9565174009,"ELLISON LUKICH PLUMBING, INC",SHEBOYGAN,WI,53081,WELLS FARGO BANK NATL ASSOC,SD,238220,3-Jan-06,2006,60,2,1,0,2,1,2,FALSE,FALSE,,31-Jan-06,20000,0,P I F,0,20000,10000,23,low,Construction
9565384002,DUCT DUCK LLC,RIVERTON,UT,84065,MOUNTAIN AMERICA FCU,UT,561790,3-Jan-06,2006,42,1,2,3,1,1,2,TRUE,FALSE,10-Jun-10,31-Jan-06,20000,0,CHGOFF,19995,20000,10000,56,high,Administrative/support & waste management/remediation Service
9565963003,MILLER WELL SERVICE,TITUSVILLE,PA,16354,FIRST COMMONWEALTH BANK,PA,213112,23-Sep-96,1996,84,1,1,0,0,1,0,FALSE,TRUE,,30-Nov-96,20000,0,P I F,0,20000,16000,21,low,"Mining, quarrying, and oil and gas extraction"
9569403007,PED ELECTRIC,GLOVERSVILLE,NY,12078,"NBT BANK, NATIONAL ASSOCIATION",NY,0,24-Sep-96,1996,120,2,2,0,0,1,0,FALSE,TRUE,,31-Mar-97,20000,0,P I F,0,20000,16000,0,low,
9573373003,RICK WHITE'S TREMONT ST GARAGE,MELROSE,MA,2176,CENTURY BANK AND TRUST COMPANY,MA,811111,25-Sep-96,1996,60,3,1,0,0,1,0,FALSE,FALSE,,31-Jan-97,20000,0,P I F,0,20000,16000,81,low,Other services (except public administration)
9573383006,"GENTER HEALTHCARE, INC.",NEW LONDON,NH,3257,SUGAR RIVER BANK,NH,0,25-Sep-96,1996,60,6,1,0,0,1,0,FALSE,TRUE,,31-Oct-96,20000,0,P I F,0,20000,16000,0,low,
9576223010,MERIDIAN TRAVEL LLC,REYNOLDSBURG,OH,43068,JPMORGAN CHASE BANK NATL ASSOC,IL,561510,25-Sep-96,1996,1,1,1,0,0,1,0,FALSE,FALSE,,31-Mar-98,20000,0,P I F,0,20000,10000,56,low,Administrative/support & waste management/remediation Service
9576793006,METRO MINI MART,ALBANY,NY,12204,KEYBANK NATIONAL ASSOCIATION,NY,452990,25-Sep-96,1996,60,1,1,0,0,1,0,FALSE,FALSE,,31-Mar-97,20000,0,P I F,0,20000,10000,45,low,Retail trade
9576963009,THE CANDLE SHOP,BILLERICA,MA,2181,BANK OF AMERICA NATL ASSOC,NC,0,25-Sep-96,1996,60,2,2,0,0,1,0,FALSE,TRUE,,31-Mar-99,20000,0,P I F,0,20000,16000,0,low,
9577573001,"METROPOLITAN HEALTH CLUB, INC.",BOSTON,MA,2116,BANK OF AMERICA NATL ASSOC,MA,0,25-Sep-96,1996,144,50,1,0,0,1,0,TRUE,FALSE,,28-Feb-97,20000,0,P I F,0,20000,10000,0,low,
9578993000,"DONAHER SARASIN, INC.",FRAMINGHAM,MA,1701,BANK OF AMERICA NATL ASSOC,CT,0,26-Sep-96,1996,36,6,1,0,0,1,0,FALSE,TRUE,,30-Sep-96,20000,0,P I F,0,20000,16000,0,low,
9581253002,FAIRPORT FLORIST,FAIRPORT,NY,14450,BANK OF AMERICA NATL ASSOC,CT,453110,26-Sep-96,1996,60,1,1,0,0,1,0,FALSE,TRUE,,31-Oct-97,20000,0,P I F,0,20000,16000,45,low,Retail trade
9581383006,ARNOLD'S FAMILY RESTAURANT,WEEDSPORT,NY,13166,COMMUNITY BANK NATL ASSOC,NY,0,26-Sep-96,1996,84,10,0,0,0,1,0,FALSE,FALSE,,31-Dec-96,20000,0,P I F,0,20000,15000,0,low,
9581703006,PHOENIX SOCKET TO ME TOOLS,CRYSTAL SPRINGS,MS,39059,REGIONS BANK,TN,444130,26-Sep-96,1996,84,2,1,0,0,1,0,FALSE,TRUE,,30-Apr-97,20000,0,P I F,0,20000,16000,44,low,Retail trade
9582073009,"DANIELLE AND MARK, INC.",NEW PALTZ,NY,12581,BANK OF AMERICA NATL ASSOC,CT,445310,26-Sep-96,1996,61,2,1,0,0,1,0,FALSE,TRUE,,23-Oct-96,20000,0,P I F,0,20000,16000,44,low,Retail trade
9582713000,"BOX THREE OF FARGO, INC.",FARGO,ND,58103,ALERUS FINANCIAL NATL ASSOC,ND,0,26-Sep-96,1996,36,8,2,0,0,1,0,FALSE,TRUE,,30-Nov-96,20000,0,P I F,0,20000,15000,0,low,
9583413006,KAUAI SCREEN PRINT,LIHUE,HI,96766,WELLS FARGO BANK NATL ASSOC,CA,422320,26-Sep-96,1996,49,7,1,0,0,1,0,TRUE,FALSE,7-Mar-06,31-Jan-97,20000,0,CHGOFF,17504,20000,10000,42,high,Wholesale trade
9584003003,INNER CITY PRO SHOP,CLEVELAND,OH,44112,URBAN PARTNERSHIP BANK,OH,0,27-Sep-96,1996,60,1,1,0,0,1,0,FALSE,TRUE,,31-Jul-97,20000,0,P I F,0,20000,16000,0,low,
9587753000,THE AMMO DUMP,FARMINGTON,NH,3835,WELLS FARGO BANK NATL ASSOC,SD,451110,27-Sep-96,1996,60,1,1,0,0,1,0,FALSE,FALSE,,31-Dec-96,20000,0,P I F,0,20000,10000,45,low,Retail trade
9588313010,TIME TO LEARN,FREEOLD,NJ,7728,"TD BANK, NATIONAL ASSOCIATION",DE,624410,27-Sep-96,1996,84,7,2,0,0,1,0,FALSE,FALSE,,31-Mar-97,20000,0,P I F,0,20000,16000,62,low,Health care and social assistance
9588443003,MARK'S MUSIC,BREWER,ME,4412,"MERRILL BANK, A DIVISION OF",ME,451140,27-Sep-96,1996,60,2,1,0,0,1,0,FALSE,TRUE,,31-Jan-97,20000,0,P I F,0,20000,16000,45,low,Retail trade
9593483009,RINKE DESIGN,LAWRENCE,KS,66046,U.S. BANK NATIONAL ASSOCIATION,OH,541430,30-Sep-96,1996,63,1,2,0,0,1,0,FALSE,TRUE,,30-Nov-96,20000,0,P I F,0,20000,16000,54,low,"Professional, scientific, and technical services"
9593603008,DAVE'S AUTO CARE,FORT DODGE,IA,51501,WELLS FARGO BANK NATL ASSOC,IA,811111,30-Sep-96,1996,60,1,2,0,0,1,0,FALSE,TRUE,,31-Jan-97,20000,0,P I F,0,20000,16000,81,low,Other services (except public administration)
9593993009,MOVIES + MORE,CHICOPEE,MA,1020,BANK OF AMERICA NATL ASSOC,RI,451220,30-Sep-96,1996,36,12,1,0,0,1,0,FALSE,TRUE,,30-Jun-97,20000,0,P I F,0,20000,16000,45,low,Retail trade
9596263008,NETSOFT CORPORATION,WAYLAND,MA,1778,BANK OF AMERICA NATL ASSOC,MA,541511,30-Sep-96,1996,12,3,1,0,0,1,0,TRUE,FALSE,,31-Mar-97,20000,0,P I F,0,20000,10000,54,low,"Professional, scientific, and technical services"
9596574003,MAXIMUM ATM NETWORK SERVICES,SAINT LOUIS,MO,63118,BBCN BANK,CA,238290,6-Jan-06,2006,84,1,1,1,1,1,1,FALSE,FALSE,,31-Jan-06,20000,0,P I F,0,20000,17000,23,low,Construction
9597193002,KOELLISCH CARPET COMPANY,MADISON,OH,44057,JPMORGAN CHASE BANK NATL ASSOC,IL,442210,30-Sep-96,1996,60,1,1,0,0,1,0,FALSE,FALSE,,28-Feb-97,20000,0,P I F,0,20000,10000,44,low,Retail trade
9598233003,SUNSHINE CLEANERS,LAFAYETTE,LA,70501,"MIDSOUTH BANK, N.A.",LA,812310,30-Sep-96,1996,84,2,1,0,0,1,0,FALSE,TRUE,,31-Dec-96,20000,0,P I F,0,20000,16000,81,low,Other services (except public administration)
9600463002,SPRINGFIELD HOME & OFFICE,SPRINGFIELD,MN,56087,FIRST NATIONAL BANK,MN,453210,30-Sep-96,1996,55,2,2,0,0,1,0,FALSE,TRUE,,30-Mar-97,20000,0,P I F,0,35000,28000,45,low,Retail trade
9600523007,BEDSPREADS ECT.,SALT LAKE CITY,UT,84106,JPMORGAN CHASE BANK NATL ASSOC,IL,0,30-Sep-96,1996,12,3,1,0,0,1,0,TRUE,FALSE,,30-Nov-96,20000,0,P I F,0,20000,10000,0,low,
9605383001,"INTERNETWORKING, LTD.",BILLINGS,MT,59102,WELLS FARGO BANK NATL ASSOC,MT,514210,4-Oct-96,1997,36,1,2,0,0,1,0,FALSE,TRUE,,30-Nov-96,20000,0,P I F,0,20000,16000,51,low,Information
9605503000,"SPEARS, LARRY AND TAMMY",BANNER,KY,41603,BRANCH BK. & TR CO,NC,113310,4-Oct-96,1997,36,2,2,0,0,1,0,FALSE,TRUE,,31-Jan-97,20000,0,P I F,0,20000,16000,11,low,"Agriculture, forestry, fishing and hunting"
9606793008,PERFORMANCE CYCLES,PLAISTOW,NH,3865,WELLS FARGO BANK NATL ASSOC,CA,441221,4-Oct-96,1997,81,1,1,0,0,1,0,FALSE,FALSE,16-Sep-99,31-May-98,20000,0,CHGOFF,17009,20000,10000,44,high,Retail trade
9610813004,SAGAR GENERAL CONSTRUCTION,NEW HYDE PARK,NY,11040,WELLS FARGO BANK NATL ASSOC,SD,233320,4-Oct-96,1997,60,3,1,0,0,1,0,TRUE,FALSE,,30-Nov-97,20000,0,P I F,0,20000,10000,23,low,Construction
9615453002,RELATION PLUMBING AND HEATING,WEST CHAZY,NY,12992,GLENS FALLS NATL BK & TR CO,NY,235110,7-Oct-96,1997,60,1,1,0,0,1,0,FALSE,TRUE,,31-Jul-97,20000,0,P I F,0,20000,16000,23,low,Construction
9616083000,JIM'S SEW & VAC,GREENUP,IL,62428,BANK OF AMERICA NATL ASSOC,NC,451130,7-Oct-96,1997,38,1,1,0,0,1,0,FALSE,TRUE,21-Mar-01,30-Jun-97,20000,0,CHGOFF,17734,20000,16000,45,high,Retail trade
9616283001,CAUDLE GRADING,ARARAT,NC,27080,BANK OF AMERICA NATL ASSOC,NC,0,7-Oct-96,1997,8,2,1,0,0,1,0,TRUE,FALSE,,30-Jun-97,20000,0,P I F,0,20000,10000,0,low,
9617093005,WALLPAPER PLUS,SCOTT,LA,70583,GULF COAST BANK,LA,0,7-Oct-96,1997,60,4,1,0,0,1,0,FALSE,FALSE,,30-Nov-96,20000,0,P I F,0,20000,15000,0,low,
9617223007,SALON MICHAEL ANTHONY,PENNSAUKEN,NJ,8110,"PNC BANK, NATIONAL ASSOCIATION",PA,0,7-Oct-96,1997,84,5,1,0,0,1,0,FALSE,FALSE,,31-Dec-96,20000,0,P I F,0,20000,10000,0,low,
9618523005,GOLDEN CHILD DAY CARE CTR INC,PHARR,TX,78516,WELLS FARGO BANK NATL ASSOC,TX,624410,7-Oct-96,1997,84,2,2,0,0,1,0,FALSE,TRUE,,31-Mar-97,20000,0,P I F,0,20000,16000,62,low,Health care and social assistance
9621014002,M & M MAINTENANCE INC,OXNARD,CA,93033,"CITIBANK, N.A.",CA,561730,9-Jan-06,2006,84,8,1,1,8,1,1,TRUE,FALSE,,30-Apr-08,20000,0,P I F,0,20000,10000,56,low,Administrative/support & waste management/remediation Service
9622463003,TERRY'S HAIR DESIGN,CHARLOTTE,NC,28208,MECHANICS AND FARMERS BANK,NC,0,8-Oct-96,1997,54,1,1,0,0,1,0,FALSE,TRUE,,31-Jul-97,20000,0,P I F,0,20000,16000,0,low,
9624773006,SAMUEL PETTENGILL BLACK & WHIT,GREENFIELD,MA,1301,GREENFIELD SAVINGS BANK,MA,443130,8-Oct-96,1997,84,1,2,0,0,1,0,FALSE,TRUE,,31-Oct-96,20000,0,P I F,0,20000,16000,44,low,Retail trade
9627333009,HEATH MUSIC ACADEMY,PROVO,UT,84604,U.S. BANK NATIONAL ASSOCIATION,OH,0,9-Oct-96,1997,52,1,2,0,0,1,0,FALSE,TRUE,,7-Jul-97,20000,0,P I F,0,20000,16000,0,low,
9628353006,HEAD'S UP CONCRETE,BRENTWOOD,TN,37027,FIRST TENNESSEE BANK NATL ASSO,TN,0,9-Oct-96,1997,36,1,2,0,0,1,0,FALSE,TRUE,14-Sep-01,31-Jul-97,20000,0,CHGOFF,9769,20000,16000,0,high,
9629393009,CHAMPAGNE LAKES RV RESORT,SCONDIDO,CA,92026,BANK OF AMERICA CALIFORNIA N.A,CA,0,9-Oct-96,1997,48,5,1,0,0,1,0,FALSE,FALSE,,30-Sep-02,20000,0,P I F,0,20000,16000,0,low,
9632713010,PUEBLO CREEK OUTFITTERS,RESERVE,NM,87830,WASHINGTON FEDERAL NATL ASSOC,NM,0,9-Oct-96,1997,60,1,2,0,0,1,0,FALSE,TRUE,,28-Feb-97,20000,0,P I F,0,20000,16000,0,low,
9635563008,HOME OXYGEN SALES & SERVICE,GLASGOW,MT,59230,FIRST COMMUNITY BANK,MT,0,10-Oct-96,1997,48,5,1,0,0,1,0,FALSE,TRUE,,30-Nov-96,20000,0,P I F,0,20000,16000,0,low,
9637993001,TAYLOR PRINTING CO.,OXFORD,AL,36203,BRANCH BK. & TR CO,AL,323111,10-Oct-96,1997,65,4,1,0,0,1,0,FALSE,TRUE,,30-Apr-97,20000,0,P I F,0,20000,16000,32,low,Manufacturing
9641833002,JACKSON HEWITT TAX SERVICE,OVERLAND PARK,KS,66212,COUNTRY CLUB BANK,KS,541213,11-Oct-96,1997,36,10,1,0,0,1,0,FALSE,TRUE,,30-Nov-96,20000,0,P I F,0,20000,16000,54,low,"Professional, scientific, and technical services"
9642444001,BAYOU CITY CLEANING & DETAILIN,BAYTOWN,TX,77520,BBCN BANK,CA,561790,11-Jan-06,2006,64,4,2,5,4,1,1,FALSE,FALSE,15-Jan-08,31-Jan-06,20000,0,CHGOFF,17760,20000,17000,56,high,Administrative/support & waste management/remediation Service
9646844000,INFINITY MOVING & STORAGE INC,NEW YORK,NY,10454,"CITIBANK, N.A.",NY,493110,11-Jan-06,2006,84,12,1,0,12,1,1,TRUE,FALSE,,30-Apr-08,20000,0,P I F,0,20000,10000,49,low,Transportation and warehousing
9657824000,PATE TRANSPORTATION,FLORA,MS,39071,BBCN BANK,CA,492110,12-Jan-06,2006,30,2,1,1,2,1,2,FALSE,FALSE,23-Aug-10,31-Jan-06,20000,0,CHGOFF,14887,20000,17000,49,high,Transportation and warehousing
9665423002,THE ESPRESSO BAR,WORCESTER,MA,1603,SOUTHBRIDGE SAVINGS BANK,MA,722410,17-Oct-96,1997,72,4,1,0,0,1,0,FALSE,TRUE,,31-Jan-97,20000,0,P I F,0,20000,16000,72,low,Accommodation and food services 
9665443008,"CLIMATE DESIGN, INC",PHOENIX,AZ,85021,JPMORGAN CHASE BANK NATL ASSOC,IL,235110,17-Oct-96,1997,60,15,1,0,0,1,0,FALSE,FALSE,,30-Nov-97,20000,0,P I F,0,20000,10000,23,low,Construction
9665684006,"PILATES FOR EVERY BODY, LLC",COLUMBIA,MO,65203,BOONE CNTY NATL BK OF COLUMBI,MO,713940,13-Jan-06,2006,60,1,1,1,2,1,1,FALSE,FALSE,,30-Jun-06,20000,0,P I F,0,20000,10000,71,low,"Arts, entertainment, and recreation"
9665903004,DIRECT EXPEDITORS LTD. CO.,MCALLEN,TX,78503,CAPITAL ONE NATL ASSOC,TX,0,17-Oct-96,1997,48,8,2,0,0,1,0,FALSE,TRUE,,28-Feb-97,20000,0,P I F,0,20000,16000,0,low,
9666593009,TROLLWOOD CAFE,FARGO,ND,58102,FIRST INTERNATL BK & TR,ND,0,17-Oct-96,1997,84,10,1,0,0,1,0,FALSE,TRUE,,31-May-97,20000,0,P I F,0,20000,16000,0,low,
9668544005,AMERICAN FINANCIAL RESOURCES M,SOUTH BEND,IN,46637,1ST SOURCE BANK,IN,524210,13-Jan-06,2006,60,1,2,0,1,1,2,FALSE,FALSE,,31-Jan-06,20000,0,P I F,0,28000,23800,52,low,Finance and insurance
9669114007,RAGUSA'S,METAIRIE,LA,70002,INNOVATIVE BANK,CA,722110,13-Jan-06,2006,84,5,1,2,5,1,1,FALSE,FALSE,,31-Jan-06,20000,0,P I F,0,20000,17000,72,low,Accommodation and food services 
9671104003,JJ GRILL,ONTARIO,CA,91761,UNITI BANK,CA,445299,13-Jan-06,2006,36,2,1,0,2,1,1,FALSE,FALSE,,31-Mar-06,20000,0,P I F,0,20000,10000,44,low,Retail trade
9671264005,MORE THAN A CARPENTER SERVICES,PLAINFIELD,IN,46168,INNOVATIVE BANK,CA,235510,13-Jan-06,2006,84,1,1,1,1,1,1,FALSE,FALSE,,31-Jan-06,20000,0,P I F,0,20000,10000,23,low,Construction
9672464008,PACIFIC DISTRIBUTION,AUBURN,WA,98092,BOEING EMPL CU,WA,454210,13-Jan-06,2006,67,2,2,2,0,1,1,FALSE,FALSE,7-Mar-08,28-Feb-06,20000,0,CHGOFF,17820,20000,10000,45,high,Retail trade
9675513009,EMT ELECTRICAL,MINOOKA,IL,60447,"PNC BANK, NATIONAL ASSOCIATION",IL,235310,21-Oct-96,1997,60,1,2,0,0,1,0,FALSE,TRUE,,30-Nov-97,20000,0,P I F,0,20000,16000,23,low,Construction
9677633003,COUNTRY STORE & CAFE,AMIDON,ND,58620,DAKOTA WESTERN BANK,ND,0,21-Oct-96,1997,74,2,1,0,0,1,0,FALSE,TRUE,14-Jun-06,31-May-97,20000,0,CHGOFF,4301,20000,16000,0,high,
9679653002,KCF VENDING,NORTH CHARLESTON,SC,29420,WELLS FARGO BANK NATL ASSOC,SD,454210,22-Oct-96,1997,60,2,2,0,0,1,0,FALSE,TRUE,,30-Sep-02,20000,0,P I F,0,20000,16000,45,low,Retail trade
9681683010,"AGS ENVIROMENTAL SERVICES, INC",SOUTHFIELD,MI,48075,WELLS FARGO BANK NATL ASSOC,CA,0,22-Oct-96,1997,60,6,1,0,0,1,0,TRUE,FALSE,,30-Jun-97,20000,0,P I F,0,20000,10000,0,low,
9684483004,ROCKY MTN. HARDWOOD FLOORS,EAGLE,CO,81631,ALPINE BANK,CO,235520,23-Oct-96,1997,60,3,2,0,0,1,0,FALSE,TRUE,,31-Jan-97,20000,0,P I F,0,40000,32000,23,low,Construction
9685933010,MEMORY LANE PHOTOS,BONHAM,TX,75418,LEGEND BANK NATL ASSOC,TX,0,23-Oct-96,1997,60,2,2,0,0,1,0,FALSE,TRUE,,31-Dec-97,20000,0,P I F,0,20000,16000,0,low,
9690203008,"NEW MILLENIUM CAFE, INC.",FORT LAUDERDALE,FL,33308,BANK OF AMERICA NATL ASSOC,GA,0,24-Oct-96,1997,120,4,2,0,0,1,0,FALSE,FALSE,,28-Feb-97,20000,0,P I F,0,20000,10000,0,low,
9693443005,IMAGE SALON & SPA,FLEMINGTON,NJ,8822,WELLS FARGO BANK NATL ASSOC,SD,0,25-Oct-96,1997,96,5,2,0,0,1,0,FALSE,TRUE,,27-Dec-96,20000,0,P I F,0,65000,52000,0,low,
9694403006,RC CONSTRUCTION CO.,SALEM,OR,97303,WELLS FARGO BANK NATL ASSOC,SD,0,25-Oct-96,1997,60,2,1,0,0,1,0,TRUE,FALSE,,30-Jun-97,20000,0,P I F,0,20000,10000,0,low,
9699694007,ENGRAVABLE MEMORIES,POUGHKEEPSIE,NY,12601,RHINEBECK BANK,NY,541340,17-Jan-06,2006,60,1,1,1,1,1,1,FALSE,FALSE,,31-Jan-06,20000,0,P I F,0,20000,10000,54,low,"Professional, scientific, and technical services"
9703743006,ALL STATE LOCKSMITHS,JOHNSTON,RI,2919,CITIZENS BANK NATL ASSOC,RI,0,28-Oct-96,1997,84,5,2,0,0,1,0,FALSE,TRUE,,31-Dec-96,20000,0,P I F,0,20000,16000,0,low,
9705943000,"KINGFISHER ENTERPRISES, INC.",KINGSTOWN,WA,2852,CITIZENS BANK NATL ASSOC,RI,0,29-Oct-96,1997,12,3,1,0,0,1,0,FALSE,FALSE,,30-Nov-98,20000,0,P I F,0,20000,10000,0,low,
9707303000,GREENAWALT CONSTRUCTION CO.,ELIZABETH,PA,15037,"PNC BANK, NATIONAL ASSOCIATION",DE,233210,29-Oct-96,1997,12,2,1,0,0,1,0,FALSE,FALSE,,31-Mar-97,20000,0,P I F,0,20000,16000,23,low,Construction
9707304007,HOME ACCESS REAL ESTATE,PALM BAY,FL,32907,JPMORGAN CHASE BANK NATL ASSOC,NV,531210,18-Jan-06,2006,84,1,1,3,1,1,1,TRUE,FALSE,,31-Jan-06,20000,0,P I F,0,20000,10000,53,low,Real estate and rental and leasing
9709883003,"QUALITY CARPETS, INC.",FORT WAYNE,IN,46809,WELLS FARGO BANK NATL ASSOC,IN,442210,30-Oct-96,1997,8,2,2,0,0,1,0,FALSE,TRUE,26-Jun-01,31-Jan-97,20000,0,CHGOFF,9247,20000,16000,44,high,Retail trade
9710703003,"CLARKE, DEMAS & BAKER, LLC",BURLINGTON,VT,5402,KEYBANK NATIONAL ASSOCIATION,VT,541110,30-Oct-96,1997,60,19,1,0,0,1,0,FALSE,FALSE,,31-May-01,20000,0,P I F,0,20000,10000,54,low,"Professional, scientific, and technical services"
9711303003,"PALMBERG, JASON W.",ASTORIA,OR,97103,COLUMBIA ST. BANK D/B/A BK OF,OR,114111,30-Oct-96,1997,48,2,2,0,0,1,0,FALSE,TRUE,,31-Mar-97,20000,0,P I F,0,20000,16000,11,low,"Agriculture, forestry, fishing and hunting"
9715283007,MING AUTO BEAUTY CENTER,SPRINGFIELD,MO,65807,U.S. BANK NATIONAL ASSOCIATION,OH,811192,31-Oct-96,1997,60,7,1,0,0,53585,0,FALSE,TRUE,,31-Dec-96,20000,0,P I F,0,20000,16000,81,low,Other services (except public administration)
9715513004,ROOFING UNLIMITED,SAN DIEGO,CA,92110,UMPQUA BANK,OR,235610,31-Oct-96,1997,84,1,1,0,0,1,0,FALSE,TRUE,,30-Nov-96,20000,0,P I F,0,25000,20000,23,low,Construction
9716233005,BOUQUETS,DENVER,CO,80202,COBIZ BANK,CO,453110,31-Oct-96,1997,36,14,1,0,0,1,0,FALSE,TRUE,,31-Jan-97,20000,0,P I F,0,20000,16000,45,low,Retail trade
9717084006,RANCHO DEL ORO VETERINARY HOSP,OCEANSIDE,CA,92056,MUFG UNION BANK NATL ASSOC,CA,541940,19-Jan-06,2006,36,10,1,0,0,1,1,FALSE,FALSE,,28-Feb-06,20000,0,P I F,0,20000,10000,54,low,"Professional, scientific, and technical services"
9717853005,A-1 FLOORING,SAPULPA,OK,74063,BANCFIRST,OK,235520,31-Oct-96,1997,64,5,2,0,0,1,0,FALSE,TRUE,,31-Dec-96,20000,0,P I F,0,20000,16000,23,low,Construction
9717934001,PRECISION FINANCIAL SOLUTIONS,UNDERWOOD,IN,47177,"PNC BANK, NATIONAL ASSOCIATION",DE,541219,19-Jan-06,2006,2,4,1,0,4,1,1,TRUE,FALSE,10-Dec-07,31-Jan-06,20000,0,CHGOFF,19835,20000,10000,54,high,"Professional, scientific, and technical services"
9718054010,CONSTRUCTION AND ENVIRONMENTAL,EL PASO,TX,79901,UNITED BK OF EL PASO DEL NORTE,TX,541620,19-Jan-06,2006,60,16,1,0,0,1,1,FALSE,FALSE,,28-Feb-06,20000,0,P I F,0,20000,15000,54,low,"Professional, scientific, and technical services"
9718313009,"ABSOLUTE AUTO BODY/SALES, INC.",GRAND FORKS,ND,58208,AMERICAN FEDERAL BANK,ND,811121,31-Oct-96,1997,18,5,1,0,0,1,0,FALSE,TRUE,31-Jul-02,31-Dec-96,20000,0,CHGOFF,2012,20000,16000,81,high,Other services (except public administration)
9721953003,WALLPAPER WORLD,CHANDLER,AZ,85224,WELLS FARGO BANK NATL ASSOC,SD,0,1-Nov-96,1997,11,4,1,0,0,1,0,FALSE,FALSE,1-Mar-01,31-Dec-96,20000,0,CHGOFF,19277,20000,10000,0,high,
9722093007,STEVE'S AUTO AND MARINE,ARIEL,WA,98603,WELLS FARGO BANK NATL ASSOC,SD,0,1-Nov-96,1997,60,1,1,0,0,1,0,TRUE,FALSE,,31-Dec-96,20000,0,P I F,0,20000,10000,0,low,
9724503003,STRAWBERRY PATCH RESTAURANT,LYONS FALLS,NY,13660,COMMUNITY BANK NATL ASSOC,NY,0,4-Nov-96,1997,120,6,2,0,0,1,0,FALSE,TRUE,,31-Jan-97,20000,0,P I F,0,20000,16000,0,low,
9725923002,HIGHLAND PARK COUNTRY CLUB,DES MOINES,IA,50313,WELLS FARGO BANK NATL ASSOC,SD,722410,4-Nov-96,1997,60,4,1,0,0,1,0,FALSE,FALSE,,31-Mar-97,20000,0,P I F,0,20000,10000,72,low,Accommodation and food services 
9726173004,PORTA POTTIES,N. LAS VEGAS,NV,89030,NEVADA STATE BANK,NV,0,4-Nov-96,1997,60,5,1,0,0,1,0,FALSE,TRUE,,30-Apr-97,20000,0,P I F,0,20000,16000,0,low,
9727314007,WELLNESS & REHABILITATION PHYS,WATSONVILLE,CA,95076,SANTA CRUZ COMMUNITY CU,CA,621340,20-Jan-06,2006,48,2,1,0,2,1,2,FALSE,FALSE,,31-Jan-06,20000,0,P I F,0,20000,10000,62,low,Health care and social assistance
9728003003,SHERWOOD FOREST FLORIST,SEATTLE,WA,98109,BANNER BANK,WA,453110,4-Nov-96,1997,60,2,2,0,0,1,0,FALSE,TRUE,,31-Jan-97,20000,0,P I F,0,20000,16000,45,low,Retail trade
9728323005,THE CLOSET FACTORY,MECHANICSVILLE,VA,23111,BANK OF AMERICA NATL ASSOC,NC,235510,4-Nov-96,1997,12,8,2,0,0,17584,0,TRUE,FALSE,,31-Jul-98,20000,0,P I F,0,20000,10000,23,low,Construction
9728324001,EXOTIC FLAVORS,OMAHA,NE,68154,GREAT WESTERN BANK,SD,722110,20-Jan-06,2006,21,20,1,0,20,1,1,FALSE,FALSE,13-Nov-06,31-Jan-06,20000,0,CHGOFF,20000,20000,15000,72,high,Accommodation and food services 
9730253007,DOREEN REJAN COMPANY,WARWICK,RI,2886,CITIZENS BANK NATL ASSOC,RI,339911,5-Nov-96,1997,9,3,1,0,0,1,0,TRUE,FALSE,,30-Nov-96,20000,0,P I F,0,20000,10000,33,low,Manufacturing
9731033002,THE DANCE ACADEMY,BALLWIN,MO,63021,MERAMEC VALLEY BANK,MO,0,5-Nov-96,1997,60,2,1,0,0,1,0,FALSE,TRUE,,31-Jul-97,20000,0,P I F,0,20000,16000,0,low,
9731753006,LEYBA MANUFACTURING,ANTLERS,OK,74523,SECURITY FIRST NATIONAL BANK,OK,336212,6-Nov-96,1997,41,4,2,0,0,1,0,FALSE,TRUE,8-Mar-99,31-Dec-96,20000,0,CHGOFF,16706,20000,16000,33,high,Manufacturing
9737433005,JEFFREY R. HILPERT,DOVER,NH,3820,BANK OF AMERICA NATL ASSOC,CT,0,7-Nov-96,1997,60,1,2,0,0,1,0,FALSE,TRUE,,31-Jul-97,20000,0,P I F,0,20000,16000,0,low,
9738323009,OPTICAL ALTERNATIVE,OVERLAND PARK,KS,66209,METCALF BANK,KS,0,7-Nov-96,1997,60,1,2,0,0,1,0,FALSE,TRUE,,30-Nov-96,20000,0,P I F,0,20000,16000,0,low,
9741653004,BODY SHOP GYM,ONEONTA,NY,13820,COMMUNITY BANK NATL ASSOC,NY,541213,8-Nov-96,1997,60,9,2,0,0,1,0,FALSE,TRUE,,31-Dec-96,20000,0,P I F,0,20000,16000,54,low,"Professional, scientific, and technical services"
9747353009,21ST CENTURY VENDING,NEWPORT NEWS,VA,23602,OLD POINT NATL BK OF PHOEBUS,VA,454210,12-Nov-96,1997,60,2,1,0,0,1,0,FALSE,TRUE,,22-Nov-96,20000,0,P I F,0,20000,16000,45,low,Retail trade
9748003000,DZIGN FX,SUMNER,IA,50674,NORTHEAST SECURITY BANK,IA,0,12-Nov-96,1997,84,1,2,0,0,1,0,FALSE,TRUE,,31-Jan-97,20000,0,P I F,0,20000,16000,0,low,
9754203008,THE CRYSTRAL WEDDING PLACE,ABILENE,TX,79603,COMPASS BANK,TX,0,14-Nov-96,1997,48,3,2,0,0,1,0,FALSE,TRUE,,31-Jan-97,20000,0,P I F,0,20000,16000,0,low,
9755363001,"HEALTH FOODS, ETC.",CHARLESTON,WV,25302,BRANCH BK. & TR CO,NC,0,14-Nov-96,1997,60,6,1,0,0,1,0,FALSE,TRUE,,31-Jan-97,20000,0,P I F,0,20000,16000,0,low,
9761634002,LEE'S B-B-Q,RIPLEY,TN,38063,BBCN BANK,CA,722110,24-Jan-06,2006,12,2,1,1,2,1,2,FALSE,FALSE,10-Feb-12,31-Jan-06,20000,0,P I F,5590,20000,17000,72,low,Accommodation and food services 
9769653006,KUMUGWI HOUSE,SEATTLE,WA,98166,BANK OF AMERICA NATL ASSOC,NC,0,18-Nov-96,1997,60,2,2,0,0,1,0,FALSE,TRUE,,31-Dec-97,20000,0,P I F,0,20000,16000,0,low,
9770104009,LIBERTY TAX SERVICE,PITTSBURGH,PA,15205,ENTERPRISE BANK,PA,541213,25-Jan-06,2006,60,10,1,2,0,1,1,FALSE,FALSE,,28-Feb-06,20000,0,P I F,0,20000,10000,54,low,"Professional, scientific, and technical services"
9773604001,A-1 SEPTIC SERVICE,ROLLA,ND,58367,CITIZENS COMMUNITY CU,ND,238910,25-Jan-06,2006,12,3,1,3,6,1,2,TRUE,FALSE,,31-Jan-07,20000,0,P I F,0,20000,10000,23,low,Construction
9773833004,A.J.'S TRACTOR AND COMBINE REP,DYSART,IA,52224,FARMERS SAVINGS BANK & TRUST,IA,0,19-Nov-96,1997,72,2,2,0,0,1,0,FALSE,TRUE,,31-Jan-97,20000,0,P I F,0,20000,16000,0,low,
9781603005,ARTISTIC GLASS CO.,QUEENS,NY,11421,JPMORGAN CHASE BANK NATL ASSOC,IL,235920,21-Nov-96,1997,60,1,1,0,0,1,0,FALSE,FALSE,,30-Apr-97,20000,0,P I F,0,20000,10000,23,low,Construction
9781623000,TRAVIS TINT,WENATCHEE,WA,98801,WELLS FARGO BANK NATL ASSOC,SD,0,21-Nov-96,1997,36,5,1,0,0,1,0,FALSE,TRUE,,31-Mar-97,20000,0,P I F,0,20000,16000,0,low,
9781653009,LOVING CARE,HOMETOWN,WV,25109,THE HUNTINGTON NATIONAL BANK,WV,0,22-Nov-96,1997,120,4,2,0,0,1,0,FALSE,TRUE,,31-Mar-97,20000,0,P I F,0,20000,16000,0,low,
9783073005,HEAVENLY CREATIONS HAIR SALON,WESTMINSTER,MD,21157,BRANCH BK. & TR CO,MD,0,22-Nov-96,1997,84,1,2,0,0,1,0,FALSE,TRUE,,30-Jun-97,20000,0,P I F,0,20000,16000,0,low,
9786744007,J & J MATTINGLY,HENDERSON,NV,89015,JPMORGAN CHASE BANK NATL ASSOC,IL,531210,26-Jan-06,2006,20,1,1,2,1,1,2,FALSE,FALSE,13-Jun-08,31-Jan-06,20000,0,CHGOFF,15908,20000,10000,53,high,Real estate and rental and leasing
9787743002,STAY AND PLAY DAYCARE,KOKOMO,IN,46901,BMO HARRIS BK NATL ASSOC,IL,624410,25-Nov-96,1997,36,2,2,0,0,1,0,FALSE,TRUE,,31-Jan-97,20000,0,P I F,0,20000,16000,62,low,Health care and social assistance
9790693001,MT ASHLAND INN,ASHLAND,OR,97520,JPMORGAN CHASE BANK NATL ASSOC,OR,0,25-Nov-96,1997,63,4,1,0,0,1,0,FALSE,TRUE,,31-Jan-97,20000,0,P I F,0,20000,16000,0,low,
9793724010,MIDWAY WELL SERVICE LLC,MARION,IA,52302,CEDAR RAPIDS BK & TR CO,IA,333911,27-Jan-06,2006,39,1,2,0,1,1,1,TRUE,FALSE,,28-Feb-06,20000,0,P I F,0,20000,10000,33,low,Manufacturing
9796224008,LILY & FERN LLC,HAILEY,ID,83333,MOUNTAIN W. BANK A DIVISION OF,ID,561730,27-Jan-06,2006,60,2,1,0,2,1,1,FALSE,FALSE,,28-Feb-06,20000,0,P I F,0,20000,17000,56,low,Administrative/support & waste management/remediation Service
9796483009,"OFF THE WALL ADVERTISING, INC.",FARGO,ND,58106,BANK OF THE WEST,ND,0,26-Nov-96,1997,60,2,1,0,0,1,0,FALSE,TRUE,,31-Jan-97,20000,0,P I F,0,20000,16000,0,low,
9797583006,ENERGY ADVANTAGE,BUFFALO,NY,14225,HSBC BK USA NATL ASSOC,NY,0,27-Nov-96,1997,60,4,1,0,0,1,0,FALSE,FALSE,,31-May-97,20000,0,P I F,0,20000,16000,0,low,
9798424002,KENT'S LAWN SERVICE,EUNICE,LA,70535,TRI-PARISH BANK,LA,561730,27-Jan-06,2006,60,2,2,2,0,1,0,FALSE,FALSE,,31-Jan-06,20000,0,P I F,0,20000,17000,56,low,Administrative/support & waste management/remediation Service
9798984006,BROOK LANE FARMS,GLENVIEW,IL,60025,BBCN BANK,CA,812990,27-Jan-06,2006,54,1,1,0,1,1,1,FALSE,FALSE,28-Aug-08,31-Jan-06,20000,0,CHGOFF,16196,20000,10000,81,high,Other services (except public administration)
9799263008,"TPA PHYSICS CONSLTG SERVS,INC.",PENFIELD,NY,14526,FIRST NIAGARA BANK NATL ASSOC,NY,0,27-Nov-96,1997,60,3,1,0,0,1,0,FALSE,FALSE,,31-Jul-97,20000,0,P I F,0,20000,16000,0,low,
9802423010,"ATWELLS AVENUE TANNING, INC.",PROVIDENCE,RI,2903,SANTANDER BANK NATL ASSOC,DE,0,29-Nov-96,1997,60,3,1,0,0,1,0,FALSE,TRUE,,31-Jan-97,20000,0,P I F,0,20000,16000,0,low,
9802993006,"MONTGOMERY MARINE REPAIR, INC.",MONTGOMERY,AL,36110,USAMERIBANK,FL,0,29-Nov-96,1997,60,4,1,0,0,1,0,FALSE,TRUE,,31-Oct-97,20000,0,P I F,0,20000,16000,0,low,
9803643008,"FIRE PROTECTION SERVICES, INC.",OWATONNA,MN,55060,WELLS FARGO BANK NATL ASSOC,MN,0,29-Nov-96,1997,60,2,2,0,0,1,0,FALSE,FALSE,,31-Jan-97,20000,0,P I F,0,20000,16000,0,low,
9803723008,ESPRESSO DELIZIOSO CAFE,SPOKANE,WA,99201,WELLS FARGO BANK NATL ASSOC,SD,0,29-Nov-96,1997,11,22,1,0,0,1,0,TRUE,FALSE,20-Nov-02,31-Dec-96,20000,0,CHGOFF,16084,20000,10000,0,high,
9805213001,NATIONWIDE COMMUNICATIONS,DEPEW,NY,14043,HSBC BK USA NATL ASSOC,NY,0,2-Dec-96,1997,60,1,2,0,0,1,0,FALSE,TRUE,,28-Feb-97,20000,0,P I F,0,20000,16000,0,low,
9806543008,ENNING STORE,ENNING,SD,57737,FIRST INTERSTATE BANK,SD,0,2-Dec-96,1997,84,2,1,0,0,1,0,FALSE,TRUE,,28-Feb-97,20000,0,P I F,0,20000,16000,0,low,
9806803003,PET STYLES,TAZEWELL,VA,24630,BRANCH BK. & TR CO,VA,0,2-Dec-96,1997,132,2,1,0,0,1,0,FALSE,TRUE,,6-Dec-96,20000,0,P I F,0,20000,16000,0,low,
9806823009,J. T. & E. ENTERPRISES,SWANSEA,IL,62226,BANK OF AMERICA NATL ASSOC,MO,541512,2-Dec-96,1997,60,2,1,0,0,1,0,FALSE,FALSE,,30-Sep-02,20000,0,P I F,0,20000,10000,54,low,"Professional, scientific, and technical services"
9807023007,BONGIORNO'S,WAITSFIELD,VT,5673,NORTHFIELD SAVINGS BANK,VT,0,3-Dec-96,1997,36,2,2,0,0,1,0,FALSE,TRUE,,31-Jan-97,20000,0,P I F,0,20000,16000,0,low,
9807123002,"ULTIMATE PHYSIQUE, INC.",LOCKPORT,NY,14094,FIRST NIAGARA BANK NATL ASSOC,NY,713940,3-Dec-96,1997,36,2,2,0,0,1,0,FALSE,TRUE,,28-Feb-97,20000,0,P I F,0,20000,16000,71,low,"Arts, entertainment, and recreation"
9807703010,SIGN SOURCE,HUTCHINSON,KS,67504,"BANK SNB, NATIONAL ASSOCIATION",KS,421990,3-Dec-96,1997,84,1,2,0,0,1,0,FALSE,TRUE,,31-Jan-97,20000,0,P I F,0,20000,16000,42,low,Wholesale trade
9810003002,"DOLLAR DAYS PLUS 1-2-3, INC.",CHICAGO,IL,60639,BANCO POPULAR NORTH AMERICA,IL,452990,3-Dec-96,1997,60,1,1,0,0,1,0,FALSE,TRUE,,31-Oct-97,20000,0,P I F,0,20000,16000,45,low,Retail trade
9811823003,WETER'S SPORT EQUIPMENT & POLI,SPRINGFIELD,MO,65806,EMPIRE BANK,MO,0,4-Dec-96,1997,48,2,2,0,0,1,0,FALSE,TRUE,,28-Feb-97,20000,0,P I F,0,20000,16000,0,low,
9813913010,ELEGANT NAILS,DAYTON,OH,45459,FIFTH THIRD BANK,OH,0,5-Dec-96,1997,60,12,1,0,0,1,0,FALSE,TRUE,,28-Feb-97,20000,0,P I F,0,20000,16000,0,low,
9814124007,PADAIN'S SPECIALTY MEATS LLC,DENHAM SPRINGS,LA,70706,WHITNEY BANK,MS,445210,30-Jan-06,2006,60,5,1,2,5,1,0,FALSE,FALSE,,30-Sep-06,20000,0,P I F,0,20000,17000,44,low,Retail trade
9814543008,STAR PLEATING CORP,BROOKLYN,NY,11211,JPMORGAN CHASE BANK NATL ASSOC,IL,0,5-Dec-96,1997,36,20,1,0,0,1,0,FALSE,FALSE,,30-Jun-97,20000,0,P I F,0,20000,10000,0,low,
9815903000,DAHL CABINET & MILLWORK,OMAHA,NE,68136,WELLS FARGO BANK NATL ASSOC,NE,337110,5-Dec-96,1997,60,1,2,0,0,1,0,FALSE,TRUE,,31-Dec-96,20000,0,P I F,0,20000,16000,33,low,Manufacturing
9816264007,PATHWAYS TO HEALING,KATY,TX,77450,BBCN BANK,CA,446191,30-Jan-06,2006,84,1,1,2,1,1,1,FALSE,FALSE,,28-Feb-06,20000,0,P I F,0,20000,10000,44,low,Retail trade
9818753009,BLUE MOON SORBET,QUECHEE,VT,5059,"LAKE SUNAPEE BANK, FSB",VT,311520,6-Dec-96,1997,84,3,1,0,0,1,0,FALSE,FALSE,,30-Apr-97,20000,0,P I F,0,20000,16000,31,low,Manufacturing
9819403000,RED'S BARBER SHOP,HOUSTON,TX,77002,BANK OF AMERICA NATL ASSOC,TX,0,6-Dec-96,1997,84,3,1,0,0,1,0,FALSE,FALSE,,31-May-97,20000,0,P I F,0,20000,10000,0,low,
9820413000,"BALL & SARGENT, P.C.",WORCESTER,MA,1608,BANK OF AMERICA NATL ASSOC,MA,541110,6-Dec-96,1997,12,5,1,0,0,1,0,TRUE,FALSE,,31-Jul-00,20000,0,P I F,0,20000,10000,54,low,"Professional, scientific, and technical services"
9823963007,MICHAEL E. BARBER ATTORNEY AT,SACRAMENTO,CA,95822,WELLS FARGO BANK NATL ASSOC,SD,541110,9-Dec-96,1997,84,5,1,0,0,1,0,TRUE,FALSE,,31-Dec-96,20000,0,P I F,0,20000,10000,54,low,"Professional, scientific, and technical services"
9826363010,"GROWIN' KIDS, INC.",FLATWOODS,KY,41139,FIRST & PEOPLES BK & TR CO,KY,448130,10-Dec-96,1997,120,1,2,0,0,1,0,FALSE,TRUE,,31-Mar-97,20000,0,P I F,0,20000,16000,44,low,Retail trade
9826403009,"LOVELY LEATHERS, INC.",OMAHA,NE,68104,FIRST NATIONAL BANK OF OMAHA,NE,812320,10-Dec-96,1997,60,3,2,0,0,1,0,FALSE,TRUE,,31-May-97,20000,0,P I F,0,20000,16000,81,low,Other services (except public administration)
9827663008,CORNERSTONE VIDEO PRODUCTIONS,BAPTIST VALLEY,VA,24630,BRANCH BK. & TR CO,VA,512110,10-Dec-96,1997,84,2,2,0,0,1,0,FALSE,TRUE,,17-Dec-96,20000,0,P I F,0,20000,16000,51,low,Information
9828303007,FALLS RIVER INN,BERNARDSTON,MA,1337,GREENFIELD SAVINGS BANK,MA,0,10-Dec-96,1997,60,19,1,0,0,1,0,FALSE,TRUE,,31-Mar-97,20000,0,P I F,0,20000,16000,0,low,
9830623008,MASTER CLEANERS,HIGHLAND PARK,IL,60035,BBCN BANK,IL,812320,11-Dec-96,1997,60,3,2,0,0,1,0,FALSE,TRUE,,28-Feb-97,20000,0,P I F,0,20000,16000,81,low,Other services (except public administration)
9831614003,GOLD CANYON EYE CARE PC,TEMPE,AZ,85282,BMO HARRIS BK NATL ASSOC,IL,621320,1-Feb-06,2006,60,11,2,1,11,1,1,FALSE,FALSE,,28-Feb-06,20000,0,P I F,0,20000,10000,62,low,Health care and social assistance
9831933009,ALFRED LONG CERTIFIED SHORTHAN,TORRANCE,CA,90503,OPUS BANK,CA,0,11-Dec-96,1997,84,4,1,0,0,1,0,FALSE,TRUE,,31-Jan-97,20000,0,P I F,0,20000,16000,0,low,
9836933008,LA GRAPHICS ADVERTISING & DESI,EDDYVILLE,KY,42038,BRANCH BK. & TR CO,KY,0,12-Dec-96,1997,96,1,1,0,0,1,0,FALSE,TRUE,,28-Feb-97,20000,0,P I F,0,20000,16000,0,low,
9839703004,THE BEEHIVE,CARRBOW,NC,27510,SUNTRUST BANK,GA,0,13-Dec-96,1997,36,1,2,0,0,1,0,FALSE,TRUE,,31-Oct-97,20000,0,P I F,0,20000,16000,0,low,
9843174010,GENESAIL INC,BOISE (CORPORATE NAME BOISE CI,ID,83705,MOUNTAIN W. BANK A DIVISION OF,ID,812111,2-Feb-06,2006,84,5,1,0,5,77174,1,TRUE,FALSE,,31-Jul-06,20000,0,P I F,0,20000,10000,81,low,Other services (except public administration)
9846574007,R D S MECHANICAL INC,OZARK,AL,36360,BBCN BANK,CA,441310,2-Feb-06,2006,23,3,1,2,3,1,2,FALSE,FALSE,19-Apr-11,28-Feb-06,20000,0,CHGOFF,9090,20000,17000,44,high,Retail trade
9847394003,MR APPLIANCE,BAYPORT,NY,11705,"CITIBANK, N.A.",NY,811412,2-Feb-06,2006,60,4,1,0,4,55815,1,FALSE,FALSE,,28-Feb-06,20000,0,P I F,0,20000,10000,81,low,Other services (except public administration)
9847583005,DBA ULSTERNET,TIVOLI,NY,12583,MANUFACTURERS & TRADERS TR CO,NY,0,17-Dec-96,1997,62,2,2,0,0,1,0,FALSE,TRUE,,13-Jan-97,20000,0,P I F,0,20000,16000,0,low,
9849093004,"JAREX, INC",KINGS PARK,NY,11754,"CITIBANK, N.A.",NY,811111,17-Dec-96,1997,60,1,2,0,0,1,0,FALSE,TRUE,,28-Feb-98,20000,0,P I F,0,20000,16000,81,low,Other services (except public administration)
9849473000,ABIGAIL BOTTOMS. INC.,HOLBROOK,NY,11741,BANK OF AMERICA NATL ASSOC,NY,624410,17-Dec-96,1997,62,18,1,0,0,1,0,FALSE,TRUE,,10-Jan-97,20000,0,P I F,0,20000,16000,62,low,Health care and social assistance
9849523002,ROWLEY'S PORCELAIN REFINISHING,LAKELAND,FL,33811,BRANCH BK. & TR CO,FL,0,17-Dec-96,1997,60,1,1,0,0,1,0,FALSE,TRUE,,31-Dec-97,20000,0,P I F,0,20000,16000,0,low,
9851833000,MERLE NORMAN COSMETICS,HIAWASSEE,GA,30546,COMMUNITY & SOUTHERN BANK,GA,0,18-Dec-96,1997,84,1,2,0,0,59450,0,FALSE,TRUE,,31-Mar-98,20000,0,P I F,0,20000,16000,0,low,
9852003000,MCATEE ELECTRIC,LAS VEGAS,NV,89117,BANK OF THE WEST,CA,235310,18-Dec-96,1997,72,4,2,0,0,1,0,FALSE,TRUE,,31-Jan-97,20000,0,P I F,0,20000,16000,23,low,Construction
9856463006,COURT HOUSE PERTOLEUM INC,SWAINTON,NJ,8230,BANK OF AMERICA NATL ASSOC,NY,422440,19-Dec-96,1997,60,11,1,0,0,1,0,FALSE,TRUE,,7-Feb-97,20000,0,P I F,0,20000,16000,42,low,Wholesale trade
9859344007,CHIA'S PRODUCTIONS INC,CHICAGO,IL,60625,BBCN BANK,CA,512199,3-Feb-06,2006,58,5,1,2,5,1,1,FALSE,FALSE,15-May-08,28-Feb-06,20000,0,CHGOFF,18464,20000,17000,51,high,Information
9859454005,NORTON AUDITS INC,LEXINGTON,SC,29072,BBCN BANK,CA,541219,3-Feb-06,2006,84,4,1,2,4,1,1,FALSE,FALSE,,28-Feb-06,20000,0,P I F,0,20000,17000,54,low,"Professional, scientific, and technical services"
9859534005,WALKENSHAW FIXTURES LLC,JOPLIN,MO,64801,SOUTHWEST MISSOURI BANK,MO,337110,3-Feb-06,2006,24,3,1,0,3,1,1,FALSE,FALSE,,31-Mar-06,20000,0,P I F,0,20000,10000,33,low,Manufacturing
9860093005,"NAILIZE, INC.",BOCA RATON,FL,33434,SUNTRUST BANK,GA,0,20-Dec-96,1997,48,4,1,0,0,1,0,FALSE,TRUE,,30-Apr-97,20000,0,P I F,0,20000,16000,0,low,
9861334003,BLUE STONE PHOTOGRAPHY,GRAND FORKS,ND,58201,BREMER BANK NATL ASSOC,ND,541921,3-Feb-06,2006,108,2,1,0,2,1,1,FALSE,FALSE,,28-Feb-06,20000,0,P I F,0,20000,10000,54,low,"Professional, scientific, and technical services"
9863383004,"BLUE WAVE CONSULTANTS, INC.",LAKE WORTH,FL,33467,WELLS FARGO BANK NATL ASSOC,SD,0,23-Dec-96,1997,84,2,2,0,0,1,0,FALSE,TRUE,,31-Jan-97,20000,0,P I F,0,20000,16000,0,low,
9863413000,FIVE-STAR CENTRAL,WICHITA,KS,67275,INTRUST BANK NATL ASSOC,KS,0,23-Dec-96,1997,9,36,2,0,0,1,0,FALSE,TRUE,,31-Jul-97,20000,0,P I F,0,20000,16000,0,low,
9864343005,"LAVERNE C MONTEITH, CPA",ROSWELL,NM,88201,WASHINGTON FEDERAL NATL ASSOC,NM,0,24-Dec-96,1997,60,2,2,0,0,1,0,FALSE,TRUE,,30-Apr-97,20000,0,P I F,0,20000,16000,0,low,
9866183009,"NORKO'S PERSONALIZED BASEBALL,",MILFORD,CT,6460,JPMORGAN CHASE BANK NATL ASSOC,IL,0,26-Dec-96,1997,60,3,1,0,0,1,0,FALSE,FALSE,,30-Jun-97,20000,0,P I F,0,20000,10000,0,low,
9867233002,PACIFIC PARADISE,ARCATA,CA,95521,UMPQUA BANK,CA,453220,26-Dec-96,1997,60,4,1,0,0,1,0,FALSE,TRUE,,31-Mar-97,20000,0,P I F,0,20000,16000,45,low,Retail trade
9868444004,TOWN & COUNTRY FLORAL,LEEDS,ND,58346,FIRST STATE BANK OF CANDO,ND,453110,3-Feb-06,2006,240,1,1,0,1,1,2,FALSE,FALSE,,31-Mar-06,20000,0,P I F,0,20000,10000,45,low,Retail trade
9869083009,THREE COUNTIES,NEW YORK,NY,10463,JPMORGAN CHASE BANK NATL ASSOC,IL,722410,27-Dec-96,1997,60,3,1,0,0,1,0,FALSE,FALSE,,30-Jun-97,20000,0,P I F,0,35000,17500,72,low,Accommodation and food services 
9869493003,WIND DANCER UNLIMITED,SEASIDE,OR,97138,WELLS FARGO BANK NATL ASSOC,SD,451120,27-Dec-96,1997,60,5,1,0,0,1,0,TRUE,FALSE,,30-Jun-97,20000,0,P I F,0,20000,10000,45,low,Retail trade
9869623005,GAME DAY ATHLETICS COMPANY,MANCHESTER,ME,4351,THE BANK OF MAINE,ME,421910,30-Dec-96,1997,60,2,2,0,0,1,0,FALSE,TRUE,,31-Jan-97,20000,0,P I F,0,20000,16000,42,low,Wholesale trade
9869773004,DR. KENNETH TRIPP,KNIGHTDALE,NC,27545,SUNTRUST BANK,GA,621210,30-Dec-96,1997,60,1,1,0,0,1,0,FALSE,TRUE,,30-Sep-97,20000,0,P I F,0,20000,16000,62,low,Health care and social assistance
9871743005,"DECORATIVE CONCRETE, INC.",WARWICK,RI,2886,BANK RHODE ISLAND,RI,235410,30-Dec-96,1997,24,4,1,0,0,1,0,FALSE,TRUE,,28-Feb-97,20000,0,P I F,0,20000,16000,23,low,Construction
9872023003,OLD WORLD DELI & PIZZA,WORCESTER,MA,1608,BAY STATE SAVINGS BANK,MA,0,31-Dec-96,1997,60,5,2,0,0,1,0,FALSE,TRUE,,28-Feb-97,20000,0,P I F,0,20000,16000,0,low,
9872193008,AMERICAN OAK WHOLESALE,MARSHFIELD,MO,65706,METROPOLITAN NATIONAL BANK,MO,0,31-Dec-96,1997,48,8,2,0,0,1,0,FALSE,TRUE,,28-Feb-97,20000,0,P I F,0,20000,16000,0,low,
9876793008,METROPOLITAN SPORTS BAR,BROOKLYN,NY,11211,JPMORGAN CHASE BANK NATL ASSOC,IL,722410,3-Jan-97,1997,24,1,1,0,0,1,0,FALSE,FALSE,,30-Jun-97,20000,0,P I F,0,20000,10000,72,low,Accommodation and food services 
9877263004,"C & O AUTO, INC.",DES MOINES,IA,50313,WEST BANK,IA,441120,3-Jan-97,1997,36,3,2,0,0,1,0,FALSE,TRUE,,31-Jan-97,20000,0,P I F,0,20000,16000,44,low,Retail trade
9878423006,"HENRY'S LAUNDRY, LINEN",GREENSBURG,PA,15601,COMMERCIAL BANK & TRUST OF PA,PA,0,6-Jan-97,1997,60,2,1,0,0,1,0,FALSE,TRUE,,31-Jan-97,20000,0,P I F,0,20000,16000,0,low,
9879283003,DAVID PARRISH EQUIPMENT REPAIR,NAPA,CA,94559,WELLS FARGO BANK NATL ASSOC,SD,0,6-Jan-97,1997,84,1,1,0,0,1,0,FALSE,FALSE,,30-Jun-97,20000,0,P I F,0,20000,10000,0,low,
9883273003,FLOWER ISLAND PLUS,CHICAGO,IL,60601,BBCN BANK,IL,453110,8-Jan-97,1997,60,2,2,0,0,1,0,FALSE,TRUE,,28-Feb-97,20000,0,P I F,0,20000,16000,45,low,Retail trade
9888693010,"AIR-CRAFT HEATING & COOLING,IN",PATASKALA,OH,43062,JPMORGAN CHASE BANK NATL ASSOC,IL,235110,10-Jan-97,1997,60,2,1,0,0,1,0,TRUE,FALSE,,31-Jul-99,20000,0,P I F,0,20000,10000,23,low,Construction
9891313002,BALLOON WORLD,SAINT PAUL,MN,55102,ANCHOR BANK NATL ASSOC,MN,453220,13-Jan-97,1997,36,1,1,0,0,1,0,FALSE,TRUE,,31-Oct-97,20000,0,P I F,0,20000,16000,45,low,Retail trade
9892153004,MADISON AVENUE,MALVERN,AR,72104,THE MALVERN NATIONAL BANK,AR,0,13-Jan-97,1997,60,1,2,0,0,1,0,FALSE,TRUE,,31-Jan-97,20000,0,P I F,0,20000,16000,0,low,
9896123003,CLS LAWNCARE,FARGO,ND,58103,BELL STATE BANK & TRUST,ND,561730,14-Jan-97,1997,60,1,2,0,0,1,0,FALSE,TRUE,,31-Jan-97,20000,0,P I F,0,20000,16000,56,low,Administrative/support & waste management/remediation Service
9896644002,FOX'S PIZZA DEN,NEW CUMBERLAND,PA,17070,"PNC BANK, NATIONAL ASSOCIATION",DE,722110,6-Feb-06,2006,24,10,2,0,10,1,2,TRUE,FALSE,,31-Dec-06,20000,0,P I F,0,20000,10000,72,low,Accommodation and food services 
9896843007,EVERYTHING MEDICAL,BATH,NY,14810,FIVE STAR BANK,NY,0,15-Jan-97,1997,36,2,2,0,0,1,0,FALSE,TRUE,,30-Apr-97,20000,0,P I F,0,20000,16000,0,low,
9901523000,EYE DEAL OPTICAL,STURGIS,SD,57785,FIRST NATIONAL BANK,SD,0,16-Jan-97,1997,84,2,2,0,0,1,0,FALSE,TRUE,,30-Nov-97,20000,0,P I F,0,20000,16000,0,low,
9907273009,"JANTASTIC, INC.",NISKAYUNA,NY,12309,KEYBANK NATIONAL ASSOCIATION,NY,0,21-Jan-97,1997,60,10,1,0,0,1,0,TRUE,FALSE,,31-May-97,20000,0,P I F,0,20000,10000,0,low,
9910593001,EYOTA DENTAL,EYOTA,MN,55989,EASTWOOD BANK,MN,621210,22-Jan-97,1997,71,2,1,0,0,1,0,FALSE,TRUE,,28-Feb-97,20000,0,P I F,0,20000,16000,62,low,Health care and social assistance
9910973008,"CHARLES BOSWELL, JR.",FT. DODGE,IA,50501,WELLS FARGO BANK NATL ASSOC,IA,621210,22-Jan-97,1997,72,1,2,0,0,1,0,FALSE,TRUE,,31-Jul-97,20000,0,P I F,0,20000,16000,62,low,Health care and social assistance
9912373009,"SPALDING PAINT & DECORATING, I",NORCROSS,GA,30092,BRANCH BK. & TR CO,GA,0,22-Jan-97,1997,78,3,2,0,0,1,0,FALSE,TRUE,,30-Sep-97,20000,0,P I F,0,20000,16000,0,low,
9913723009,MCDONALD'S RESTAURANT,NORTH BRANFORD,CT,6471,BANK OF AMERICA NATL ASSOC,CT,0,23-Jan-97,1997,60,33,1,0,0,52300,0,FALSE,TRUE,,31-Jul-97,20000,0,P I F,0,20000,16000,0,low,
9914243009,SUPERIOR BUSINESS SOLUTIONS,HILLIARD,OH,43026,KEYBANK NATIONAL ASSOCIATION,OH,0,23-Jan-97,1997,12,2,1,0,0,1,0,FALSE,FALSE,,31-May-99,20000,0,P I F,0,20000,10000,0,low,
9916443003,WILLIAM WEAVER GROUT PUMPING,SALINAS,CA,93940,MUFG UNION BANK NATL ASSOC,CA,814110,24-Jan-97,1997,60,1,1,0,0,1,0,FALSE,TRUE,,28-Feb-97,20000,0,P I F,0,20000,16000,81,low,Other services (except public administration)
9919493002,KITCHEN SOLVERS OF MARION,MARION,IA,52302,WELLS FARGO BANK NATL ASSOC,SD,0,24-Jan-97,1997,72,1,2,0,0,1,0,FALSE,TRUE,,31-Mar-97,20000,0,P I F,0,20000,16000,0,low,
9924363003,"AACTION FREIGHTWAYS, INC.",WATERTOWN,NY,13601,HSBC BK USA NATL ASSOC,NY,0,28-Jan-97,1997,60,2,2,0,0,1,0,FALSE,TRUE,,12-Mar-97,20000,0,P I F,0,20000,16000,0,low,
9924993004,BARN BURNER PRODUCTS,HOFFMAN,MN,56339,STAR BANK,MN,0,28-Jan-97,1997,60,4,1,0,0,1,0,FALSE,TRUE,,28-Feb-97,20000,0,P I F,0,20000,16000,0,low,
9927413000,D3M CORPORATION,ROCHESTER,NH,3867,BANK OF AMERICA NATL ASSOC,CT,0,29-Jan-97,1997,60,10,2,0,0,1,0,FALSE,TRUE,,31-Aug-97,20000,0,P I F,0,20000,16000,0,low,
9930173001,"SCOOTER SHAK EAST, INC.",FARGO,ND,58102,BANK OF THE WEST,ND,441221,29-Jan-97,1997,84,2,1,0,0,1,0,FALSE,TRUE,,28-Feb-98,20000,0,P I F,0,20000,16000,44,low,Retail trade
9931393010,BLUE MOON BOOKSHOP,WELLESLEY,MA,2181,SANTANDER BANK NATL ASSOC,MA,451211,30-Jan-97,1997,60,1,1,0,0,1,0,FALSE,TRUE,,30-Jun-97,20000,0,P I F,0,20000,16000,45,low,Retail trade
9932443003,"CLOSINGS AT PRIMROSE SQUARE, I",SPRINGFIELD,MO,65804,U.S. BANK NATIONAL ASSOCIATION,OH,541191,30-Jan-97,1997,60,2,2,0,0,1,0,FALSE,TRUE,,28-Feb-97,20000,0,P I F,0,20000,16000,54,low,"Professional, scientific, and technical services"
9934343001,ROYBAL INDUSTRIES,NORTH PORT,NY,11768,JPMORGAN CHASE BANK NATL ASSOC,IL,0,31-Jan-97,1997,48,1,1,0,0,1,0,FALSE,FALSE,,30-Jun-97,20000,0,P I F,0,20000,10000,0,low,
9934393005,MARTINIZING.CLEANERS,CARY,NC,27511,"PNC BANK, NATIONAL ASSOCIATION",DE,0,31-Jan-97,1997,30,4,1,0,0,60525,0,FALSE,FALSE,,31-Jul-97,20000,0,P I F,0,20000,16000,0,low,
9934743003,"NEW YORK SPORTS & SPINE D.O.,",NEW YORK,NY,10023,BANCO POPULAR DE PUERTO RICO,PR,0,31-Jan-97,1997,81,4,1,0,0,1,0,FALSE,FALSE,21-Feb-01,31-May-97,20000,0,CHGOFF,6842,20000,15000,0,high,
9940433000,TAMMY WHISLER AGENCY,GAINESVILLE,FL,32607,COMPASS BANK,FL,0,4-Feb-97,1997,60,2,2,0,0,1,0,FALSE,TRUE,,31-May-97,20000,0,P I F,0,20000,16000,0,low,
9942983005,"ST. PAUL BAGELRY, INC.",ROSEVILLE,MN,55113,ASSOCIATED BANK NATL ASSOC,MN,0,5-Feb-97,1997,57,9,2,0,0,1,0,FALSE,FALSE,,30-Jun-97,20000,0,P I F,0,20000,16000,0,low,
9943313005,"NORTHERN NIGHTS, INC.",WICHITA,KS,67219,INTRUST BANK NATL ASSOC,KS,0,5-Feb-97,1997,48,6,2,0,0,1,0,FALSE,TRUE,,31-May-97,20000,0,P I F,0,20000,16000,0,low,
9943723010,ALASKA DREAM FISHING CAMP INC,KETCHIKAN,AK,99950,FIRST BANK,AK,721214,5-Feb-97,1997,60,4,1,0,0,1,0,FALSE,TRUE,,31-Jul-97,20000,0,P I F,0,20000,16000,72,low,Accommodation and food services 
9950833006,"SOIL TECH, INC.",GREAT BARRINGTON,MA,1230,"TD BANK, NATIONAL ASSOCIATION",MA,541330,7-Feb-97,1997,12,3,1,0,0,1,0,TRUE,FALSE,,31-Mar-97,20000,0,P I F,0,20000,10000,54,low,"Professional, scientific, and technical services"
9950893002,DESERET COPY & PRINT INC.,SALT LAKE,UT,84106,JPMORGAN CHASE BANK NATL ASSOC,IL,0,7-Feb-97,1997,60,2,1,0,0,1,0,FALSE,FALSE,,28-Feb-98,20000,0,P I F,0,20000,10000,0,low,
9950983005,SCALENET,IDAHO FALLS,ID,83401,BANK OF IDAHO,ID,314991,7-Feb-97,1997,72,3,1,0,0,1,0,FALSE,TRUE,,31-Mar-97,20000,0,P I F,0,20000,16000,31,low,Manufacturing
9952413002,FLEETA'S CLEANING SERVICE,BULVERDE,TX,78163,WELLS FARGO BANK NATL ASSOC,TX,0,10-Feb-97,1997,36,15,1,0,0,1,0,FALSE,TRUE,,31-Mar-97,20000,0,P I F,0,20000,16000,0,low,
9952813004,WELLNESS CLINICAL SERVICES,ESPANOLA,MN,87532,WELLS FARGO BANK NATL ASSOC,SD,0,10-Feb-97,1997,60,2,1,0,0,1,0,TRUE,FALSE,,31-Jul-97,20000,0,P I F,0,20000,10000,0,low,
9954463010,KELLER RESIDENTIAL INC,SAINT PAUL,MN,55104,ASSOCIATED BANK NATL ASSOC,WI,0,10-Feb-97,1997,60,3,2,0,0,1,0,FALSE,TRUE,,28-Feb-97,20000,0,P I F,0,20000,16000,0,low,
9959183008,"REGENTS INTERNATIONAL, INC.",WINDHAM,ME,4062,KEYBANK NATIONAL ASSOCIATION,OH,422210,12-Feb-97,1997,60,1,1,0,0,1,0,FALSE,FALSE,,31-Mar-97,20000,0,P I F,0,20000,10000,42,low,Wholesale trade
9961983000,INFOTECH SYSTEMS INC.,PALM BAY,FL,32907,BANK OF AMERICA NATL ASSOC,FL,0,13-Feb-97,1997,60,3,1,0,0,1,0,FALSE,FALSE,,31-Mar-97,20000,0,P I F,0,20000,10000,0,low,
9962943001,CHARLES E. WALKER,KEASBEY,NJ,19044,"PNC BANK, NATIONAL ASSOCIATION",PA,0,13-Feb-97,1997,60,1,1,0,0,1,0,FALSE,FALSE,,31-Jul-97,20000,0,P I F,0,20000,10000,0,low,
9963383001,"SUBWAY OF GWINNETT, INC",NORCROSS,GA,30039,BANK OF AMERICA NATL ASSOC,MD,0,13-Feb-97,1997,36,32,1,0,0,78760,0,FALSE,FALSE,,31-Jul-97,20000,0,P I F,0,20000,10000,0,low,
9965903006,NORTHWEST OUTDOOR PURSUITS,LEAVENWORTH,WA,98826,WASHINGTON TRUST BANK,WA,0,14-Feb-97,1997,84,4,1,0,0,1,0,FALSE,TRUE,,30-Jun-97,20000,0,P I F,0,20000,16000,0,low,
9966333003,LAKETOWN LIQUORS,SPRINGFIELD,IL,62703,U.S. BANK NATIONAL ASSOCIATION,IL,445310,14-Feb-97,1997,84,2,2,0,0,1,0,FALSE,TRUE,,30-Sep-99,20000,0,P I F,0,20000,16000,44,low,Retail trade
9971643007,ERIE COUNTY CHIROPRACTIC,ORCHARD PARK,NY,14127,BANK OF AMERICA NATL ASSOC,NY,621310,18-Feb-97,1997,60,2,2,0,0,1,0,FALSE,TRUE,,31-Jul-97,20000,0,P I F,0,20000,16000,62,low,Health care and social assistance
9973533002,WEST'S FORKLIFT SERVICE,LUFKIN,TX,75902,WELLS FARGO BANK NATL ASSOC,SD,0,19-Feb-97,1997,14,4,1,0,0,1,0,TRUE,FALSE,1-Jun-01,30-Jun-97,20000,0,CHGOFF,16871,20000,10000,0,high,
9977593006,"ROBAND INTERNATIONAL, INC.",EL CAJON,CA,92020,BANK OF AMERICA CALIFORNIA N.A,CA,0,20-Feb-97,1997,84,15,1,0,0,1,0,FALSE,FALSE,,31-Jul-97,20000,0,P I F,0,20000,15000,0,low,
9978473007,MISIAK MASONRY,CRANSTON,RI,2920,ADMIRALS BANK,MA,235410,21-Feb-97,1997,48,10,1,0,0,1,0,FALSE,TRUE,,31-Mar-97,20000,0,P I F,0,20000,16000,23,low,Construction
9978763000,"ACORN GRAPHICS, INC.",NASHVILLE,TN,37210,SUNTRUST BANK,GA,0,21-Feb-97,1997,60,9,1,0,0,1,0,FALSE,TRUE,,31-Jul-97,20000,0,P I F,0,20000,16000,0,low,
9983093005,TRAER SUPERMARKET,TRAER,IA,50675,FARMERS STATE BANK,IA,0,24-Feb-97,1997,60,10,1,0,0,1,0,FALSE,FALSE,,30-Apr-97,20000,0,P I F,0,20000,15000,0,low,
9983183008,"SURFACE TO AIR TRANSPORTATION,",TROTWOOD,OH,45426,JPMORGAN CHASE BANK NATL ASSOC,IL,0,24-Feb-97,1997,84,9,1,0,0,1,0,TRUE,FALSE,,31-Oct-97,20000,0,P I F,0,20000,10000,0,low,
9984023008,MYODATA,CARROLLTON,TX,75006,WELLS FARGO BANK NATL ASSOC,SD,454110,24-Feb-97,1997,60,2,1,0,0,1,0,TRUE,FALSE,,29-Feb-00,20000,0,P I F,0,20000,10000,45,low,Retail trade
9984083004,AWARD'S COSTUME & MAGIC,OCEANSIDE,CA,92054,WELLS FARGO BANK NATL ASSOC,SD,0,24-Feb-97,1997,60,6,1,0,0,1,0,TRUE,FALSE,,31-Jul-97,20000,0,P I F,0,20000,10000,0,low,
9984953005,VC GRAPHICS Y MAS,LAS VEGAS,NM,87701,WELLS FARGO BANK NATL ASSOC,NM,541430,24-Feb-97,1997,60,2,1,0,0,1,0,FALSE,TRUE,,31-May-97,20000,0,P I F,0,20000,16000,54,low,"Professional, scientific, and technical services"
9987693005,WINGS-N-THINGS,LAKE CITY,FL,32025,"TD BANK, NATIONAL ASSOCIATION",FL,0,25-Feb-97,1997,84,2,2,0,0,1,0,FALSE,TRUE,,31-Mar-97,20000,0,P I F,0,20000,16000,0,low,
9989123002,QUICK CONCRETE,NEWTON,IA,50208,GREAT SOUTHERN BANK,IA,0,26-Feb-97,1997,84,3,1,0,0,1,0,FALSE,TRUE,,31-Mar-97,20000,0,P I F,0,20000,16000,0,low,
9994433006,"SUE E. PETERSEN, CPA, INC.",COLUMBUS,OH,43232,U.S. BANK NATIONAL ASSOCIATION,OH,0,27-Feb-97,1997,60,2,1,0,0,1,0,FALSE,TRUE,,31-May-97,20000,0,P I F,0,20000,16000,0,low,
1653055008,"FIRST GROUP IMPORT & EXPORT, L",DEARBORN,MI,48120,CITIZENS BANK NATL ASSOC,RI,484110,8-Feb-06,2006,41,3,1,0,3,0,1,FALSE,FALSE,4-Mar-10,31-Mar-06,20001,0,CHGOFF,19579,25000,12500,48,high,Transportation and warehousing
1868994009,ANEX GROUP INC,PINE BROOK,NJ,7058,JPMORGAN CHASE BANK NATL ASSOC,IL,0,26-Feb-98,1998,36,1,1,0,0,1,0,TRUE,FALSE,,31-May-99,20001,0,P I F,0,10000,5000,0,low,
2117606004,BLUE RIBBON CORP,NEW YORK,NY,10011,BNB HANA BANK NATL ASSOC,NJ,445110,5-Jun-06,2006,84,10,1,10,10,1,1,TRUE,FALSE,,31-Jul-06,20001,0,P I F,0,10000,5000,44,low,Retail trade
3699824001,KNICELY TRUCKING,WARREN,OH,44485,THE HUNTINGTON NATIONAL BANK,OH,0,18-Apr-00,2000,84,1,1,1,1,1,1,TRUE,FALSE,,31-Oct-00,20001,0,P I F,0,20000,10000,0,low,
3896405010,Napoleon Institute Of Excellen,NEPTUNE,NJ,7753,JPMORGAN CHASE BANK NATL ASSOC,IL,561110,9-Feb-10,2010,84,0,2,16,16,0,1,TRUE,FALSE,,9-Feb-10,20001,0,P I F,0,20000,10000,56,low,Administrative/support & waste management/remediation Service
5457624007,MINT CONDITION,TIGARD,OR,97223,BANK OF AMERICA NATL ASSOC,NC,811490,12-Jun-02,2002,84,1,1,1,1,1,1,TRUE,FALSE,,31-Jul-02,20001,0,P I F,0,20000,10000,81,low,Other services (except public administration)
6066664005,COOKING WITHOUT A NET LLC,FAIRFIELD,CT,6830,"TD BANK, NATIONAL ASSOCIATION",NJ,722211,31-Jan-03,2003,18,12,1,0,12,1,1,TRUE,FALSE,,28-Feb-03,20001,0,P I F,0,15000,7500,72,low,Accommodation and food services 
7081484002,THE JEWELRY EQUIPMENT DR,COLORADO SPRINGS,CO,80906,WELLS FARGO BANK NATL ASSOC,CA,811310,2-Jan-04,2004,36,2,1,0,2,1,1,TRUE,FALSE,,30-Apr-04,20001,0,P I F,0,20000,10000,81,low,Other services (except public administration)
7843063006,"FACT FINDERS, INC.",ST LOUIS,MO,63146,BANK OF AMERICA NATL ASSOC,NC,0,28-Nov-94,1995,60,70,1,0,0,1,0,FALSE,TRUE,,31-Jan-95,20001,0,P I F,0,90000,81000,0,low,
1958075004,Brown Studio Co.,Louisville,KY,40215,"PNC BANK, NATIONAL ASSOCIATION",DE,541921,8-Aug-06,2006,19,1,1,0,1,0,1,TRUE,FALSE,15-Mar-10,30-Sep-06,20002,0,CHGOFF,9618,10000,5000,54,high,"Professional, scientific, and technical services"
6892704006,B & B HOMES & GARDENS,WHITE BLUFF,TN,37187,U.S. BANK NATIONAL ASSOCIATION,OH,561730,7-Nov-03,2004,63,7,1,0,7,1,1,TRUE,FALSE,31-Oct-05,30-Nov-03,20002,0,CHGOFF,19697,20000,10000,56,high,Administrative/support & waste management/remediation Service
9111214003,FISHER WEST TRUCKING INC,RAMONA,CA,92065,MUFG UNION BANK NATL ASSOC,CA,484220,20-Sep-05,2005,84,2,2,0,0,1,2,TRUE,FALSE,,30-Sep-05,20002,0,P I F,0,10000,5000,48,low,Transportation and warehousing
1707754006,EXPRESS YOURSELF,FAIRFIELD,IA,52556,LIBERTYVILLE SAVINGS BANK,IA,0,28-Nov-97,1998,84,1,2,0,0,1,0,FALSE,TRUE,,31-Dec-97,20003,0,P I F,0,23500,18800,0,low,
2406206009,PRO VUE TV AND ELECTRONICS INC,BEDFORD,PA,15521,FIRST COMMONWEALTH BANK,PA,443112,13-Sep-06,2006,24,3,1,0,3,1,2,TRUE,FALSE,,30-Nov-06,20003,0,P I F,0,20000,10000,44,low,Retail trade
6733844005,APEX WHEELS LLC,WALNUT,CA,91789,WELLS FARGO BANK NATL ASSOC,SD,336399,26-Sep-03,2003,78,5,1,3,5,1,1,TRUE,FALSE,,29-Feb-04,20003,0,P I F,0,20000,10000,33,low,Manufacturing
9145144004,RM HAULING & CONSTRUCTION,ELBERTA,AL,36530,UNITED BANK,AL,562119,3-Oct-05,2006,12,1,2,4,1,1,2,TRUE,FALSE,,31-Oct-05,20003,0,P I F,0,20000,10000,56,low,Administrative/support & waste management/remediation Service
2066985005,Stephen J. Giles dba Stephen J,SAINT PETERSBURG,FL,33705,BANK OF AMERICA NATL ASSOC,NC,541320,12-Oct-06,2007,84,2,1,0,2,0,1,TRUE,FALSE,,31-Oct-06,20004,0,P I F,0,10000,5000,54,low,"Professional, scientific, and technical services"
2234925009,"Lally Drug, Inc.",Tallmadge,OH,44278,"PNC BANK, NATIONAL ASSOCIATION",DE,446110,23-Jan-07,2007,31,2,2,2,1,0,1,TRUE,FALSE,8-Dec-09,31-May-07,20004,0,CHGOFF,10198,10500,5250,44,high,Retail trade
1914165005,James P Perrini,NEW PORT RICHEY,FL,34653,BANK OF AMERICA NATL ASSOC,NC,722211,11-Jul-06,2006,21,1,1,0,1,0,2,TRUE,FALSE,11-Jan-12,30-Sep-06,20005,0,CHGOFF,2352,7000,3500,72,high,Accommodation and food services 
4403455000,Kurt F Cagasan D C,SAN DIEGO,CA,92101,U.S. BANK NATIONAL ASSOCIATION,OH,621310,3-Dec-10,2011,84,1,1,1,2,0,1,TRUE,FALSE,,3-Dec-10,20005,0,P I F,0,10000,5000,62,low,Health care and social assistance
5950834004,KB ROUNDS INSURANCE AGENCY,BRISTOL,RI,2809,CITIZENS BANK NATL ASSOC,RI,524210,16-Dec-02,2003,84,1,1,0,1,1,2,TRUE,FALSE,,31-Jan-03,20005,0,P I F,0,10000,5000,52,low,Finance and insurance
1437406008,LEE'S AGRI-TECH SERVICES INC,FULTON,NY,13069,"NBT BANK, NATIONAL ASSOCIATION",NY,424690,22-Mar-06,2006,84,3,1,2,1,1,2,TRUE,FALSE,,31-May-06,20006,0,P I F,0,20000,10000,42,low,Wholesale trade
2798135003,"DI REMAN, LLC",HENDERSON,NV,89044,U.S. BANK NATIONAL ASSOCIATION,OH,531311,6-Nov-07,2008,84,3,1,0,3,0,1,TRUE,FALSE,,30-Nov-07,20006,0,P I F,0,10000,5000,53,low,Real estate and rental and leasing
7244044005,APPLE LETTERS PRESS,ANTELOPE,CA,95843,BANK OF AMERICA NATL ASSOC,NC,322299,8-Mar-04,2004,35,15,1,3,15,1,1,TRUE,FALSE,15-May-08,31-Mar-04,20006,0,CHGOFF,17774,20000,10000,32,high,Manufacturing
7778684003,WINTERBERRY CO,LITTLE ROCK,AR,72205,SIMMONS FIRST NATIONAL BANK,AR,442110,8-Sep-04,2004,60,2,1,0,2,1,1,TRUE,FALSE,,30-Sep-04,20006,0,P I F,0,20000,10000,44,low,Retail trade
1208735002,"SJB ENTERPRISES OF OHIO, L.L.C",TOLEDO,OH,43606,CITIZENS BANK NATL ASSOC,RI,448140,25-Feb-05,2005,26,2,2,2,4,1,1,TRUE,FALSE,27-Jul-10,30-Apr-05,20007,0,CHGOFF,18814,20000,17000,44,high,Retail trade
2044215007,"Freedom Fuels, Inc.",GAINESVILLE,FL,32601,BANK OF AMERICA NATL ASSOC,NC,561990,28-Sep-06,2006,84,2,2,2,2,0,1,TRUE,FALSE,,31-Oct-06,20007,0,P I F,0,10000,5000,56,low,Administrative/support & waste management/remediation Service
2184124010,TOYOPROS,AZUSA,CA,91702,BANK OF AMERICA CALIFORNIA N.A,CA,811118,9-Jul-98,1998,84,6,1,0,0,1,0,TRUE,FALSE,,31-Aug-98,20007,0,P I F,0,20000,10000,81,low,Other services (except public administration)
1112815008,Brillante Jewelers LLC,SAN ANTONIO,TX,78250,BANK OF AMERICA NATL ASSOC,NC,448310,24-Nov-04,2005,84,4,1,0,0,1,1,TRUE,FALSE,,31-Dec-04,20008,0,P I F,0,20000,10000,44,low,Retail trade
7380004009,BLUE ONION BISTRO,SEATTLE,WA,98105,U.S. BANK NATIONAL ASSOCIATION,OH,722110,23-Apr-04,2004,84,5,1,0,5,1,1,TRUE,FALSE,,30-Apr-04,20008,0,P I F,0,10000,5000,72,low,Accommodation and food services 
7715694009,WE'RE NUTS ABOUT LIFE LLC,SANDY,UT,84070,MOUNTAIN AMERICA FCU,UT,311991,20-Aug-04,2004,84,2,2,8,2,1,1,TRUE,FALSE,,31-Aug-04,20008,0,P I F,0,20000,10000,31,low,Manufacturing
2597106005,JUDY'S WIG,PHILADELPHIA,PA,19131,BNB HANA BANK NATL ASSOC,NJ,446120,22-Dec-06,2007,84,2,1,0,2,1,1,TRUE,FALSE,,31-Jan-07,20009,0,P I F,0,20000,10000,44,low,Retail trade
1246725000,"Zota's Design-Remodeling, Inc.",SUNRISE,FL,33323,BANK OF AMERICA NATL ASSOC,NC,236118,28-Mar-05,2005,47,1,1,0,1,1,1,TRUE,FALSE,11-Jul-08,30-Apr-05,20010,0,CHGOFF,9598,10000,5000,23,high,Construction
1385566007,PUPUSERIA EL GUANACO,WAUKEGAN,IL,60085,JPMORGAN CHASE BANK NATL ASSOC,IL,722110,17-Mar-06,2006,72,4,1,0,4,1,2,TRUE,FALSE,13-Jun-07,30-Apr-06,20010,0,CHGOFF,14771,15000,7500,72,high,Accommodation and food services 
1843905004,E & D Trucking,PORT ANGELES,WA,98363,BANK OF AMERICA NATL ASSOC,NC,484121,28-May-06,2006,35,1,1,0,1,0,1,TRUE,FALSE,6-Aug-10,30-Jun-06,20010,0,CHGOFF,8511,10000,5000,48,high,Transportation and warehousing
2005054008,CREATIVE MARKETING ALTERNATIVE,LOUISVILLE,KY,40223,"PNC BANK, NATIONAL ASSOCIATION",PA,0,23-Apr-98,1998,60,5,2,0,0,1,0,TRUE,FALSE,,30-Jun-98,20010,0,P I F,0,20000,10000,0,low,
3288395005,"E, R & R LLC.",SALT LAKE CITY,UT,84119,MOUNTAIN AMERICA FCU,UT,238210,18-Dec-08,2009,84,12,1,3,15,0,1,TRUE,FALSE,,31-Mar-09,20010,0,P I F,0,10000,5000,23,low,Construction
6067674010,ADVANTAGE CONSULTING SERVICES,DILLSBURG,PA,17019,CITIZENS BANK NATL ASSOC,RI,541613,31-Jan-03,2003,84,1,1,2,3,1,2,TRUE,FALSE,,30-Jun-03,20010,0,P I F,0,5000,2500,54,low,"Professional, scientific, and technical services"
6328114005,SHALLCROSS & ASSOCIATES,BISHOP,CA,93514,WELLS FARGO BANK NATL ASSOC,CA,541219,16-May-03,2003,36,5,1,0,5,1,2,TRUE,FALSE,,31-Oct-03,20010,0,P I F,0,20000,10000,54,low,"Professional, scientific, and technical services"
7731014004,DESERT  RIDGE IMPORTS LLC,SCOTTSDALE,AZ,85258,WELLS FARGO BANK NATL ASSOC,SD,423220,25-Aug-04,2004,81,2,1,0,2,1,1,TRUE,FALSE,,31-Oct-04,20010,0,P I F,0,20000,10000,42,low,Wholesale trade
4178495004,KARNA LLC,ALPHARETTA,GA,30022,WELLS FARGO BANK NATL ASSOC,SD,541690,23-Jul-10,2010,84,2,1,2,4,0,1,TRUE,FALSE,,1-Aug-10,20011,0,P I F,0,20000,10000,54,low,"Professional, scientific, and technical services"
5984204001,KOTZEN BUSINESS SERVICES,SALEM,NH,3079,CITIZENS BANK NATL ASSOC,MA,541213,31-Dec-02,2003,84,2,1,2,4,1,1,TRUE,FALSE,,31-Jan-03,20011,0,P I F,0,5000,2500,54,low,"Professional, scientific, and technical services"
3093976009,RIDGECREST CUSTOM BUILDERS INC,MISSOURI CITY,TX,77459,COMPASS BANK,AL,236115,11-Dec-07,2008,16,1,1,1,1,1,1,TRUE,FALSE,9-Dec-13,31-Jan-08,20012,0,CHGOFF,6010,10000,5000,23,high,Construction
3528825003,AMY R CLARK dba NEVADA UNIFORM,RENO,NV,89503,U.S. BANK NATIONAL ASSOCIATION,OH,812331,21-Jul-09,2009,58,3,1,0,3,0,1,TRUE,FALSE,1-Feb-12,1-Nov-09,20012,0,CHGOFF,9789,10000,5000,81,high,Other services (except public administration)
3113694003,JAMES HOGAN INC,WORCESTER,MA,1602,"FLAGSHIP BANK, A DIVISION OF",MA,448120,10-Aug-99,1999,12,6,1,1,6,1,1,TRUE,FALSE,,31-Mar-00,20013,0,P I F,0,20000,10000,44,low,Retail trade
4831334010,BIG APPLE LIGHTS CORP,NEW YORK,NY,10013,BANCO POPULAR NORTH AMERICA,NY,512199,17-Aug-01,2001,46,17,1,6,17,1,1,TRUE,FALSE,,31-Oct-01,20013,0,P I F,0,20000,10000,51,low,Information
6188344001,RAYCO AUTO VILLAGE,PATCHOGUE,NY,11772,BANCO POPULAR NORTH AMERICA,NY,811111,21-Mar-03,2003,24,2,2,0,2,1,1,TRUE,FALSE,,30-Apr-03,20013,0,P I F,0,20000,10000,81,low,Other services (except public administration)
6289924008,CURTISS E PERKINS TRUCKING,BLANDING,UT,84511,U.S. BANK NATIONAL ASSOCIATION,OH,484110,2-May-03,2003,84,1,1,0,1,1,2,TRUE,FALSE,,31-May-03,20013,0,P I F,0,18000,9000,48,low,Transportation and warehousing
9335374004,GRANDMA'S CAFE,OCEANSIDE,CA,92057,MUFG UNION BANK NATL ASSOC,CA,722110,28-Nov-05,2006,65,11,2,0,0,1,1,TRUE,FALSE,17-Aug-07,30-Nov-05,20013,0,CHGOFF,9994,10000,5000,72,high,Accommodation and food services 
3146635010,Fin's Glo-Putt N Fun Center,Willowick,OH,44095,KEYBANK NATIONAL ASSOCIATION,OH,713990,3-Jul-08,2008,72,2,2,0,2,0,1,TRUE,FALSE,,31-Jul-08,20014,0,P I F,0,10000,5000,71,low,"Arts, entertainment, and recreation"
7044564003,DIGGABLE STREET STYLZ,BAYTOWN,TX,77520,BANK OF AMERICA NATL ASSOC,NC,441310,17-Dec-03,2004,84,4,1,1,4,1,1,TRUE,FALSE,,29-Feb-04,20014,0,P I F,0,20000,10000,44,low,Retail trade
7447714005,MELLAMARC ENTERPRISES INC,GUNNISON,CO,81230,WELLS FARGO BANK NATL ASSOC,CA,722211,18-May-04,2004,83,12,1,15,12,24850,2,TRUE,FALSE,,31-May-04,20014,0,P I F,0,20000,10000,72,low,Accommodation and food services 
7475453000,"STEPHEN DELIA, M.D.",BOSTON,MA,2116,BANK OF AMERICA NATL ASSOC,MA,0,16-Aug-94,1994,99,1,2,0,0,1,0,FALSE,TRUE,,31-Oct-94,20015,0,P I F,0,50000,45000,0,low,
1506055008,Daniel Barney,OCEAN SHORES,WA,98569,U.S. BANK NATIONAL ASSOCIATION,OH,236115,19-Oct-05,2006,40,2,1,0,2,0,1,TRUE,FALSE,13-Feb-10,31-Dec-05,20016,0,CHGOFF,3599,10000,5000,23,high,Construction
2089915009,"S. McGuire & Associates, LLC",ATLANTA,GA,30346,BANK OF AMERICA NATL ASSOC,NC,561990,26-Oct-06,2007,84,3,1,0,3,0,1,TRUE,FALSE,,31-Oct-06,20016,0,P I F,0,5000,2500,56,low,Administrative/support & waste management/remediation Service
1681255006,Vision Lighting Inc,HIXSON,TN,37343,BANK OF AMERICA NATL ASSOC,NC,453998,27-Feb-06,2006,27,1,1,0,1,0,1,TRUE,FALSE,18-Jan-11,31-Mar-06,20017,0,CHGOFF,8393,10000,5000,45,high,Retail trade
1760475000,V-6 CORP.,HUNTLEY,IL,60142,CITIZENS BANK NATL ASSOC,RI,447190,11-Apr-06,2006,50,2,1,2,4,0,1,TRUE,FALSE,16-Sep-09,30-Jun-06,20017,0,CHGOFF,9739,10000,5000,44,high,Retail trade
1089105008,Merchandising Contact Solution,ORANGE PARK,FL,32065,BANK OF AMERICA NATL ASSOC,NC,425120,25-Oct-04,2005,84,3,2,0,0,1,1,TRUE,FALSE,,30-Nov-04,20018,0,P I F,0,10000,5000,42,low,Wholesale trade
3048546010,GAVROSH61 INC,BROOKLYN,NY,11230,JPMORGAN CHASE BANK NATL ASSOC,IL,541512,1-Nov-07,2008,84,1,1,2,2,1,1,TRUE,FALSE,,1-Jan-10,20018,0,P I F,0,20000,10000,54,low,"Professional, scientific, and technical services"
8243503008,"GOLF SOLUTIONS, L.L.C.",GROVER,MO,63040,FIRST BANK,MO,0,7-Apr-95,1995,60,3,2,0,0,1,0,FALSE,TRUE,,31-Jul-95,20018,0,P I F,0,25000,22500,0,low,
9570593004,CHEM-CARE INC,HIGH POINT,NC,27260,BRANCH BK. & TR CO,NC,0,24-Sep-96,1996,60,7,1,0,0,1,0,FALSE,FALSE,,31-Jan-97,20018,0,P I F,0,25000,20000,0,low,
1636805006,Green Banner Distribution,MAPLE VALLEY,WA,98038,U.S. BANK NATIONAL ASSOCIATION,OH,561499,30-Jan-06,2006,26,1,2,1,2,0,1,TRUE,FALSE,16-Dec-10,31-Jan-06,20019,0,CHGOFF,9585,10000,5000,56,high,Administrative/support & waste management/remediation Service
3534296002,BEST SOILS,VALLEY CENTER,CA,92082,MUFG UNION BANK NATL ASSOC,CA,325314,4-Nov-08,2009,84,1,2,0,1,1,2,TRUE,FALSE,,30-Nov-08,20019,0,P I F,0,15000,7500,32,low,Manufacturing
6404464008,HEALTH CARE BUSINESS SOLUTIONS,CHALFONT,PA,18914,CITIZENS BANK NATL ASSOC,RI,524114,12-Jun-03,2003,19,3,1,5,8,1,2,TRUE,FALSE,3-Feb-09,31-Jul-03,20020,0,CHGOFF,13966,20000,10000,52,high,Finance and insurance
7413574002,RIVERDALE ANIMAL HOUSE,NEW YORK,NY,10463,JPMORGAN CHASE BANK NATL ASSOC,IL,453910,6-May-04,2004,73,2,1,0,2,1,1,TRUE,FALSE,27-Sep-05,31-May-04,20020,0,CHGOFF,19995,20000,10000,45,high,Retail trade
2224896005,J A C TRUCKING,RIALTO,CA,92376,JPMORGAN CHASE BANK NATL ASSOC,IL,484220,12-Jul-06,2006,59,1,1,2,1,1,2,TRUE,FALSE,4-May-10,30-Sep-06,20021,0,CHGOFF,10302,20000,10000,48,high,Transportation and warehousing
2325465008,"Liberty Electrical Systems, In",West Chester,OH,45069,"PNC BANK, NATIONAL ASSOCIATION",OH,238210,12-Mar-07,2007,60,4,2,4,0,0,2,TRUE,FALSE,,30-Apr-07,20021,0,P I F,0,20000,10000,23,low,Construction
2684936005,PERFECT 99 CENTS INC,BRONX,NY,10468,JPMORGAN CHASE BANK NATL ASSOC,NV,453998,22-Feb-07,2007,84,5,1,3,5,1,2,TRUE,FALSE,,28-Feb-07,20021,0,P I F,0,10000,5000,45,low,Retail trade
8291024007,CARRIBEAN SUN,WICHITA,KS,67206,COMMERCE BANK,MO,812199,14-Dec-04,2005,96,7,1,0,7,1,1,TRUE,FALSE,,28-Feb-05,20021,0,P I F,0,10000,5000,81,low,Other services (except public administration)
1033845008,ON SITE DRAPERY CLEANING,DESERT HOT SPRINGS,CA,92240,BANK OF AMERICA NATL ASSOC,NC,812320,4-Aug-04,2004,84,2,1,0,0,1,1,TRUE,FALSE,,30-Sep-04,20023,0,P I F,0,20000,10000,81,low,Other services (except public administration)
1348235007,DIANE LAFFERTY DBA LAFFERTY'S,BIRDSBORO,PA,19508,CITIZENS BANK NATL ASSOC,RI,541410,22-Jun-05,2005,84,1,1,0,1,1,2,TRUE,FALSE,,31-Jul-05,20023,0,P I F,0,10000,5000,54,low,"Professional, scientific, and technical services"
2287305004,"HAULING TRANSPORTING SERVICES,",UPPER MARLBORO,MD,20774,BANK OF AMERICA NATL ASSOC,NC,488999,21-Feb-07,2007,58,2,1,0,2,0,1,FALSE,FALSE,10-Jun-09,28-Feb-07,20023,0,CHGOFF,19950,20000,10000,48,high,Transportation and warehousing
1391405005,"Buddy A. Touchinsky, DC",Orwigsburg,PA,17961,FIRST NATL BK OF PENNSYLVANIA,PA,621310,28-Jul-05,2005,36,2,1,0,2,0,2,TRUE,FALSE,,30-Nov-05,20024,0,P I F,0,15000,7500,62,low,Health care and social assistance
2951545005,NORTHSTAR CONTRACTING INC,DAVENPORT,WA,99122,U.S. BANK NATIONAL ASSOCIATION,OH,236118,12-Feb-08,2008,84,2,2,0,2,0,2,TRUE,FALSE,,31-Jul-09,20024,0,P I F,0,20000,10000,23,low,Construction
2403575002,AURICULAR LASER,St. Louis,MO,63105,COMMERCE BANK,MO,621999,19-Apr-07,2007,84,1,2,0,1,0,1,TRUE,FALSE,,31-May-07,20025,0,P I F,0,20000,10000,62,low,Health care and social assistance
6225124005,ROBERT'S TRIM & SERVICE LLC,WEIDMAN,MI,48893,"PNC BANK, NATIONAL ASSOCIATION",IL,238990,4-Apr-03,2003,60,1,1,0,1,1,2,TRUE,FALSE,,30-Apr-03,20025,0,P I F,0,20000,10000,23,low,Construction
4228665006,"Darin Batesole Construction, I",KENSINGTON,MN,56343,BLACKRIDGEBANK,MN,236115,27-Aug-10,2010,73,1,1,0,1,0,2,FALSE,FALSE,,7-Sep-10,20026,0,P I F,0,20026,20026,23,low,Construction
9695483010,"MOON RIVER, INC.",NORFOLK,VA,23513,WELLS FARGO BANK NATL ASSOC,SD,0,25-Oct-96,1997,84,6,1,0,0,1,0,TRUE,FALSE,,30-Jun-97,20026,0,P I F,0,20000,10000,0,low,
3541625007,"Alpine Landscape & Design, LLC",POLSON,MT,59860,GLACIER BANK,MT,238990,28-Jul-09,2009,24,5,2,0,5,0,2,TRUE,FALSE,,31-Jul-09,20027,0,P I F,0,20000,10000,23,low,Construction
6631414004,WE CARE COUNSELING CENTER,FORT WAYNE,IN,46802,WELLS FARGO BANK NATL ASSOC,WY,624190,27-Aug-03,2003,82,3,1,1,3,1,1,TRUE,FALSE,,30-Sep-03,20027,0,P I F,0,20000,10000,62,low,Health care and social assistance
2117155004,Nokoa Enterprises LLC,PENSACOLA,FL,32506,BANK OF AMERICA NATL ASSOC,NC,713990,9-Nov-06,2007,84,1,2,0,1,0,1,TRUE,FALSE,,31-Dec-06,20028,0,P I F,0,10000,5000,71,low,"Arts, entertainment, and recreation"
2492605010,"Worldwide Concierge Services,",MIAMI,FL,33176,BANK OF AMERICA NATL ASSOC,NC,812990,4-Jun-07,2007,84,1,2,0,1,0,1,TRUE,FALSE,,30-Jun-07,20028,0,P I F,0,7000,3500,81,low,Other services (except public administration)
6230764003,KC CHUNG TAE KWON DO,STUART,FL,34994,BANK OF AMERICA NATL ASSOC,NC,611620,8-Apr-03,2003,84,1,1,0,1,1,1,TRUE,FALSE,,30-Apr-03,20028,0,P I F,0,15000,7500,61,low,Educational services
8289994006,RIGHT RESPONSE E MARKETING,CLARKSVILLE,TN,37042,U.S. BANK NATIONAL ASSOCIATION,OH,541890,14-Dec-04,2005,84,2,1,0,2,1,1,TRUE,FALSE,,31-Dec-04,20028,0,P I F,0,10000,5000,54,low,"Professional, scientific, and technical services"
1684715008,Bennett & Sons Surveyors & Pla,DICKSON,TN,37055,U.S. BANK NATIONAL ASSOCIATION,OH,531390,28-Feb-06,2006,84,13,1,0,13,0,1,TRUE,FALSE,,30-Apr-06,20029,0,P I F,0,20000,10000,53,low,Real estate and rental and leasing
2771376001,WHISPER INTERNATIONAL INC,MURRIETA,CA,92562,MUFG UNION BANK NATL ASSOC,CA,325411,25-Apr-07,2007,73,1,2,0,1,1,1,TRUE,FALSE,14-May-08,30-Apr-07,20029,0,CHGOFF,9992,10000,5000,32,high,Manufacturing
3306346002,UNION CENTER FITNESS LLC,FARGO,ND,56574,UNION STATE BANK OF FARGO,ND,713940,2-Jul-08,2008,60,5,2,0,5,1,2,TRUE,FALSE,,31-Jul-08,20029,0,P I F,0,10000,5000,71,low,"Arts, entertainment, and recreation"
6718944002,PIP PRINTING #1076,CHESTER,VA,23235,CITIZENS AND FARMERS BANK,VA,323119,24-Sep-03,2003,27,4,1,0,4,64853,1,TRUE,FALSE,27-May-08,31-Jan-04,20029,0,CHGOFF,19820,20000,10000,32,high,Manufacturing
7890784009,DUNKIN DONUTS,DOWNINGTOWN,PA,19335,BANCO POPULAR NORTH AMERICA,NY,722110,4-Oct-04,2005,84,8,1,0,8,1,1,TRUE,FALSE,,31-Dec-05,20029,0,P I F,0,20000,10000,72,low,Accommodation and food services 
8197924010,HOMESTEAD ENTERPRISES INC,BOONVILLE,IN,47601,WELLS FARGO BANK NATL ASSOC,CA,525990,30-Nov-04,2005,36,1,1,0,1,1,2,TRUE,FALSE,,31-Jan-05,20029,0,P I F,0,10000,5000,52,low,Finance and insurance
2716946003,ORIENTAL PEARL LLC,HADDONFIELD,NJ,8033,BNB HANA BANK NATL ASSOC,NJ,722110,16-Mar-07,2007,84,8,1,8,8,1,1,TRUE,FALSE,,29-Feb-08,20030,0,P I F,0,8000,4000,72,low,Accommodation and food services 
9022554009,BRETT MILLER NUTRITIONAL ADVIS,ST. PAUL,MN,55119,U.S. BANK NATIONAL ASSOCIATION,OH,446110,3-Aug-05,2005,84,1,1,0,1,1,1,TRUE,FALSE,,31-Oct-05,20031,0,P I F,0,10000,5000,44,low,Retail trade
6046244000,E PRO HEALTH CARE PERSONNEL IN,WORCESTER,MA,1609,CITIZENS BANK NATL ASSOC,RI,541612,24-Jan-03,2003,38,172,1,0,172,1,1,TRUE,FALSE,6-Mar-07,28-Feb-03,20032,0,CHGOFF,4411,5000,2500,54,high,"Professional, scientific, and technical services"
6375764004,INNOVATIVE TECHNOLOGY CONSULTI,KENT,WA,98031,BANK OF AMERICA NATL ASSOC,NC,541618,4-Jun-03,2003,26,2,1,0,2,1,1,TRUE,FALSE,20-May-08,30-Jun-03,20032,0,CHGOFF,11279,15000,7500,54,high,"Professional, scientific, and technical services"
9941003002,RAY DENT'S LEISURE POOLS OF TX,EL PASO,TX,79912,WELLS FARGO BANK NATL ASSOC,NM,0,4-Feb-97,1997,3,20,1,0,0,1,0,TRUE,FALSE,13-Jun-02,4-Mar-98,20032,0,CHGOFF,20036,150000,112500,0,high,
3668615001,MDR PHYSICAL THERAPY INC,TUCSON,AZ,85745,WELLS FARGO BANK NATL ASSOC,SD,621340,30-Sep-09,2009,84,7,1,0,7,0,1,TRUE,FALSE,,1-Nov-09,20033,0,P I F,0,15000,7500,62,low,Health care and social assistance
5247665006,"Orchid Edge Studio, LLC",KISSIMMEE,FL,34758,JPMORGAN CHASE BANK NATL ASSOC,IL,561499,4-Jun-12,2012,63,1,2,1,1,0,1,TRUE,FALSE,15-May-14,1-Jul-12,20033,0,CHGOFF,18447,20000,10000,56,high,Administrative/support & waste management/remediation Service
2737135010,CV Solutions & Consulting Inco,Homewood,IL,60430,"PNC BANK, NATIONAL ASSOCIATION",DE,541611,2-Oct-07,2008,44,4,1,1,4,0,1,TRUE,FALSE,2-Apr-09,31-Oct-07,20034,0,CHGOFF,13791,20000,10000,54,high,"Professional, scientific, and technical services"
7158664007,CHEYNEY PLUMBING SERVICES,PORT ORCHARD,WA,98367,U.S. BANK NATIONAL ASSOCIATION,OH,238220,4-Feb-04,2004,14,1,1,0,1,1,1,TRUE,FALSE,6-Mar-10,29-Feb-04,20034,0,CHGOFF,9333,10000,5000,23,high,Construction
2693255008,CRYSTAL SPRINGS OF FILLMORE LL,FILLMORE,UT,84631,ZIONS FIRST NATIONAL BANK,UT,484121,12-Sep-07,2007,84,2,1,0,2,0,2,TRUE,FALSE,,31-Oct-07,20035,0,P I F,0,15000,7500,48,low,Transportation and warehousing
2815154005,PEYTON'S PLACE WHOLESALE,THE PLAINS,VA,20198,MANUFACTURERS & TRADERS TR CO,MD,421210,3-Mar-99,1999,48,3,1,0,3,1,0,TRUE,FALSE,,31-May-99,20035,0,P I F,0,20000,10000,42,low,Wholesale trade
7658524007,CONTEMPORARY AUDIO-VIDEO INC,FEASTERVILLE,PA,19053,CITIZENS BANK NATL ASSOC,RI,512290,30-Jul-04,2004,38,6,1,0,6,1,1,TRUE,FALSE,11-Feb-09,31-Mar-05,20035,0,CHGOFF,4611,5000,2500,51,high,Information
1649015004,"Grasse Mani, Inc.",MEDIA,PA,19063,BANK OF AMERICA NATL ASSOC,NC,722211,7-Feb-06,2006,84,1,1,0,1,0,1,TRUE,FALSE,,31-Mar-07,20036,0,P I F,0,10000,5000,72,low,Accommodation and food services 
1733285007,"Michelle Dunajcik, LLC",SAINT CHARLES,MO,63301,U.S. BANK NATIONAL ASSOCIATION,OH,621310,27-Mar-06,2006,23,4,1,0,4,0,1,FALSE,FALSE,8-Jun-11,30-Apr-06,20037,0,CHGOFF,5572,15000,7500,62,high,Health care and social assistance
6134094003,ABC DANCE STUDIO COMPANY,MIAMI,FL,33186,BANK OF AMERICA NATL ASSOC,NC,711120,27-Feb-03,2003,84,4,1,0,4,1,1,TRUE,FALSE,,31-Mar-03,20037,0,P I F,0,20000,10000,71,low,"Arts, entertainment, and recreation"
1209905007,JAMES HULSE,ROCHESTER,NY,14609,CITIZENS BANK NATL ASSOC,RI,562111,28-Feb-05,2005,49,2,1,0,2,1,1,FALSE,FALSE,21-Aug-08,31-Aug-05,20039,0,CHGOFF,25000,25000,12500,56,high,Administrative/support & waste management/remediation Service
7631144000,PRECISION TILING & REPAIRS,JAMESBURG,NJ,8831,SANTANDER BANK NATL ASSOC,DE,238340,22-Jul-04,2004,36,2,1,0,2,1,1,TRUE,FALSE,,31-Aug-04,20039,0,P I F,0,15000,7500,23,low,Construction
2924374000,M & A TRUCKING,NORTH HOLLYWOOD,CA,91606,BANK OF AMERICA CALIFORNIA N.A,CA,0,4-May-99,1999,60,1,1,0,1,1,0,TRUE,FALSE,,31-May-99,20040,0,P I F,0,20000,10000,0,low,
3210355004,BADEN BUILDING PRODUCTS LLC,BURNSVILLE,MN,55306,WELLS FARGO BANK NATL ASSOC,SD,423390,10-Sep-08,2008,84,8,2,0,8,0,1,TRUE,FALSE,,1-Mar-10,20041,0,P I F,0,10000,5000,42,low,Wholesale trade
6018734008,J. BARBER MOVING & STORAGE INC,FREDERICKSBURG,VA,22401,MANUFACTURERS & TRADERS TR CO,NY,484210,14-Jan-03,2003,84,24,1,0,0,1,1,FALSE,TRUE,,31-Jan-03,20041,0,P I F,0,145000,123250,48,low,Transportation and warehousing
7021024002,PURE ENVIRONMENTAL SOLUTIONS L,SEGUIN,TX,78155,WELLS FARGO BANK NATL ASSOC,SD,541620,11-Dec-03,2004,84,3,2,0,3,1,2,FALSE,FALSE,,31-Dec-03,20041,0,P I F,0,38000,32300,54,low,"Professional, scientific, and technical services"
8119934007,AURELIUS INC,LAS VEGAS,NV,89145,WELLS FARGO BANK NATL ASSOC,CA,711510,16-Nov-04,2005,36,2,1,0,2,1,1,TRUE,FALSE,,30-Nov-04,20041,0,P I F,0,20000,10000,71,low,"Arts, entertainment, and recreation"
1072795009,"Post Tv & Appliance, Inc.",SAN ANTONIO,TX,78216,BANK OF AMERICA NATL ASSOC,NC,443112,29-Sep-04,2004,84,5,2,0,0,1,1,TRUE,FALSE,8-Nov-11,31-Oct-04,20042,0,P I F,2374,10000,5000,44,low,Retail trade
1592925004,"Overstock Spas, LLC",OREM,UT,84057,ZIONS FIRST NATIONAL BANK,UT,423910,22-Dec-05,2006,33,10,1,0,0,0,1,TRUE,FALSE,28-Apr-08,31-Dec-05,20042,0,CHGOFF,9629,20000,10000,42,high,Wholesale trade
2703735004,"The Stork's Cradle, Inc.",WHEATON,IL,60187,JPMORGAN CHASE BANK NATL ASSOC,IL,448130,17-Sep-07,2007,84,2,1,0,2,0,1,TRUE,FALSE,,31-Oct-07,20042,0,P I F,0,10000,5000,44,low,Retail trade
1616074008,SNAP-ON TOOL,GENEVA,OH,44041,JPMORGAN CHASE BANK NATL ASSOC,IL,421830,14-Oct-97,1998,41,1,2,0,0,75900,0,FALSE,FALSE,,31-Dec-97,20043,0,P I F,0,20043,10021,42,low,Wholesale trade
1956124006,GOODY'S LIQUOR,CORONA,CA,91720,BANK OF AMERICA CALIFORNIA N.A,CA,445310,3-Apr-98,1998,4,2,1,0,0,1,0,FALSE,FALSE,28-Sep-05,31-May-98,20043,0,CHGOFF,4609,20000,10000,44,high,Retail trade
2610296000,BLUE OPAL STRATEGIES LLC,LOUISVILLE,CO,80027,WELLS FARGO BANK NATL ASSOC,SD,721110,4-Jan-07,2007,84,4,1,0,4,1,1,TRUE,FALSE,,31-Jan-07,20043,0,P I F,0,20000,10000,72,low,Accommodation and food services 
3433524008,"FIREHOUSE WINDOW CLEANING, INC",PRAIRIE VILLAGE,KS,66208,VALLEY VIEW STATE BANK,KS,0,2-Dec-99,2000,84,8,2,0,0,1,1,FALSE,TRUE,,31-Jan-00,20043,0,P I F,0,25000,20000,0,low,
1630305008,LISA CATERBONE,LAS VEGAS,NV,89117,U.S. BANK NATIONAL ASSOCIATION,OH,541511,25-Jan-06,2006,84,1,1,1,2,0,1,TRUE,FALSE,,28-Feb-06,20044,0,P I F,0,15000,7500,54,low,"Professional, scientific, and technical services"
3703954009,HELP U SELL,AMERICAN FORK,UT,84003,ZIONS FIRST NATIONAL BANK,UT,0,20-Apr-00,2000,9,4,2,4,8,37481,1,TRUE,FALSE,26-Jul-02,31-May-00,20045,0,CHGOFF,17090,20000,10000,0,high,
4996933004,WOODSAVERS,KILL DEVIL HILLS,NC,27948,"PNC BANK, NATIONAL ASSOCIATION",DE,0,31-Aug-92,1992,60,18,1,0,0,1,0,FALSE,FALSE,,,20045,0,P I F,0,20045,18041,0,low,
8294723004,BETHEL ANIMAL HOSPITAL,BETHEL,ME,4217,NORTHEAST BANK,ME,541940,27-Apr-95,1995,60,1,1,0,0,1,0,FALSE,TRUE,,31-Jul-95,20045,0,P I F,0,20045,18041,54,low,"Professional, scientific, and technical services"
6269884001,PLEASANT HILLS CHIROPRACTIC,MCKEESPORT,PA,15135,"PNC BANK, NATIONAL ASSOCIATION",DE,621310,24-Apr-03,2003,60,1,2,0,1,1,1,TRUE,FALSE,,30-Nov-03,20047,0,P I F,0,20000,10000,62,low,Health care and social assistance
3515925010,Shyanne F. Jensen and Bryan T.,WASHINGTON,UT,84780,AMERICA FIRST FCU,UT,611620,14-Jul-09,2009,84,2,2,0,2,0,1,TRUE,FALSE,,31-Jul-09,20048,0,P I F,0,20000,10000,61,low,Educational services
1373875002,SPILLE PACKAGE LIQUORS INC,MONTICELLO,IN,47960,CITIZENS BANK NATL ASSOC,RI,445310,14-Jul-05,2005,84,15,1,0,15,0,1,TRUE,FALSE,,31-Oct-06,20049,0,P I F,0,20000,10000,44,low,Retail trade
2699656007,SUSAN L WOLFE BIZ,NEW YORK,NY,10019,"CITIBANK, N.A.",SD,541890,5-Mar-07,2007,47,1,1,5,1,1,1,TRUE,FALSE,27-May-10,31-Mar-07,20049,0,CHGOFF,5999,10000,5000,54,high,"Professional, scientific, and technical services"
2739764008,HELMUTH-YODER CUSTOM CABINETS,LONDON,OH,43140,THE HUNTINGTON NATIONAL BANK,OH,337110,26-Jan-99,1999,60,1,1,1,1,1,0,TRUE,FALSE,,31-May-99,20049,0,P I F,0,20000,10000,33,low,Manufacturing
5053404004,BUONOPANE CORPORATION,LINCOLN,MA,1773,CITIZENS BANK NATL ASSOC,RI,235420,19-Nov-01,2002,84,3,1,0,3,1,1,TRUE,FALSE,,31-Dec-01,20049,0,P I F,0,20000,10000,23,low,Construction
6732564002,MCDOWELL ATWOOD COMPANY,SAN DIEGO,CA,92110,WELLS FARGO BANK NATL ASSOC,CA,541612,26-Sep-03,2003,82,15,1,0,15,1,1,TRUE,FALSE,,30-Nov-03,20049,0,P I F,0,15000,7500,54,low,"Professional, scientific, and technical services"
2718085002,Taylor List Consulting,Meridian,ID,83642,KEYBANK NATIONAL ASSOCIATION,OH,541860,24-Sep-07,2007,55,1,1,0,1,0,1,TRUE,FALSE,22-Dec-09,30-Sep-07,20050,0,CHGOFF,9659,10000,5000,54,high,"Professional, scientific, and technical services"
3028985009,"ANCHORAGE MEDICAL SUPPLY, LLC",ROSWELL,NM,88201,WELLS FARGO BANK NATL ASSOC,SD,423450,1-Apr-08,2008,50,3,2,0,3,0,1,TRUE,FALSE,7-Jun-10,31-May-09,20050,0,CHGOFF,9987,10000,5000,42,high,Wholesale trade
3052065004,"DR. QUINONES, P.S.C. D/B/A FAM",LOUISVILLE,KY,40214,BRANCH BK. & TR CO,NC,621111,17-Apr-08,2008,72,3,1,0,3,0,2,TRUE,FALSE,,31-Aug-08,20050,0,P I F,0,20000,10000,62,low,Health care and social assistance
3193475002,"CLIFFANY TRADING, INC",ANCHORAGE,AK,99516,WELLS FARGO BANK NATL ASSOC,SD,445220,21-Aug-08,2008,84,2,2,0,2,0,1,TRUE,FALSE,,31-Aug-08,20050,0,P I F,0,20000,10000,44,low,Retail trade
4956934006,SHIN BROTHERS JEWELRY,EAST BRUNSWICK,NJ,8816,"TD BANK, NATIONAL ASSOCIATION",DE,448310,28-Sep-01,2001,83,4,1,0,4,1,1,TRUE,FALSE,,31-Jan-02,20050,0,P I F,0,20000,10000,44,low,Retail trade
5559134003,CASSEDY CONSTRUCTION,BETHEL PARK,PA,15101,"PNC BANK, NATIONAL ASSOCIATION",DE,235990,25-Jul-02,2002,10,3,1,3,2,1,1,TRUE,FALSE,28-Jun-06,30-Sep-02,20050,0,CHGOFF,20000,20000,10000,23,high,Construction
2145085004,"AMANDA'S DOLLAR PALACE PLUS, I",JACKSON,MI,49202,CITIZENS BANK NATL ASSOC,RI,452990,27-Nov-06,2007,84,3,1,0,3,0,1,TRUE,FALSE,,31-Jan-07,20051,0,P I F,0,5000,2500,45,low,Retail trade
2374895004,Hopkins Interior Construction,LOUISVILLE,KY,40204,U.S. BANK NATIONAL ASSOCIATION,OH,236115,4-Apr-07,2007,84,4,1,0,4,0,1,TRUE,FALSE,,30-Apr-07,20052,0,P I F,0,20000,10000,23,low,Construction
4606695002,CHS International Research,ORANGE,CA,92867,JPMORGAN CHASE BANK NATL ASSOC,IL,446191,29-Mar-11,2011,84,1,1,0,1,0,1,TRUE,FALSE,,29-Mar-11,20052,0,P I F,0,20000,10000,44,low,Retail trade
3033035000,"Grove Industrial Products, Inc",DOWNERS GROVE,IL,60515,JPMORGAN CHASE BANK NATL ASSOC,IL,423730,3-Apr-08,2008,84,1,1,0,1,0,1,TRUE,FALSE,,30-Apr-08,20053,0,P I F,0,15000,7500,42,low,Wholesale trade
5638324010,FURNITURE WORLD,REDDING,CA,96001,BANK OF AMERICA NATL ASSOC,NC,442110,22-Aug-02,2002,84,1,1,0,1,1,1,TRUE,FALSE,,30-Sep-02,20053,0,P I F,0,20000,10000,44,low,Retail trade
9114524008,COPYMAX,VISTA,CA,92081,WELLS FARGO BANK NATL ASSOC,SD,561439,21-Sep-05,2005,60,1,1,0,1,1,1,TRUE,FALSE,,31-Jul-06,20053,0,P I F,0,35000,17500,56,low,Administrative/support & waste management/remediation Service
1384535000,"LASER SKIN CARE SOLUTIONS, LLC",NEEDHAM,MA,2492,CITIZENS BANK NATL ASSOC,RI,812112,22-Jul-05,2005,84,1,1,1,2,0,1,FALSE,FALSE,,30-Sep-05,20054,0,P I F,0,30000,15000,81,low,Other services (except public administration)
2231306001,LEJET PROPERTIES,HOUSTON,TX,77088,BANCO POPULAR NORTH AMERICA,NY,531110,14-Jul-06,2006,31,2,1,0,0,1,1,TRUE,FALSE,8-Mar-11,31-Aug-06,20054,0,CHGOFF,8553,10000,5000,53,high,Real estate and rental and leasing
3099835007,RAINDANCE ENTERPRISE INC,MADISON,WI,53705,ASSOCIATED BANK NATL ASSOC,WI,221310,21-May-08,2008,84,2,1,0,2,0,1,TRUE,FALSE,,30-Jun-08,20054,0,P I F,0,10000,5000,22,low,Utilities
7544924000,ATLANTIC COAST ADVENTURE COMPA,MIAMI,FL,33127,"CITIBANK, N.A.",FL,422330,22-Jun-04,2004,84,4,1,0,4,1,1,TRUE,FALSE,,31-Mar-05,20054,0,P I F,0,20000,10000,42,low,Wholesale trade
7328524004,B & K FURNITURE,LOS ANGELES,CA,90007,BANK OF AMERICA NATL ASSOC,NC,442110,5-Apr-04,2004,37,3,1,0,3,1,1,TRUE,FALSE,16-May-08,30-Apr-04,20055,0,CHGOFF,13790,20000,10000,44,high,Retail trade
1949545001,Flowers By Christy,SHELBY,OH,44875,JPMORGAN CHASE BANK NATL ASSOC,IL,812990,2-Aug-06,2006,84,5,2,0,5,0,2,TRUE,FALSE,,31-Aug-06,20056,0,P I F,0,10000,5000,81,low,Other services (except public administration)
3477265000,Home Tec Designers & Builders,NEW RICHMOND,WI,54017,1ST NATL BK OF RIVER FALLS,WI,236115,22-Jun-09,2009,78,3,1,0,3,0,1,FALSE,FALSE,,30-Jul-09,20058,0,P I F,0,35000,35000,23,low,Construction
1205495007,KU HO HONG DBA SKY CLEANERS,NORTH CHELMSFORD,MA,1863,CITIZENS BANK NATL ASSOC,RI,812320,23-Feb-05,2005,84,2,1,0,2,1,1,FALSE,FALSE,,31-Mar-05,20060,0,P I F,0,21000,10500,81,low,Other services (except public administration)
1621125000,Nabi's Shoes & Sportswear,SAN PABLO,CA,94806,BANK OF AMERICA NATL ASSOC,NC,451110,19-Jan-06,2006,84,2,1,0,2,0,1,TRUE,FALSE,,31-Jan-06,20060,0,P I F,0,20000,10000,45,low,Retail trade
6048724006,COATED TECHNICAL SOLUTIONS,NEWPORT,RI,2840,CITIZENS BANK NATL ASSOC,RI,541870,24-Jan-03,2003,84,1,1,0,1,1,2,TRUE,FALSE,,28-Feb-03,20060,0,P I F,0,5000,2500,54,low,"Professional, scientific, and technical services"
8642554005,LINDER MORTGAGE,HIGHLANDS RANCH,CO,80130,WELLS FARGO BANK NATL ASSOC,SD,522310,24-Feb-05,2005,45,1,1,0,1,1,1,TRUE,FALSE,12-May-08,31-Mar-05,20060,0,CHGOFF,9998,10000,5000,52,high,Finance and insurance
8936934007,CASTLE HILL MUSIC,NEW YORK,NY,10462,BANCO POPULAR NORTH AMERICA,NY,451140,17-Jun-05,2005,84,1,1,0,0,1,1,TRUE,FALSE,,31-Aug-05,20060,0,P I F,0,10000,5000,45,low,Retail trade
1437755001,"A.D.K., Inc",MARYSVILLE,WA,98270,BANK OF AMERICA NATL ASSOC,NC,722211,31-Aug-05,2005,84,15,1,0,15,0,1,TRUE,FALSE,,30-Sep-05,20061,0,P I F,0,10000,5000,72,low,Accommodation and food services 
5082125009,For Richer Or Poorer LLC,CLINTON TOWNSHIP,MI,48038,JPMORGAN CHASE BANK NATL ASSOC,IL,423930,16-Feb-12,2012,84,1,2,1,0,0,1,TRUE,FALSE,,16-Feb-12,20061,0,P I F,0,15000,7500,42,low,Wholesale trade
7213954004,KUT N UP CREW,INDIANAPOLIS,IN,46241,"PNC BANK, NATIONAL ASSOCIATION",IN,812112,25-Feb-04,2004,60,3,1,0,3,1,1,TRUE,FALSE,,30-Apr-04,20061,0,P I F,0,10000,5000,81,low,Other services (except public administration)
2519516004,POLISHED TO PERFECTION,MARLBORO,NJ,7746,BNB HANA BANK NATL ASSOC,NJ,812113,8-Nov-06,2007,84,6,2,6,6,1,1,TRUE,FALSE,,31-Dec-06,20062,0,P I F,0,10000,5000,81,low,Other services (except public administration)
3156565006,K & M Pacific Construction,Dallas,OR,97338,WEST COAST BANK,OR,236115,15-Jul-08,2008,60,1,1,0,1,0,2,TRUE,FALSE,,31-Jul-08,20062,0,P I F,0,5000,2500,23,low,Construction
7435214000,POPPLE RIVER PUB & GRUB,ARGONNE (NORTH CRANDON),WI,54511,BMO HARRIS BK NATL ASSOC,IL,722410,13-May-04,2004,82,2,1,0,0,1,1,TRUE,FALSE,,31-Jul-04,20062,0,P I F,0,5000,2500,72,low,Accommodation and food services 
2687116001,OPERON INC,HEALDSBURG,CA,95448,JPMORGAN CHASE BANK NATL ASSOC,IL,453930,23-Feb-07,2007,84,2,1,0,2,1,2,TRUE,FALSE,,31-Mar-07,20063,0,P I F,0,15000,7500,45,low,Retail trade
6704174006,DOLLY'S DONUTS,ARROYO GRANDE,CA,93240,BANK OF AMERICA NATL ASSOC,NC,722110,19-Sep-03,2003,84,4,1,0,4,1,2,TRUE,FALSE,,30-Sep-03,20063,0,P I F,0,20000,10000,72,low,Accommodation and food services 
7268714010,11TH AVENUE PRODUCTIONS INC,ROCHESTER,PA,15074,CITIZENS BANK NATL ASSOC,RI,512110,16-Mar-04,2004,48,4,1,0,4,1,1,TRUE,FALSE,9-Jan-08,31-Aug-04,20063,0,CHGOFF,5077,5000,2500,51,high,Information
1234105005,RAFAEL LEON DBA BAUHOUSE HAIR,WORCESTER,MA,1603,CITIZENS BANK NATL ASSOC,RI,812112,17-Mar-05,2005,84,5,2,2,7,1,1,FALSE,FALSE,,30-Sep-05,20064,0,P I F,0,52500,26250,81,low,Other services (except public administration)
4459765009,CHATHAM STAFFING INC,ATLANTA,GA,30339,WELLS FARGO BANK NATL ASSOC,SD,561320,21-Dec-10,2011,84,1,1,2,3,0,1,TRUE,FALSE,,1-Feb-11,20064,0,P I F,0,20000,10000,56,low,Administrative/support & waste management/remediation Service
1596165009,"Jorge C. Vazquez, P.A.",MIAMI,FL,33186,BANK OF AMERICA NATL ASSOC,NC,524291,28-Dec-05,2006,39,1,2,0,1,0,1,TRUE,FALSE,6-Oct-10,30-Nov-06,20065,0,CHGOFF,3635,10000,5000,52,high,Finance and insurance
1260435003,Simmons Paving LLC,EAST GRANBY,CT,6026,BANK OF AMERICA NATL ASSOC,NC,237310,7-Apr-05,2005,83,7,1,2,7,1,2,FALSE,FALSE,,30-Apr-05,20066,0,P I F,0,25000,12500,23,low,Construction
2179724008,TECHNICAL AUTOMOTIVE,EL MONTE,CA,91731,BANK OF AMERICA CALIFORNIA N.A,CA,811111,7-Jul-98,1998,84,1,1,0,0,1,0,TRUE,FALSE,,31-Aug-98,20067,0,P I F,0,20000,10000,81,low,Other services (except public administration)
2948165008,Nail-Lissas Nail Boutique Inc.,SOMERVILLE,NJ,8876,"PNC BANK, NATIONAL ASSOCIATION",DE,812113,11-Feb-08,2008,44,3,2,3,3,0,1,TRUE,FALSE,20-Jul-11,31-Mar-08,20067,0,CHGOFF,8241,10000,5000,81,high,Other services (except public administration)
7467344009,MANE SECRETS,ROCKLAND (TOWN OF),MA,2370,CITIZENS BANK NATL ASSOC,RI,812112,25-May-04,2004,60,41,1,0,1,1,1,TRUE,FALSE,,30-Jun-04,20067,0,P I F,0,20000,10000,81,low,Other services (except public administration)
1823814008,AUTO BODY SPECIALISTS,MANCHESTER,NH,3102,CITIZENS BANK NATL ASSOC,NH,811118,4-Feb-98,1998,60,1,1,0,0,1,0,TRUE,FALSE,,28-Feb-98,20068,0,P I F,0,20000,10000,81,low,Other services (except public administration)
9120194001,MICHAEL LONIGRO,CONNELLSVILLE,PA,15425,"PNC BANK, NATIONAL ASSOCIATION",DE,561621,23-Sep-05,2005,9,4,1,50,40,1,1,TRUE,FALSE,3-May-07,31-Oct-05,20068,0,CHGOFF,8316,10000,5000,56,high,Administrative/support & waste management/remediation Service
3190334004,LAKE MARY FEED STORE INC,LAKE MARY,FL,32749,THE HUNTINGTON NATIONAL BANK,OH,453998,21-Sep-99,1999,38,2,2,1,0,1,1,TRUE,FALSE,26-Oct-01,30-Nov-99,20070,0,CHGOFF,20070,20300,10150,45,high,Retail trade
1657124006,MITCHELL R. MILLER ATTORNEY AT,BEVERLY HILLS,CA,90212,BANK OF AMERICA CALIFORNIA N.A,CA,541110,31-Oct-97,1998,84,1,1,0,0,1,0,TRUE,FALSE,,30-Nov-97,20071,0,P I F,0,20000,10000,54,low,"Professional, scientific, and technical services"
6974064008,OUT OF THE BOX DESIGN INC,FOXBORO,MA,2035,CITIZENS BANK NATL ASSOC,RI,541512,28-Nov-03,2004,84,1,1,0,1,1,1,TRUE,FALSE,,31-Jan-04,20071,0,P I F,0,10000,5000,54,low,"Professional, scientific, and technical services"
7174754010,GINA L KELLER MFT,FRESNO,CA,93711,WELLS FARGO BANK NATL ASSOC,CA,621330,10-Feb-04,2004,36,1,1,0,1,1,1,TRUE,FALSE,,31-Mar-04,20071,0,P I F,0,10000,5000,62,low,Health care and social assistance
1926785000,David E Storey Insurance Agenc,FARMINGTON,MN,55024,U.S. BANK NATIONAL ASSOCIATION,OH,524210,18-Jul-06,2006,84,2,1,0,2,0,1,TRUE,FALSE,,31-Aug-06,20072,0,P I F,0,20000,10000,52,low,Finance and insurance
8942844000,IMPERIAL NOUGAT CO,SANTA FE SPRINGS,CA,90670,MUFG UNION BANK NATL ASSOC,CA,311919,22-Jun-05,2005,51,3,1,0,0,1,1,TRUE,FALSE,21-Apr-08,30-Jun-05,20072,0,P I F,9483,10000,5000,31,low,Manufacturing
6185254003,MICHELLES MISCELLANEOUS,NESHANNOCK,PA,16142,CITIZENS BANK NATL ASSOC,RI,451130,20-Mar-03,2003,84,1,1,0,1,1,1,TRUE,FALSE,,30-Jun-03,20073,0,P I F,0,5000,2500,45,low,Retail trade
2561125002,OLIVERIO SOLIS,PASADENA,TX,77502,WELLS FARGO BANK NATL ASSOC,SD,337110,9-Jul-07,2007,84,5,1,0,5,0,1,TRUE,FALSE,,31-Jul-07,20074,0,P I F,0,20000,10000,33,low,Manufacturing
1389245006,Higgins Marbel & Granite,NEW ORLEANS,LA,70123,JPMORGAN CHASE BANK NATL ASSOC,IL,235430,27-Jul-05,2005,84,2,2,0,2,0,1,TRUE,FALSE,,31-Jul-05,20075,0,P I F,0,20000,10000,23,low,Construction
1781795001,Jahan Jamshidi,SAN DIEGO,CA,92129,U.S. BANK NATIONAL ASSOCIATION,OH,541519,24-Apr-06,2006,84,1,1,0,1,0,1,TRUE,FALSE,,31-May-06,20075,0,P I F,0,20000,10000,54,low,"Professional, scientific, and technical services"
1805715005,"Love, Steven",Mill Creek,WA,98012,KEYBANK NATIONAL ASSOCIATION,OH,238340,8-May-06,2006,72,1,1,0,1,0,1,TRUE,FALSE,,31-May-06,20075,0,P I F,0,20000,10000,23,low,Construction
2847534006,EAST TEXAS COLLISION REPAIRLLC,TYLER,TX,75703,AUSTIN BANK TEXAS NATL ASSOC,TX,0,22-Mar-99,1999,60,2,2,0,0,1,0,FALSE,TRUE,,31-Mar-00,20075,0,P I F,0,22000,17600,0,low,
4964983003,PATTI CAKES,BIRMINGHAM,AL,35242,BANCORPSOUTH BANK,AL,0,10-Aug-92,1992,60,1,1,0,0,1,0,FALSE,FALSE,,31-Oct-92,20075,0,P I F,0,20075,18068,0,low,
1967345004,New Trends,Forsyth,IL,62535,"PNC BANK, NATIONAL ASSOCIATION",DE,448140,14-Aug-06,2006,49,1,2,1,1,0,2,TRUE,FALSE,11-Jun-14,31-Aug-08,20076,0,CHGOFF,6833,10000,5000,44,high,Retail trade
4438155004,"Phoenix Exhaust, Inc.",ECKLEY,CO,80727,JPMORGAN CHASE BANK NATL ASSOC,IL,336399,15-Dec-10,2011,84,2,2,2,4,0,1,TRUE,FALSE,,1-Jan-11,20077,0,P I F,0,20000,10000,33,low,Manufacturing
6249214002,LAD MANAGEMENT LLC,CONCORD,NH,3303,CITIZENS BANK NATL ASSOC,RI,531312,15-Apr-03,2003,84,1,1,0,1,1,1,TRUE,FALSE,,30-Jun-03,20077,0,P I F,0,10000,5000,53,low,Real estate and rental and leasing
1209385006,D & D BEST ONE CORPORATION,BENSENVILLE,IL,60106,CITIZENS BANK NATL ASSOC,RI,424610,28-Feb-05,2005,84,3,2,1,4,1,1,TRUE,FALSE,,30-Apr-05,20078,0,P I F,0,5000,2500,42,low,Wholesale trade
1802545007,Gerald W. Byron dba C & G Dryw,Ketchikan,AK,99901,KEYBANK NATIONAL ASSOCIATION,OH,238310,4-May-06,2006,20,1,1,0,1,0,1,TRUE,FALSE,12-Oct-10,31-May-06,20079,0,CHGOFF,5029,10000,5000,23,high,Construction
6831964010,ALLIANCE FOR REHABILITATION SE,CORAM,NY,11727,BANK OF AMERICA NATL ASSOC,RI,621340,23-Oct-03,2004,83,10,1,2,10,1,1,TRUE,FALSE,,31-Dec-03,20079,0,P I F,0,15500,7750,62,low,Health care and social assistance
8414434002,SHARLIE BEAUTY CENTER,YONKERS,NY,10704,HSBC BK USA NATL ASSOC,VA,446120,6-Jan-05,2005,3,2,1,0,2,1,1,TRUE,FALSE,9-Jan-08,31-Jan-05,20079,0,CHGOFF,6098,20000,10000,44,high,Retail trade
2570676001,CRAINE ENTERTAINMENT DESIGN,BROOKLYN,NY,11211,JPMORGAN CHASE BANK NATL ASSOC,IL,541430,8-Dec-06,2007,40,1,1,0,1,1,2,TRUE,FALSE,8-Oct-10,31-Dec-06,20080,0,CHGOFF,9220,10000,5000,54,high,"Professional, scientific, and technical services"
1326495003,Esperanza Cafeteria,MIAMI,FL,33130,BANK OF AMERICA NATL ASSOC,NC,722212,6-Jun-05,2005,28,3,2,0,6,1,1,TRUE,FALSE,22-Mar-10,30-Jun-05,20082,0,CHGOFF,5852,10000,5000,72,high,Accommodation and food services 
2136385009,Katie Peck,TUCSON,AZ,85713,BANK OF AMERICA NATL ASSOC,NC,812112,21-Nov-06,2007,18,1,1,0,1,0,1,TRUE,FALSE,22-Jun-12,30-Nov-06,20082,0,CHGOFF,6322,10000,5000,81,high,Other services (except public administration)
1068395004,God's Garden Treasures,MESA,AZ,85204,JPMORGAN CHASE BANK NATL ASSOC,IL,453110,24-Sep-04,2004,84,1,2,0,0,1,1,TRUE,FALSE,,31-Oct-04,20083,0,P I F,0,15000,7500,45,low,Retail trade
2797946004,BUILT TO LAST WOOD FLOORS INC,CRESWELL,OR,97426,JPMORGAN CHASE BANK NATL ASSOC,IL,238330,16-May-07,2007,48,2,1,0,2,1,2,TRUE,FALSE,7-Jul-10,31-May-07,20083,0,CHGOFF,8992,10000,5000,23,high,Construction
9741083010,"DOS AMIGOS INVESTMENTS, INC",CAVE CREEK,AZ,85331,WELLS FARGO BANK NATL ASSOC,SD,0,8-Nov-96,1997,84,30,1,0,0,1,0,TRUE,FALSE,,30-Jun-97,20083,0,P I F,0,25000,12500,0,low,
1633515007,"Total Health Holistic Center,",WORCESTER,MA,1608,BANK OF AMERICA NATL ASSOC,NC,621310,27-Jan-06,2006,84,2,1,0,2,0,1,TRUE,FALSE,,31-Jan-06,20085,0,P I F,0,10000,5000,62,low,Health care and social assistance
7494554008,BEAL'S PLUMBING LLC,RACINE,WI,53406,WELLS FARGO BANK NATL ASSOC,CA,238220,3-Jun-04,2004,36,1,1,0,1,1,1,TRUE,FALSE,,31-May-05,20085,0,P I F,0,15000,7500,23,low,Construction
1549635005,GMI CLEAN CORP.,SICKLERVILLE,NJ,8081,CITIZENS BANK NATL ASSOC,RI,812320,22-Nov-05,2006,49,2,1,0,2,0,1,FALSE,FALSE,11-Feb-09,31-Jul-06,20088,0,CHGOFF,25000,25000,12500,81,high,Other services (except public administration)
2893905007,Bennett Bridal Inc.,MOUNT VERNON,NY,10550,JPMORGAN CHASE BANK NATL ASSOC,IL,812990,7-Jan-08,2008,63,4,2,3,4,0,1,TRUE,FALSE,5-Aug-10,31-Jan-08,20088,0,CHGOFF,9994,10000,5000,81,high,Other services (except public administration)
9453154009,SILVERADO CLEANERS,TYLER,TX,75701,BANCO POPULAR NORTH AMERICA,NY,812320,16-Dec-05,2006,84,13,1,1,13,1,1,TRUE,FALSE,,31-Mar-06,20088,0,P I F,0,10000,5000,81,low,Other services (except public administration)
1343205010,"POINT SERVICE CENTERS, INC. DB",NORTH WALES,PA,19454,CITIZENS BANK NATL ASSOC,RI,811111,17-Jun-05,2005,84,6,2,0,6,1,1,FALSE,FALSE,,31-Oct-05,20089,0,P I F,0,50000,25000,81,low,Other services (except public administration)
2670445003,"Klinger, Inc.",BIRNAMWOOD,WI,54414,JPMORGAN CHASE BANK NATL ASSOC,IL,722110,30-Aug-07,2007,79,3,1,1,3,0,1,TRUE,FALSE,21-May-08,31-Oct-07,20089,0,CHGOFF,19939,20000,10000,72,high,Accommodation and food services 
5018145010,ADG PROPERTY TAX INC,CHICAGO,IL,60647,U.S. BANK NATIONAL ASSOCIATION,OH,541219,28-Dec-11,2012,84,1,1,0,0,0,1,TRUE,FALSE,,1-Feb-12,20089,0,P I F,0,10000,5000,54,low,"Professional, scientific, and technical services"
1718815002,"Jit Vij, Inc.",WAYCROSS,GA,31501,BANK OF AMERICA NATL ASSOC,NC,447110,18-Mar-06,2006,84,2,2,1,3,0,1,TRUE,FALSE,,31-Mar-06,20090,0,P I F,0,10000,5000,44,low,Retail trade
2659355010,Triple D Design,WATKINS,CO,80137,U.S. BANK NATIONAL ASSOCIATION,OH,541310,24-Aug-07,2007,84,1,2,0,1,0,1,TRUE,FALSE,,31-Aug-07,20090,0,P I F,0,12000,6000,54,low,"Professional, scientific, and technical services"
3716165003,"VINCENT E. PERKOWSKI DO, LLC",MASSILLON,OH,44646,CITIZENS BANK NATL ASSOC,RI,621111,27-Oct-09,2010,84,4,1,0,4,0,1,TRUE,FALSE,,1-Nov-09,20090,0,P I F,0,20000,10000,62,low,Health care and social assistance
1798745004,Imaginary Foundation,SAN FRANCISCO,CA,94117,BANK OF AMERICA NATL ASSOC,NC,339999,3-May-06,2006,84,2,1,0,2,0,1,TRUE,FALSE,,31-May-06,20091,0,P I F,0,20000,10000,33,low,Manufacturing
7731414006,ASPEN HOUSE PAINTING INC,CHASKA,MN,55318,WELLS FARGO BANK NATL ASSOC,CA,238320,25-Aug-04,2004,36,18,1,0,18,1,1,TRUE,FALSE,,31-Oct-04,20091,0,P I F,0,20000,10000,23,low,Construction
5983894007,STEVEN M PINCH LLC,WAKEFIELD,RI,2879,CITIZENS BANK NATL ASSOC,RI,541360,31-Dec-02,2003,84,1,1,0,1,1,2,TRUE,FALSE,,31-Jan-03,20092,0,P I F,0,10000,5000,54,low,"Professional, scientific, and technical services"
7713354008,BATTER CONCRETE INC,OMAHA,NE,68108,WELLS FARGO BANK NATL ASSOC,SD,238990,19-Aug-04,2004,0,8,1,2,8,1,1,TRUE,FALSE,24-Apr-08,30-Sep-04,20093,0,CHGOFF,10000,10000,5000,23,high,Construction
2543136008,FAIRBANKS MOTEL & MARINA LLC,CANADENSIS,PA,18325,BNB HANA BANK NATL ASSOC,NJ,721110,22-Nov-06,2007,84,14,2,14,14,1,1,TRUE,FALSE,,31-Jan-07,20094,0,P I F,0,10000,5000,72,low,Accommodation and food services 
5488484005,JOHN P FERRIERO VIDEO PRODUCTI,PITTSBURGH,PA,15239,CITIZENS BANK OF PENNSYLVANIA,PA,512110,25-Jun-02,2002,84,1,1,1,1,1,1,TRUE,FALSE,,31-Jul-02,20095,0,P I F,0,20000,10000,51,low,Information
2945435000,"SANITEX, INC.",ALLIANCE,OH,44601,CITIZENS BANK NATL ASSOC,RI,561720,8-Feb-08,2008,84,4,1,0,4,0,1,TRUE,FALSE,,29-Feb-08,20096,0,P I F,0,10000,5000,56,low,Administrative/support & waste management/remediation Service
3805624005,PARADISE LANDSCAPE MANAGEMENT,ATWATER,CA,95301,"CITIBANK, N.A.",CA,561730,22-Jun-00,2000,60,2,1,1,3,1,1,TRUE,FALSE,,30-Sep-00,20096,0,P I F,0,15000,7500,56,low,Administrative/support & waste management/remediation Service
1093495001,"Stark Enterprises, Inc.",CANTON,OH,44720,JPMORGAN CHASE BANK NATL ASSOC,IL,561621,29-Oct-04,2005,84,32,1,0,0,1,1,TRUE,FALSE,,30-Nov-04,20097,0,P I F,0,20000,10000,56,low,Administrative/support & waste management/remediation Service
2187574000,"CURTIS VISION CENTER,INC",HUGO,OK,74743,FIRST UNITED BK & TR CO,OK,621320,10-Jul-98,1998,60,4,1,0,0,1,0,FALSE,TRUE,,30-Apr-00,20098,0,P I F,0,20098,16078,62,low,Health care and social assistance
8576803002,DIAMOND J STEAMWAY,MERTZON,TX,76941,JPMORGAN CHASE BANK NATL ASSOC,IL,561740,8-Aug-95,1995,120,1,2,0,0,1,0,FALSE,TRUE,,31-Oct-95,20098,0,P I F,0,20098,18088,56,low,Administrative/support & waste management/remediation Service
1770155002,Seamus's Mobile Washing,LAS VEGAS,NV,89146,BANK OF AMERICA NATL ASSOC,NC,811192,17-Apr-06,2006,26,1,1,0,1,0,1,TRUE,FALSE,28-Apr-11,31-May-06,20099,0,CHGOFF,9218,10000,5000,81,high,Other services (except public administration)
1789965009,Whittier Sewing Machine Compan,St Clr Shores,MI,48082,"PNC BANK, NATIONAL ASSOCIATION",DE,337129,27-Apr-06,2006,32,2,1,2,2,0,1,TRUE,FALSE,6-Aug-13,31-May-06,20099,0,CHGOFF,6299,10000,5000,33,high,Manufacturing
5409684009,INFORMATION TECHNOLOGY & ENGIN,SOUTH DARTMOUTH,MA,2748,CITIZENS BANK NATL ASSOC,RI,611519,20-May-02,2002,84,1,1,0,1,1,1,TRUE,FALSE,,30-Jun-02,20099,0,P I F,0,20000,10000,61,low,Educational services
9030794000,ESCO INTERNATIONAL INC,AMERICAN FORK,UT,84003,WELLS FARGO BANK NATL ASSOC,CA,323118,9-Aug-05,2005,60,2,1,0,2,1,1,TRUE,FALSE,,30-Sep-06,20099,0,P I F,0,50000,25000,32,low,Manufacturing
1081955000,"Brent Nelson Appliances, Inc.",CAPE CORAL,FL,33993,BANK OF AMERICA NATL ASSOC,NC,443111,13-Oct-04,2005,84,3,2,0,0,1,1,TRUE,FALSE,,31-Oct-04,20100,0,P I F,0,10000,5000,44,low,Retail trade
1284835010,Robert W. Knott Jr. dba Qualit,Dayton,VA,22821,SUNTRUST BANK,GA,238990,27-Apr-05,2005,48,1,2,2,3,1,2,FALSE,FALSE,,31-May-05,20100,0,P I F,0,30000,15000,23,low,Construction
1373435010,Venus Tel,LAKE WORTH,FL,33463,BANK OF AMERICA NATL ASSOC,NC,453991,14-Jul-05,2005,84,1,1,0,1,0,1,TRUE,FALSE,,31-Jul-05,20100,0,P I F,0,15000,7500,45,low,Retail trade
1394895007,"SRI SAI, LLC",MAUMEE,OH,43537,CITIZENS BANK NATL ASSOC,RI,447190,1-Aug-05,2005,84,3,2,0,3,0,1,TRUE,FALSE,,31-Aug-05,20100,0,P I F,0,20000,10000,44,low,Retail trade
1664875002,Eagle Creek Landscapes LLC,IVINS,UT,84738,U.S. BANK NATIONAL ASSOCIATION,OH,238390,15-Feb-06,2006,72,2,1,0,2,0,2,FALSE,FALSE,,28-Feb-06,20100,0,P I F,0,20100,10050,23,low,Construction
1672605002,Peoples Law Network,ENCINO,CA,91316,U.S. BANK NATIONAL ASSOCIATION,OH,541199,21-Feb-06,2006,84,3,2,0,3,0,1,TRUE,FALSE,,30-Apr-08,20100,0,P I F,0,20000,10000,54,low,"Professional, scientific, and technical services"
1811635001,"American Eagle Logistics, Inc.",Livonia,MI,48152,BANK OF AMERICA NATL ASSOC,NC,484110,10-May-06,2006,84,10,2,0,10,0,1,TRUE,FALSE,,31-May-06,20100,0,P I F,0,20000,10000,48,low,Transportation and warehousing
1833945001,"Education Express, LLC",Bowling Green,OH,43402,KEYBANK NATIONAL ASSOCIATION,OH,451211,23-May-06,2006,72,2,1,0,0,0,1,TRUE,FALSE,,31-May-06,20100,0,P I F,0,10000,5000,45,low,Retail trade
2003495003,"Get Smart, Inc.",STONE MOUNTAIN,GA,30083,BANK OF AMERICA NATL ASSOC,NC,611691,6-Sep-06,2006,84,1,1,0,1,0,1,TRUE,FALSE,,30-Sep-06,20100,0,P I F,0,20100,10050,61,low,Educational services
2016765000,Rickey L Baldwin dba SkidSteer,TOOELE,UT,84074,HERITAGEWEST FCU,UT,238910,13-Sep-06,2006,84,1,2,0,1,0,1,FALSE,FALSE,,30-Sep-06,20100,0,P I F,0,20100,10050,23,low,Construction
2040105001,Precision Installations Inc,MEDINA,OH,44256,U.S. BANK NATIONAL ASSOCIATION,OH,238990,26-Sep-06,2006,36,7,2,0,7,0,1,FALSE,FALSE,,31-Oct-06,20100,0,P I F,0,20100,10050,23,low,Construction
2046495003,K & K Plumbing Inc.,PORT WASHINGTON,NY,11050,JPMORGAN CHASE BANK NATL ASSOC,IL,238220,28-Sep-06,2006,84,5,2,1,5,0,1,TRUE,FALSE,,31-Jan-09,20100,0,P I F,0,20000,10000,23,low,Construction
2104595008,Straus Tobacconist of Lexingto,LEXINGTON,KY,40507,U.S. BANK NATIONAL ASSOCIATION,OH,453991,2-Nov-06,2007,48,6,1,0,6,0,1,FALSE,FALSE,,30-Nov-06,20100,0,P I F,0,20100,10050,45,low,Retail trade
2193085009,"ADVANCED PNEUMATICS, INC.",MENTOR,OH,44060,U.S. BANK NATIONAL ASSOCIATION,OH,423810,26-Dec-06,2007,60,7,1,0,7,0,1,FALSE,FALSE,,31-Dec-06,20100,0,P I F,0,20100,10050,42,low,Wholesale trade
2205366004,MAG DIRECT LLC,BURIEN,WA,98146,JPMORGAN CHASE BANK NATL ASSOC,IL,524210,5-Jul-06,2006,84,1,1,1,1,1,2,TRUE,FALSE,,31-Jul-06,20100,0,P I F,0,10000,5000,52,low,Finance and insurance
2252535003,Basic Training PFC,GLENDALE,CA,91203,BANK OF AMERICA NATL ASSOC,NC,713940,1-Feb-07,2007,84,1,2,0,1,0,1,TRUE,FALSE,,31-Mar-07,20100,0,P I F,0,20000,10000,71,low,"Arts, entertainment, and recreation"
2455866004,LA MOTT 7 PROPERTIES,TEMECULA,CA,92592,MUFG UNION BANK NATL ASSOC,CA,531390,4-Oct-06,2007,84,1,2,0,1,1,1,TRUE,FALSE,,31-Oct-06,20100,0,P I F,0,10000,5000,53,low,Real estate and rental and leasing
2685545001,BOISE NETWORKS L.L.C.,BOISE,ID,83709,U.S. BANK NATIONAL ASSOCIATION,OH,541512,7-Sep-07,2007,60,2,2,1,3,0,1,FALSE,FALSE,,30-Sep-07,20100,0,P I F,0,20100,17085,54,low,"Professional, scientific, and technical services"
2794805006,Arko Express LLC,GRAND RAPIDS,MI,49508,"PNC BANK, NATIONAL ASSOCIATION",DE,484110,5-Nov-07,2008,60,10,2,2,12,0,2,FALSE,FALSE,,30-Nov-07,20100,0,P I F,0,20100,10050,48,low,Transportation and warehousing
2859464006,STAR STUDIO,LINGLE,WY,82223,POINTS WEST COMMUNITY BANK,WY,541921,29-Mar-99,1999,84,1,1,0,0,1,0,FALSE,TRUE,,31-May-99,20100,0,P I F,0,20100,16080,54,low,"Professional, scientific, and technical services"
2867095009,"NJG ENTERPRISES, INC.",SAN MARCOS,CA,92078,U.S. BANK NATIONAL ASSOCIATION,OH,531210,17-Dec-07,2008,84,3,2,0,3,0,1,TRUE,FALSE,,31-Jan-09,20100,0,P I F,0,20000,10000,53,low,Real estate and rental and leasing
2869874004,SHEAR GENIUS,SOMERSET,KY,42503,FORCHT BANK NATL ASSOC,KY,812112,2-Apr-99,1999,84,4,2,0,0,1,0,FALSE,TRUE,,30-Apr-99,20100,0,P I F,0,20100,16080,81,low,Other services (except public administration)
2950115003,Everest Realty,SOMERVILLE,MA,2144,BANK OF AMERICA NATL ASSOC,NC,531210,12-Feb-08,2008,84,2,1,0,2,0,1,TRUE,FALSE,,29-Feb-08,20100,0,P I F,0,10000,5000,53,low,Real estate and rental and leasing
3062514005,THE MUFFLER SHOP,LUFKIN,TX,75902,"COMMERCIAL BANK OF TEXAS, N.A.",TX,811118,13-Jul-99,1999,48,2,2,0,0,1,1,FALSE,TRUE,,31-Oct-99,20100,0,P I F,0,20100,16080,81,low,Other services (except public administration)
3098315002,"Mid-States Resurfacing, Inc.",LAWRENCE,KS,66049,DOUGLAS COUNTY BANK,KS,811310,20-May-08,2008,4,5,1,0,5,0,1,FALSE,FALSE,,31-May-08,20100,0,P I F,0,20100,10050,81,low,Other services (except public administration)
3191114010,ALLUSIVE CARATIONS THE DAY SPA,OVERLAND PARK,KS,66221,ENTERPRISE BANK & TRUST,KS,0,21-Sep-99,1999,48,4,2,2,2,1,1,FALSE,FALSE,31-May-01,31-Oct-99,20100,0,CHGOFF,16345,35000,28000,0,high,
3273615007,Halls Crown & Bridge Inc,GILBERT,AZ,85297,U.S. BANK NATIONAL ASSOCIATION,OH,621210,26-Nov-08,2009,60,2,2,0,2,0,1,FALSE,FALSE,,30-Nov-08,20100,0,P I F,0,20100,10050,62,low,Health care and social assistance
3317194008,C & W COMPANY INC,PROVIDENCE,RI,2905,CITIZENS BANK NATL ASSOC,RI,331522,27-Oct-99,2000,83,1,1,0,1,1,1,TRUE,FALSE,,30-Nov-99,20100,0,P I F,0,20000,10000,33,low,Manufacturing
3362885009,"The Play Therapy Center, Inc.",YORK,PA,17403,SANTANDER BANK NATL ASSOC,DE,624190,2-Apr-09,2009,60,1,1,1,3,0,1,TRUE,FALSE,,30-Apr-09,20100,0,P I F,0,10000,5000,62,low,Health care and social assistance
3382485004,Pendleton and Sutton Attorneys,LAWRENCE,KS,66044,DOUGLAS COUNTY BANK,KS,541110,16-Apr-09,2009,36,11,1,0,0,0,2,FALSE,FALSE,,30-Apr-09,20100,0,P I F,0,20100,10050,54,low,"Professional, scientific, and technical services"
3499555005,Our Baby,CHICAGO,IL,60618,JPMORGAN CHASE BANK NATL ASSOC,IL,442110,6-Jul-09,2009,84,2,2,2,3,0,1,FALSE,FALSE,,31-Aug-09,20100,0,P I F,0,20100,10050,44,low,Retail trade
3663365010,"SEVERED HEAD ENTERTAINMENT, LT",CRESTHILL,IL,60403,JPMORGAN CHASE BANK NATL ASSOC,IL,512110,29-Sep-09,2009,84,1,1,1,1,0,1,FALSE,FALSE,,1-Oct-09,20100,0,P I F,0,20100,10050,51,low,Information
3682245004,"TYMPF Co., Inc.",BROOKLYN,NY,11223,JPMORGAN CHASE BANK NATL ASSOC,IL,485999,7-Oct-09,2010,60,25,1,2,25,0,1,FALSE,FALSE,,7-Oct-09,20100,0,P I F,0,20100,10050,48,low,Transportation and warehousing
3808565002,Canemo 14 Corporation,BRONX,NY,10452,JPMORGAN CHASE BANK NATL ASSOC,IL,484110,15-Dec-09,2010,84,1,2,1,1,0,1,FALSE,FALSE,,15-Dec-09,20100,0,P I F,0,20100,10050,48,low,Transportation and warehousing
3848775000,"Yogir Group, Inc.",SAN DIEGO,CA,92130,JPMORGAN CHASE BANK NATL ASSOC,IL,722211,9-Jan-10,2010,84,6,1,0,6,0,1,FALSE,FALSE,,9-Jan-10,20100,0,P I F,0,20400,10200,72,low,Accommodation and food services 
3972565004,4H Trans Inc,Superior Township,MI,48198,JPMORGAN CHASE BANK NATL ASSOC,IL,484110,17-Mar-10,2010,84,1,1,0,1,0,1,FALSE,FALSE,,1-Apr-10,20100,0,P I F,0,20100,10050,48,low,Transportation and warehousing
3985085001,King's Landscaping and Snow Re,Neosho,MO,64850,SOUTHWEST MISSOURI BANK,MO,561730,23-Mar-10,2010,24,2,2,2,2,0,2,FALSE,FALSE,,23-Mar-10,20100,0,P I F,0,20100,10050,56,low,Administrative/support & waste management/remediation Service
4238075010,"CUSTOM 4LOORS OF NEW ALBANY, I",NEW ALBANY,OH,43054,U.S. BANK NATIONAL ASSOCIATION,OH,442210,2-Sep-10,2010,36,1,1,0,1,0,1,FALSE,FALSE,,2-Sep-10,20100,0,P I F,0,20100,10050,44,low,Retail trade
4308585006,Brian L Walls,LAFAYETTE,IN,47909,JPMORGAN CHASE BANK NATL ASSOC,IL,424590,12-Oct-10,2011,84,1,2,1,0,0,1,FALSE,FALSE,,12-Oct-10,20100,0,P I F,0,20100,10050,42,low,Wholesale trade
4334104010,WALLACE POPE,MCCOMB,MS,39648,TRUSTMARK NATIONAL BANK,MS,523930,26-Feb-01,2001,73,1,1,0,1,1,1,TRUE,FALSE,,31-Mar-01,20100,0,P I F,0,20100,10050,52,low,Finance and insurance
4391284003,TIGRET INC,BRANDON,MS,39042,TRUSTMARK NATIONAL BANK,MS,561499,23-Mar-01,2001,36,7,1,5,2,1,2,TRUE,FALSE,,30-Apr-01,20100,0,P I F,0,20100,10050,56,low,Administrative/support & waste management/remediation Service
4696573001,"MAYO FIRE & SAFETY, INC.",NEW BOSTON,MA,75501,BANCORPSOUTH BANK,TX,0,29-Jan-92,1992,60,2,1,0,0,1,0,FALSE,FALSE,,30-Apr-92,20100,0,P I F,0,20100,18090,0,low,
4851765003,NJD LLC.,LEES SUMMIT,MO,64064,U.S. BANK NATIONAL ASSOCIATION,OH,424490,2-Sep-11,2011,60,1,2,0,1,0,1,FALSE,FALSE,,2-Sep-11,20100,0,P I F,0,20100,10050,42,low,Wholesale trade
4865735006,"Karl J. Alder, CPA P.C.",MESA,AZ,85206,JPMORGAN CHASE BANK NATL ASSOC,IL,541211,14-Sep-11,2011,84,1,1,0,1,0,1,FALSE,FALSE,,14-Sep-11,20100,0,P I F,0,20100,10050,54,low,"Professional, scientific, and technical services"
4876493009,SIMPLE PLEASURES CAFE,ST ALBANS,VT,5478,CHITTENDEN TR COMPANY A DIVISI,VT,0,9-Jun-92,1992,60,4,1,0,0,1,0,FALSE,FALSE,,31-Jul-92,20100,0,P I F,0,28000,22400,0,low,
4915744001,CARIBE TAN,HUDSON,NH,3051,CITIZENS BANK NATL ASSOC,NH,812199,17-Sep-01,2001,84,1,1,0,1,1,1,TRUE,FALSE,,30-Nov-01,20100,0,P I F,0,20000,10000,81,low,Other services (except public administration)
4974724006,KARPET KLINIC INC,CRANSTON,RI,2910,CITIZENS BANK NATL ASSOC,RI,442210,11-Oct-01,2002,84,3,1,0,3,1,1,TRUE,FALSE,,31-Mar-04,20100,0,P I F,0,20000,10000,44,low,Retail trade
5019675007,Wyatt Poultry Farm,Haynesville,LA,71038,FIRST FINANCIAL BANK,AR,112320,29-Dec-11,2012,12,2,1,0,2,0,2,FALSE,FALSE,,1-Jan-12,20100,0,P I F,0,20100,17085,11,low,"Agriculture, forestry, fishing and hunting"
5132045008,SOD WORKS OF TOWNSEND,TOWNSEND,MT,59644,VALLEY BK OF HELENA A DIVISION,MT,111421,22-Mar-12,2012,9,2,1,0,2,0,2,FALSE,FALSE,,22-Mar-12,20100,0,P I F,0,20100,17085,11,low,"Agriculture, forestry, fishing and hunting"
5210404009,ALAN W GAGNON PLUMBING & HEATI,MANCHESTER,NH,3109,CITIZENS BANK NATL ASSOC,NH,235110,12-Feb-02,2002,84,7,1,0,7,1,1,TRUE,FALSE,,30-Jun-03,20100,0,P I F,0,20000,10000,23,low,Construction
5220004000,WOLFEBORO INSURANCE AGENCY,WOLFEBORO,NH,3894,CITIZENS BANK NATL ASSOC,RI,524210,16-Feb-02,2002,84,1,1,0,1,1,1,TRUE,FALSE,,30-Apr-05,20100,0,P I F,0,20000,10000,52,low,Finance and insurance
5263715008,Kalos Inc,RAPID CITY,SD,57701,U.S. BANK NATIONAL ASSOCIATION,OH,541620,13-Jun-12,2012,60,1,2,0,0,0,1,FALSE,FALSE,,13-Jun-12,20100,0,P I F,0,20100,10050,54,low,"Professional, scientific, and technical services"
5266334000,QUIVETT CREEK LANDSCAPING,EAST DENNIS,MA,2641,CITIZENS BANK NATL ASSOC,MA,541320,11-Mar-02,2002,84,3,1,0,3,1,1,TRUE,FALSE,,30-Apr-05,20100,0,P I F,0,20000,10000,54,low,"Professional, scientific, and technical services"
5270284001,WHIMSICAL WALLS STENCIL CO LLC,ROCHESTER,NH,3867,CITIZENS BANK NATL ASSOC,RI,339943,13-Mar-02,2002,84,2,1,0,2,1,1,TRUE,FALSE,,31-Mar-02,20100,0,P I F,0,20000,10000,33,low,Manufacturing
5282325004,Dr Parrish Rice & Dr Janet Wel,Waltham,MA,2453,EASTERN BANK,MA,621310,25-Jun-12,2012,60,2,1,0,2,0,1,TRUE,FALSE,,1-Sep-12,20100,0,P I F,0,20100,10050,62,low,Health care and social assistance
5406325007,"K & G Trans, LLC",Grand Rapids,MI,49506,THE HUNTINGTON NATIONAL BANK,OH,484121,11-Sep-12,2012,24,2,1,1,2,0,1,FALSE,FALSE,,1-Oct-12,20100,0,P I F,0,20100,10050,48,low,Transportation and warehousing
5520344010,SUSAN SHOWALTER BUCHER,PITTSBURGH,PA,5209,CITIZENS BANK NATL ASSOC,RI,611420,10-Jul-02,2002,84,1,1,0,1,1,1,TRUE,FALSE,,29-Feb-04,20100,0,P I F,0,20000,10000,61,low,Educational services
5546355007,"Saturn Tech, LLC",Farmington Hills,MI,48335,JPMORGAN CHASE BANK NATL ASSOC,IL,541511,8-Nov-12,2013,60,30,1,6,0,0,1,FALSE,FALSE,,8-Nov-12,20100,0,P I F,0,20100,10050,54,low,"Professional, scientific, and technical services"
5671974008,CARRCON LLC,ROLLINSFORD (SALMON FALLS),NH,3869,CITIZENS BANK NATL ASSOC,NH,235510,6-Sep-02,2002,84,1,1,2,2,1,1,TRUE,FALSE,,30-Sep-02,20100,0,P I F,0,15000,7500,23,low,Construction
5876814010,ARAMSCO NURSING SERVICES,WOONSOCKET,RI,2895,CITIZENS BANK NATL ASSOC,RI,621399,18-Nov-02,2003,84,3,1,0,3,1,2,TRUE,FALSE,,31-Jan-05,20100,0,P I F,0,20000,10000,62,low,Health care and social assistance
5916664008,MACES MOTORCYCLE SERVICE,MOUNT PLEASANT,PA,15666,CITIZENS BANK NATL ASSOC,RI,811111,4-Dec-02,2003,84,1,1,0,1,1,1,TRUE,FALSE,,31-Dec-02,20100,0,P I F,0,20000,10000,81,low,Other services (except public administration)
5973834007,M H PAINT WORKS,SHREWSBURY,MA,1545,CITIZENS BANK NATL ASSOC,RI,235210,24-Dec-02,2003,84,1,1,0,1,1,1,TRUE,FALSE,,28-Feb-05,20100,0,P I F,0,20000,10000,23,low,Construction
5990234006,ROBERT J PROVANZANO CPA PC,SWAMPSCOTT,MA,1907,CITIZENS BANK NATL ASSOC,MA,541211,3-Jan-03,2003,84,1,1,0,1,1,1,TRUE,FALSE,,31-Oct-03,20100,0,P I F,0,20000,10000,54,low,"Professional, scientific, and technical services"
6103464004,BRIDALS BY RITA INC,ARLINGTON,MA,2474,CITIZENS BANK NATL ASSOC,MA,448120,14-Feb-03,2003,84,1,1,0,1,1,1,TRUE,FALSE,,31-Mar-03,20100,0,P I F,0,20000,10000,44,low,Retail trade
6127084002,CLEAN VIBES INC,PORTSMOUTH,NH,3801,CITIZENS BANK NATL ASSOC,NH,562998,25-Feb-03,2003,84,15,1,0,15,1,1,TRUE,FALSE,,30-Apr-03,20100,0,P I F,0,10000,5000,56,low,Administrative/support & waste management/remediation Service
6222824008,SPRINGER AIR BASE,CLOVIS,NM,88101,U.S. BANK NATIONAL ASSOCIATION,NM,339932,3-Apr-03,2003,60,2,1,0,0,1,2,FALSE,TRUE,,31-Aug-03,20100,0,P I F,0,20100,17085,33,low,Manufacturing
6256654003,AT HOME REALTY LLC,HADDAM,CT,6438,CITIZENS BANK NATL ASSOC,CT,531210,18-Apr-03,2003,84,1,1,0,1,1,2,TRUE,FALSE,,31-May-03,20100,0,P I F,0,20000,10000,53,low,Real estate and rental and leasing
6257444001,9 MONTHS INC,BROOKLINE,MA,2446,CITIZENS BANK NATL ASSOC,RI,448130,18-Apr-03,2003,84,2,1,2,4,1,1,TRUE,FALSE,,31-May-03,20100,0,P I F,0,20000,10000,44,low,Retail trade
6285645006,MITASIE 3,HUNTINGTON BEACH,CA,92647,U.S. BANK NATIONAL ASSOCIATION,OH,722511,3-Jul-13,2013,12,3,1,1,0,0,1,FALSE,FALSE,,3-Jul-13,20100,0,P I F,0,20100,10050,72,low,Accommodation and food services 
6484714010,LEININGER AUTO SERVICE,OAKDALE,PA,15071,CITIZENS BANK NATL ASSOC,RI,811111,11-Jul-03,2003,84,3,1,1,4,1,1,TRUE,FALSE,,31-Oct-04,20100,0,P I F,0,20000,10000,81,low,Other services (except public administration)
6560004001,THE LEAMAN HOUSE STUDIO,LANCASTER,PA,17602,CITIZENS BANK OF PENNSYLVANIA,PA,453220,5-Aug-03,2003,84,2,1,0,2,1,1,TRUE,FALSE,,30-Sep-03,20100,0,P I F,0,20000,10000,45,low,Retail trade
6594094004,CHIROCARE INC,WILMINGTON,DE,19806,CENTRAL MINNESOTA CU,MN,621310,15-Aug-03,2003,84,1,1,0,1,1,1,TRUE,FALSE,,31-Oct-03,20100,0,P I F,0,20000,10000,62,low,Health care and social assistance
6626194005,HEALTHCARE PROFESSIONAL SERVIC,QUINCY,MA,2169,CITIZENS BANK NATL ASSOC,RI,561310,26-Aug-03,2003,31,60,1,30,90,1,1,TRUE,FALSE,7-May-08,31-Oct-03,20100,0,CHGOFF,17375,20000,10000,56,high,Administrative/support & waste management/remediation Service
6649044009,KERR'S TIRE KORNER,ERIE,PA,16501,CITIZENS BANK OF PENNSYLVANIA,PA,811111,3-Sep-03,2003,84,8,1,0,8,1,1,TRUE,FALSE,,31-Jan-04,20100,0,P I F,0,20000,10000,81,low,Other services (except public administration)
6659764006,L&C CATERING LLC,HOBBS,NM,88240,BANK OF AMERICA NATL ASSOC,NC,722320,5-Sep-03,2003,84,25,1,0,25,1,2,FALSE,FALSE,,30-Sep-03,20100,0,P I F,0,20100,10050,72,low,Accommodation and food services 
6674964005,VARANI FORMAL WEAR,LANSDALE,PA,19446,CITIZENS BANK NATL ASSOC,RI,532220,11-Sep-03,2003,52,1,1,0,1,1,1,TRUE,FALSE,15-Dec-06,31-Dec-03,20100,0,CHGOFF,19493,20000,10000,53,high,Real estate and rental and leasing
6730854002,INSIGHT MEDIA,NASHUA,NH,3060,CITIZENS BANK NATL ASSOC,RI,512110,26-Sep-03,2003,84,1,1,0,1,1,1,TRUE,FALSE,,31-Dec-04,20100,0,P I F,0,20000,10000,51,low,Information
6854444010,DASCOR,ESCONDIDO,CA,92026,BANK OF AMERICA NATL ASSOC,NC,334511,29-Oct-03,2004,13,1,1,0,1,1,1,FALSE,FALSE,3-Dec-09,30-Nov-03,20100,0,CHGOFF,8557,17300,8650,33,high,Manufacturing
7033564008,DEYCH REALTY,REVERE,MA,2132,CITIZENS BANK NATL ASSOC,RI,531210,15-Dec-03,2004,84,1,1,0,1,1,1,TRUE,FALSE,,30-Apr-05,20100,0,P I F,0,10000,5000,53,low,Real estate and rental and leasing
7046654010,ROBERTA'S LAMP & SHADE SHOP,LOWER BURRELL,PA,15068,CITIZENS BANK OF PENNSYLVANIA,PA,453310,18-Dec-03,2004,84,1,1,0,1,1,1,TRUE,FALSE,,31-Jan-04,20100,0,P I F,0,20000,10000,45,low,Retail trade
7141734008,DILIGENT ELECTRICAL SERVICE IN,NEWTON,MA,2459,CITIZENS BANK NATL ASSOC,MA,238210,30-Jan-04,2004,84,1,1,1,2,1,1,TRUE,FALSE,,30-Apr-05,20100,0,P I F,0,20000,10000,23,low,Construction
7210754008,DRESDEN DOLLS,BOSTON,MA,2118,CITIZENS BANK NATL ASSOC,MA,711130,24-Feb-04,2004,84,3,1,2,3,1,1,TRUE,FALSE,,31-Aug-05,20100,0,P I F,0,20000,10000,71,low,"Arts, entertainment, and recreation"
7343754001,RIGNEY TREE SERVICE AND LAWN C,STUART,VA,24171,SURREY BANK & TRUST,NC,541990,9-Apr-04,2004,37,1,1,0,1,1,2,FALSE,FALSE,,30-Apr-04,20100,0,P I F,0,20100,10050,54,low,"Professional, scientific, and technical services"
7354184002,BELMONT FACILITY MAINTENANCE A,BELMONT,NH,3220,CITIZENS BANK NATL ASSOC,RI,561720,14-Apr-04,2004,84,2,1,0,2,1,1,TRUE,FALSE,,30-Apr-04,20100,0,P I F,0,20000,10000,56,low,Administrative/support & waste management/remediation Service
7368614001,WATERWHEEL LIQUORS,SOUTH YARMOUTH,MA,2664,CITIZENS BANK NATL ASSOC,RI,445310,20-Apr-04,2004,84,3,1,0,3,1,1,TRUE,FALSE,,31-Aug-05,20100,0,P I F,0,20000,10000,44,low,Retail trade
7376754008,"GET FIRED UP, LLC",NIANTIC (EAST LYME (STA.)),CT,6357,CITIZENS BANK NATL ASSOC,RI,327112,22-Apr-04,2004,30,6,1,1,6,1,2,TRUE,FALSE,27-Jul-10,30-Apr-04,20100,0,CHGOFF,7383,20000,10000,32,high,Manufacturing
7385064004,VALLEY VIEW TREE INC,WEST CHESTER,PA,19382,CITIZENS BANK NATL ASSOC,RI,541310,26-Apr-04,2004,84,2,1,0,2,1,1,TRUE,FALSE,,31-Aug-05,20100,0,P I F,0,20000,10000,54,low,"Professional, scientific, and technical services"
7528754008,IMAGIN INC,BEDMINSTER,PA,19020,CITIZENS BANK OF PENNSYLVANIA,PA,532411,16-Jun-04,2004,84,4,1,0,1,1,1,TRUE,FALSE,,31-Jul-04,20100,0,P I F,0,20000,10000,53,low,Real estate and rental and leasing
7549304001,CE AUTOMATION INC,NORWOOD (TOWN OF),MA,2062,CITIZENS BANK NATL ASSOC,MA,611420,23-Jun-04,2004,84,2,1,0,2,1,1,TRUE,FALSE,,30-Nov-05,20100,0,P I F,0,20000,10000,61,low,Educational services
7570364002,TRINITY STAINED GLASS & WINDMI,WARWICK (RR NAME APPONAUG),RI,3738,CITIZENS BANK NATL ASSOC,RI,453998,30-Jun-04,2004,84,1,1,0,1,1,2,TRUE,FALSE,,31-Jan-06,20100,0,P I F,0,20000,10000,45,low,Retail trade
8414564006,TNL MANAGEMENT LLC,MERIDIAN,ID,83642,MOUNTAIN W. BANK A DIVISION OF,ID,531311,6-Jan-05,2005,84,1,2,0,1,1,1,TRUE,FALSE,,28-Feb-05,20100,0,P I F,0,20000,10000,53,low,Real estate and rental and leasing
8430543004,COURTYARD POOL & SPA,IRVINE,CA,92714,WELLS FARGO BANK NATL ASSOC,CA,0,15-Jun-95,1995,84,2,1,0,0,1,0,FALSE,TRUE,,30-Apr-96,20100,0,P I F,0,20100,18090,0,low,
8730694001,SELLPRO INC,BETTENDORF,IA,52722,U.S. BANK NATIONAL ASSOCIATION,OH,454112,23-Mar-05,2005,84,6,1,0,6,1,1,TRUE,FALSE,,31-May-06,20100,0,P I F,0,20000,10000,45,low,Retail trade
1368025000,"STARTERS GROUP,LLC.",CHICAGO,IL,60617,CITIZENS BANK NATL ASSOC,RI,811490,8-Jul-05,2005,84,2,1,0,2,0,1,TRUE,FALSE,,31-Jul-05,20101,0,P I F,0,10000,5000,81,low,Other services (except public administration)
2733146001,EZYLINK DATA SERVICES INC,CORONA,CA,92882,BANCO POPULAR NORTH AMERICA,NY,561320,28-Mar-07,2007,25,4,1,0,4,1,1,TRUE,FALSE,11-Jun-13,31-May-08,20101,0,CHGOFF,7951,10000,5000,56,high,Administrative/support & waste management/remediation Service
2962156008,SMOOTH LIMOUSINE INC,LAKEWOOD,CA,90712,JPMORGAN CHASE BANK NATL ASSOC,IL,485320,29-Aug-07,2007,84,2,1,0,2,1,1,TRUE,FALSE,,31-Oct-07,20101,0,P I F,0,20000,10000,48,low,Transportation and warehousing
6500614005,DAVE'S RINGOES SUNOCO SERVICE,RINGOES,NJ,8551,"COMMERCE BANK, A DIVISION OF",PA,811111,17-Jul-03,2003,72,4,1,0,4,1,1,TRUE,FALSE,,31-Aug-04,20101,0,P I F,0,50000,25000,81,low,Other services (except public administration)
6585744007,SAFETY TRAINING SEMINARS,SAN FRANCISCO,CA,94118,BANK OF AMERICA NATL ASSOC,NC,541613,13-Aug-03,2003,84,2,1,0,2,1,1,TRUE,FALSE,,31-Aug-03,20101,0,P I F,0,20000,10000,54,low,"Professional, scientific, and technical services"
2070715008,C.S. Wurzberger dba Premiere W,South Portland,ME,4106,KEYBANK NATIONAL ASSOCIATION,OH,518111,16-Oct-06,2007,72,1,2,3,1,0,1,TRUE,FALSE,,31-Oct-06,20102,0,P I F,0,10000,5000,51,low,Information
8129364006,ST. LOUIS HALAL MEAT GROCERY,GLEN CARBON,IL,62034,U.S. BANK NATIONAL ASSOCIATION,OH,445110,17-Nov-04,2005,84,1,2,2,3,1,1,TRUE,FALSE,,31-Jan-05,20102,0,P I F,0,20000,10000,44,low,Retail trade
2040195006,GAIL N TULLY,MINNEAPOLIS,MN,55431,U.S. BANK NATIONAL ASSOCIATION,OH,711510,26-Sep-06,2006,84,1,2,0,1,0,1,TRUE,FALSE,,30-Sep-06,20103,0,P I F,0,10000,5000,71,low,"Arts, entertainment, and recreation"
3021015008,"I.W.'s Unique Designs, Inc.",BRONX,NY,10468,JPMORGAN CHASE BANK NATL ASSOC,IL,448310,27-Mar-08,2008,84,1,2,0,1,0,1,TRUE,FALSE,,31-Mar-08,20103,0,P I F,0,10000,5000,44,low,Retail trade
1301965006,MICHAEL COHEN,COLUMBUS,OH,43215,"PNC BANK, NATIONAL ASSOCIATION",OH,523999,13-May-05,2005,60,1,1,0,1,1,1,TRUE,FALSE,,30-Jun-05,20104,0,P I F,0,10000,5000,52,low,Finance and insurance
5967794001,JILL VACARRA,SANTA MONICA,CA,90403,BANK OF AMERICA NATL ASSOC,NC,541490,20-Dec-02,2003,5,1,1,0,1,1,1,FALSE,FALSE,16-Sep-09,31-Jan-03,20104,0,CHGOFF,5823,20000,10000,54,high,"Professional, scientific, and technical services"
6664044007,RUMORS,DALHART,TX,79022,WELLS FARGO BANK NATL ASSOC,SD,448210,8-Sep-03,2003,82,2,1,0,2,1,2,TRUE,FALSE,20-Aug-05,31-Oct-03,20104,0,CHGOFF,19999,20000,10000,44,high,Retail trade
1357585009,"E. TEN BROECK, LLC",WEST CHESTER,PA,19382,CITIZENS BANK NATL ASSOC,RI,541219,30-Jun-05,2005,84,1,2,0,1,0,1,FALSE,FALSE,,31-Aug-05,20105,0,P I F,0,23000,11500,54,low,"Professional, scientific, and technical services"
7431944010,TOTAL PROTECTION INC,WEST JORDAN,UT,84084,ZIONS FIRST NATIONAL BANK,UT,561621,12-May-04,2004,12,4,1,4,4,1,1,TRUE,FALSE,,31-May-04,20105,0,P I F,0,12000,6000,56,low,Administrative/support & waste management/remediation Service
1688225000,"Jdbaker Technologies, LLC.",DALLAS,TX,75287,BANK OF AMERICA NATL ASSOC,NC,511210,1-Mar-06,2006,84,1,1,0,1,0,1,TRUE,FALSE,,31-Oct-06,20106,0,P I F,0,17000,8500,51,low,Information
2274495005,"Cincinnati Yoga School, Inc.",CINCINNATI,OH,45242,U.S. BANK NATIONAL ASSOCIATION,OH,611620,13-Feb-07,2007,48,2,1,0,2,0,1,TRUE,FALSE,2-May-08,31-Mar-07,20106,0,CHGOFF,18329,20000,10000,61,high,Educational services
6278504005,JAMES C AND SHELLY L BAILEY,GREENSBURG,IN,47240,"PNC BANK, NATIONAL ASSOCIATION",IN,451130,28-Apr-03,2003,60,2,2,0,2,1,2,TRUE,FALSE,,31-Jul-03,20106,0,P I F,0,20000,10000,45,low,Retail trade
7446324004,AAVMA INC,FORT COLLINS,CO,80521,WELLS FARGO BANK NATL ASSOC,SD,541940,18-May-04,2004,70,1,1,0,1,1,1,TRUE,FALSE,,30-Jun-05,20106,0,P I F,0,15000,7500,54,low,"Professional, scientific, and technical services"
8535124010,CUSTOM EMBROIDERY,CLEVELAND,OH,44109,U.S. BANK NATIONAL ASSOCIATION,OH,315211,27-Jan-05,2005,84,4,1,0,4,1,1,TRUE,FALSE,,28-Feb-05,20106,0,P I F,0,20000,10000,31,low,Manufacturing
8688454005,ALL - WAYS CONCRETE,LAKEVILLE,MN,55044,U.S. BANK NATIONAL ASSOCIATION,OH,238110,10-Mar-05,2005,52,1,1,0,1,1,1,TRUE,FALSE,4-Feb-08,30-Apr-05,20106,0,CHGOFF,10000,10000,5000,23,high,Construction
2305195002,Zotogo,NEW YORK,NY,10024,BANK OF AMERICA NATL ASSOC,NC,541519,1-Mar-07,2007,44,1,2,0,1,0,1,TRUE,FALSE,9-Aug-10,31-Mar-07,20107,0,CHGOFF,9846,10000,5000,54,high,"Professional, scientific, and technical services"
6215464009,EYE CLINIC OF VERO INC,VERO BEACH,FL,32960,BANK OF AMERICA NATL ASSOC,NC,621320,1-Apr-03,2003,84,3,1,0,3,1,1,TRUE,FALSE,,30-Apr-03,20107,0,P I F,0,10000,5000,62,low,Health care and social assistance
6979454006,TRENDSETTERS BARBER & BEAUTY S,FALL RIVER,MA,2920,CITIZENS BANK NATL ASSOC,RI,812112,1-Dec-03,2004,4,3,1,0,3,1,1,TRUE,FALSE,20-Dec-10,31-Mar-04,20107,0,CHGOFF,6338,10000,5000,81,high,Other services (except public administration)
7894044007,"DMR CLASS, LLC",GLADSTONE (LINDEN),MO,64118,BMO HARRIS BK NATL ASSOC,IL,722211,5-Oct-04,2005,84,2,2,10,10,1,1,TRUE,FALSE,,31-Oct-04,20108,0,P I F,0,20000,10000,72,low,Accommodation and food services 
8882084005,ACER FOOD CORP,CARROLLTON,TX,75010,COMPASS BANK,AL,445110,24-May-05,2005,84,5,1,0,5,1,1,TRUE,FALSE,,30-Jun-05,20108,0,P I F,0,20000,10000,44,low,Retail trade
2323095000,"COR-METALS, INC.",MASHPEE,MA,2649,CITIZENS BANK NATL ASSOC,RI,333512,9-Mar-07,2007,84,2,2,0,2,0,1,TRUE,FALSE,,30-Jun-07,20109,0,P I F,0,13000,6500,33,low,Manufacturing
4925614001,RICHARD D ONGSTAD INC  A CALIF,SIMI VALLEY (SIMI),CA,93065,BANK OF AMERICA NATL ASSOC,NC,541850,20-Sep-01,2001,84,2,1,0,2,1,1,TRUE,FALSE,,31-Oct-01,20109,0,P I F,0,20000,10000,54,low,"Professional, scientific, and technical services"
5639154009,HORTA FLORICULTURE,VENTURA (CORPORATE NAME SAN BU,CA,93003,BANK OF AMERICA NATL ASSOC,NC,444220,23-Aug-02,2002,84,1,1,0,1,1,1,TRUE,FALSE,,30-Sep-02,20109,0,P I F,0,20000,10000,44,low,Retail trade
7666353008,"SOFTORCE, INC.",AMES,IA,50010,WELLS FARGO BANK NATL ASSOC,SD,541511,12-Oct-94,1995,60,8,1,0,0,1,0,FALSE,TRUE,,31-Jan-95,20110,0,P I F,0,20110,18099,54,low,"Professional, scientific, and technical services"
2026585009,GEORGE JAY SIMON II DBA HIGHTO,MONROE,UT,84754,ZIONS FIRST NATIONAL BANK,UT,721214,19-Sep-06,2006,60,1,1,0,1,0,1,TRUE,FALSE,,30-Sep-06,20111,0,P I F,0,10000,5000,72,low,Accommodation and food services 
5629934003,HONG KONG EXPRESS,HUNTINGTON BEACH,CA,92647,BANK OF AMERICA NATL ASSOC,NC,722211,20-Aug-02,2002,23,7,1,2,7,1,1,TRUE,FALSE,4-Oct-07,31-Aug-02,20111,0,CHGOFF,14010,50000,25000,72,high,Accommodation and food services 
2184255010,Interior Stone Design,TOMS RIVER,NJ,8753,BANK OF AMERICA NATL ASSOC,NC,238140,19-Dec-06,2007,61,1,2,0,1,0,1,FALSE,FALSE,19-Mar-09,28-Feb-07,20112,0,CHGOFF,14995,15000,7500,23,high,Construction
2422496004,TDR HOMETOWN FLOOR COVERING IN,SHADY COVE,OR,97539,WELLS FARGO BANK NATL ASSOC,SD,442210,19-Sep-06,2006,66,5,1,0,5,1,2,TRUE,FALSE,18-Dec-09,31-Oct-06,20113,0,CHGOFF,14493,15000,7500,44,high,Retail trade
8489544005,ROBERT MICHALIDES DBA ROBERT M,MORENO VALLEY,CA,92557,MUFG UNION BANK NATL ASSOC,CA,561740,19-Jan-05,2005,60,1,2,0,0,16033,1,TRUE,FALSE,20-Mar-07,31-Jan-05,20113,0,CHGOFF,9999,10000,5000,56,high,Administrative/support & waste management/remediation Service
4044945002,Terry Frost Trucking,GRANTON,WI,54436,FORWARD FINANCIAL BANK,WI,484110,23-Apr-10,2010,24,4,1,1,5,0,2,FALSE,FALSE,,1-May-10,20114,0,P I F,0,20114,10057,48,low,Transportation and warehousing
2862405007,FW Shunk Construction,North East,PA,16428,FIRST NIAGARA BANK NATL ASSOC,NY,238990,13-Dec-07,2008,60,1,1,1,1,0,1,TRUE,FALSE,,29-Feb-08,20115,0,P I F,0,10500,5250,23,low,Construction
4729185002,"Treasure Hunt Thrift Store, LL",LOUISVILLE,KY,40218,JPMORGAN CHASE BANK NATL ASSOC,IL,448190,14-Jun-11,2011,84,3,2,3,6,0,1,TRUE,FALSE,,1-Jul-11,20115,0,P I F,0,10000,5000,44,low,Retail trade
1457605010,PERRY PFEFFER,PHILADELPHIA,PA,19111,CITIZENS BANK NATL ASSOC,RI,323119,15-Sep-05,2005,84,1,1,0,1,0,1,FALSE,FALSE,,30-Sep-05,20116,0,P I F,0,26000,13000,32,low,Manufacturing
1114875008,"JULIO'S PIZZA, INC. DBA JULIO'",LOS ANGELES,CA,90001,BANK OF AMERICA NATL ASSOC,NC,722110,29-Nov-04,2005,84,12,2,0,0,1,1,TRUE,FALSE,,28-Feb-05,20117,0,P I F,0,10000,5000,72,low,Accommodation and food services 
6265774006,YOUR WAY EXPRESS,MORRISTOWN,IL,61115,U.S. BANK NATIONAL ASSOCIATION,OH,484121,23-Apr-03,2003,6,6,1,0,6,1,1,TRUE,FALSE,24-Feb-10,30-Apr-03,20117,0,CHGOFF,8067,10000,5000,48,high,Transportation and warehousing
1853755000,Northern United Inc,LITTLE FALLS,MN,56345,U.S. BANK NATIONAL ASSOCIATION,OH,811310,2-Jun-06,2006,69,34,1,0,34,0,2,TRUE,FALSE,3-Mar-10,30-Jun-06,20118,0,CHGOFF,17343,20000,10000,81,high,Other services (except public administration)
6566794005,"SQUATRITO BROS, INC",BRISTOL (TOWN OF),RI,2809,CITIZENS BANK NATL ASSOC,RI,722320,7-Aug-03,2003,84,30,1,0,30,1,1,TRUE,FALSE,,31-Oct-03,20118,0,P I F,0,5000,2500,72,low,Accommodation and food services 
7196004009,S & S LAWN,PURCELL,OK,73080,INTERNATIONAL BANK OF COMMERCE,OK,561730,19-Feb-04,2004,84,1,1,0,1,1,1,TRUE,FALSE,,29-Feb-04,20118,0,P I F,0,15000,7500,56,low,Administrative/support & waste management/remediation Service
9083343002,CAF'E SOCIETY,NASHVILLE,TN,37203,BANK OF AMERICA NATL ASSOC,TN,0,12-Mar-96,1996,74,2,2,0,0,1,0,FALSE,TRUE,28-Aug-97,30-Apr-96,20118,0,CHGOFF,5,27400,21920,0,high,
2610755000,"Next to Nature, LLC",SYLVANIA,OH,43560,BANK OF MAUMEE,OH,812199,1-Aug-07,2007,35,2,2,0,2,0,1,TRUE,FALSE,19-Oct-11,31-Aug-07,20120,0,CHGOFF,7565,11500,5750,81,high,Other services (except public administration)
6249974007,BIG SOUL'S BARBECUE,TERRE HAUTE,IN,47802,WELLS FARGO BANK NATL ASSOC,SD,722110,15-Apr-03,2003,6,5,1,0,5,1,1,TRUE,FALSE,27-Oct-06,30-Apr-03,20120,0,CHGOFF,20000,20000,10000,72,high,Accommodation and food services 
8926194006,TOPS TREE SERVICE,SODA SPRINGS,CA,95728,U.S. BANK NATIONAL ASSOCIATION,OH,561730,14-Jun-05,2005,84,2,1,0,2,1,2,TRUE,FALSE,,30-Jun-05,20120,0,P I F,0,20000,10000,56,low,Administrative/support & waste management/remediation Service
1807085010,PARK'S GOLD HAND SPORT,PHILADELPHIA,PA,19149,CITIZENS BANK NATL ASSOC,RI,313111,8-May-06,2006,84,3,1,0,3,0,1,TRUE,FALSE,,30-Jun-06,20121,0,P I F,0,5000,2500,31,low,Manufacturing
1742405008,Herman's Landscaping,YAKIMA,WA,98902,BANK OF AMERICA NATL ASSOC,NC,561730,30-Mar-06,2006,27,3,1,0,3,0,1,TRUE,FALSE,8-Feb-11,30-Apr-06,20123,0,CHGOFF,7659,10000,5000,56,high,Administrative/support & waste management/remediation Service
3222755003,PIER 89 SEAFOOD & CHIPS,MILPITAS,CA,95035,WELLS FARGO BANK NATL ASSOC,SD,722110,23-Sep-08,2008,84,2,2,0,2,0,1,TRUE,FALSE,,1-Oct-09,20123,0,P I F,0,20000,10000,72,low,Accommodation and food services 
7490363006,"MONITEAU MACHINE & MFG, INC.",ROCKY MOUNT,MO,65081,"UMB BANK, NATIONAL ASSOCIATION",MO,332311,18-Aug-94,1994,84,5,1,0,0,1,0,FALSE,TRUE,,31-Oct-94,20123,0,P I F,0,35000,31500,33,low,Manufacturing
8289964008,JORDAN'S PLAY IT CLEAN VIDEO L,SANDY,UT,84094,MOUNTAIN AMERICA FCU,UT,532230,14-Dec-04,2005,84,1,2,0,1,1,1,TRUE,FALSE,,31-Dec-04,20123,0,P I F,0,20000,10000,53,low,Real estate and rental and leasing
1866545006,"Insight Computer Repair, LLC",MISSION VIEJO,CA,92692,BANK OF AMERICA NATL ASSOC,NC,541519,10-Jun-06,2006,84,1,2,0,1,0,1,TRUE,FALSE,,31-Dec-06,20125,0,P I F,0,10000,5000,54,low,"Professional, scientific, and technical services"
7214224010,THE TEXAS EXPRESS COMPANY,AUSTIN,TX,78736,WELLS FARGO BANK NATL ASSOC,SD,236220,25-Feb-04,2004,11,4,1,6,10,1,1,TRUE,FALSE,15-May-06,31-Mar-04,20126,0,CHGOFF,20000,20000,10000,23,high,Construction
7881564000,SMITH TRUCKING COMPANY,FOREST GROVE,OR,97116,WELLS FARGO BANK NATL ASSOC,SD,484110,4-Oct-04,2005,10,1,1,0,1,1,2,TRUE,FALSE,3-Aug-07,31-Oct-04,20126,0,CHGOFF,19998,20000,10000,48,high,Transportation and warehousing
2640046007,WHITE HART FORGE,MILWAUKIE,OR,97267,WELLS FARGO BANK NATL ASSOC,SD,316999,24-Jan-07,2007,49,1,1,5,6,1,1,TRUE,FALSE,20-Mar-10,28-Feb-07,20128,0,CHGOFF,10000,10000,5000,31,high,Manufacturing
2415176004,LONG ISLAND PROMOTIONS,JERICHO,NY,11753,WELLS FARGO BANK NATL ASSOC,SD,315228,15-Sep-06,2006,70,2,1,6,8,1,1,TRUE,FALSE,9-Mar-08,31-Oct-06,20129,0,CHGOFF,19697,20000,10000,31,high,Manufacturing
1542895010,"Top Shelf, L.L.C.",HALLANDALE,FL,33009,BANK OF AMERICA NATL ASSOC,NC,481211,16-Nov-05,2006,52,1,2,0,1,0,1,TRUE,FALSE,1-Oct-09,31-Dec-06,20130,0,CHGOFF,9826,10000,5000,48,high,Transportation and warehousing
2433865007,DISCOTECA EL HUARACHAZO,NORTH LAS VEGAS,NV,89032,U.S. BANK NATIONAL ASSOCIATION,OH,453998,3-May-07,2007,84,2,1,2,4,0,1,TRUE,FALSE,,31-Jul-07,20130,0,P I F,0,10000,5000,45,low,Retail trade
